Brand,City,Country,Email,Hours,House_Number,ID,Latitude,Longitude,Name,Operator,Phone Number,Postal_Code,Province,Street,Wheelchair,geometry
TD Canada Trust,,,,,,42606794,43.6549658,-79.3878390,TD Canada Trust,,,,,,,POINT (-79.387839 43.6549658)
RBC,Toronto,,,,443,42606800,43.6546864,-79.3877875,RBC,,,,,University Avenue,,POINT (-79.3877875 43.6546864)
CIBC,,,,,,48553576,43.6782279,-79.3474071,CIBC,CIBC,,,,,,POINT (-79.3474071 43.6782279)
RBC,,,,,,48553584,43.6790726,-79.3451373,RBC,,,,,,yes,POINT (-79.3451373 43.6790726)
National Bank,,,,,,48553736,43.6786807,-79.3453936,National Bank,,,,,,,POINT (-79.34539359999999 43.6786807)
CIBC,Toronto,,,,205,53542662,43.6504736,-79.3875970,CIBC,CIBC,,,,Queen Street West,yes,POINT (-79.387597 43.6504736)
TD Canada Trust,,,,,,53542712,43.6516600,-79.3818522,TD Canada Trust,,,,,,,POINT (-79.3818522 43.65166)
TD Canada Trust,Toronto,,,Mo-We 08:00-18:00; Th-Fr 08:00-20:00; Sa 08:00-16:00; Su off,165,60930914,43.6746006,-79.3963035,TD Canada Trust,,,,,Avenue Road,yes,POINT (-79.3963035 43.6746006)
CIBC,Toronto,,,,532,62574880,43.6652895,-79.4110785,CIBC,CIBC,,,,Bloor Street West,yes,POINT (-79.4110785 43.6652895)
TD Canada Trust,Toronto,,,,574,62574888,43.6650491,-79.4120944,TD Canada Trust,TD Canada Trust,,,,Bloor Street West,no,POINT (-79.4120944 43.6650491)
BMO,,,,,,118422310,43.6553511,-79.3862549,BMO,Bank of Montreal,,,,,,POINT (-79.3862549 43.6553511)
BMO,Toronto,,,Mo-Fr 08:00-18:00; Sa-Su off,438,118422987,43.6546209,-79.3886431,BMO,Bank of Montreal,,,,University Avenue,,POINT (-79.3886431 43.6546209)
CIBC,Toronto,,,,460,118423294,43.6548789,-79.3888261,CIBC,CIBC,,,,University Avenue,,POINT (-79.3888261 43.6548789)
TD Canada Trust,,,,"Mo-We 09:00-18:00, Th-Fr 09:00-20:00, Sa 09:00-16:00",,158694452,43.6494869,-79.4206095,TD Canada Trust,,,,,,yes,POINT (-79.4206095 43.6494869)
CIBC,Toronto,,,"Mo-We 09:00-17:00, Th-Fr 09:00-19:00, Sa 09:00-16:00",235,158694453,43.6492225,-79.4205494,CIBC,,,,,Ossington Avenue,yes,POINT (-79.4205494 43.6492225)
TD Canada Trust,,,,Mo-We 08:00-18:00; Th-Fr 08:00-20:00; Sa 08:00-16:00; Su off,,158712943,43.6804829,-79.4323839,TD Canada Trust,,,,,,no,POINT (-79.4323839 43.6804829)
CIBC,,,,,,158713932,43.6826190,-79.4200684,CIBC,,,,,,,POINT (-79.42006840000001 43.682619)
CIBC,,,,,,207715089,43.6581003,-79.4004508,CIBC,CIBC,,,,,,POINT (-79.4004508 43.6581003)
TD Canada Trust,,,,,,209248231,43.6882787,-79.3939554,TD Canada Trust,,,,,,yes,POINT (-79.3939554 43.6882787)
RBC,Toronto,,,,10,209248235,43.6880640,-79.3952113,RBC,,+1-416-974-7840,,,St. Clair Avenue West,,POINT (-79.3952113 43.688064)
Scotiabank,,,,,,209248239,43.6879606,-79.3938392,Scotiabank,,,,,,,POINT (-79.3938392 43.6879606)
TD Canada Trust,,,,,,240433358,43.6799847,-79.3909510,TD Canada Trust,,,,,,no,POINT (-79.390951 43.6799847)
National Bank,Toronto,,,,747,244885465,43.6548046,-79.4198243,National Bank,,+1-416-537-3182,M6G 1C5,,College Street,yes,POINT (-79.4198243 43.6548046)
TD Canada Trust,Toronto,,,,632,244885490,43.6550912,-79.4153237,TD Canada Trust,,,,,College Street,no,POINT (-79.4153237 43.6550912)
BMO,Toronto,,,,568,245020010,43.6555594,-79.4128022,BMO,,+1-416-534-8441,M6G 1B3,,College Street,yes,POINT (-79.4128022 43.6555594)
BMO,Toronto,,,"Mo-We 09:00-17:00, Th-Fr 09:00-19:00, Sa 09:00-16:00",1102,245022492,43.6496520,-79.4197417,BMO,,,,,Dundas Street West,limited,POINT (-79.4197417 43.649652)
TD Canada Trust,,,,,,246694245,43.6608087,-79.3849397,TD Canada Trust,,,,,,yes,POINT (-79.3849397 43.6608087)
CIBC,,,,,,246694246,43.6605979,-79.3859841,CIBC,CIBC,,,,,,POINT (-79.3859841 43.6605979)
Alterna Savings,,,,,,246694247,43.6608993,-79.3861254,Alterna Savings,,,,,,,POINT (-79.3861254 43.6608993)
RBC,Etobicoke,,,,3609,247134310,43.5938589,-79.5353071,RBC,,,,,Lake Shore Boulevard West,,POINT (-79.5353071 43.5938589)
RBC,Toronto,,,,434,249298648,43.6457393,-79.3942953,RBC,RBC,,,,King Street West,,POINT (-79.3942953 43.6457393)
Meridian Credit Union,,,,,,251246409,43.6516496,-79.4509898,Meridian Credit Union,,,,,,,POINT (-79.4509898 43.6516496)
CIBC,,,,,,252170710,43.6569416,-79.4523337,CIBC,CIBC,,M6P 4A9,,Dundas Street West,,POINT (-79.4523337 43.6569416)
Scotiabank,,,,,,260338409,43.6547709,-79.4588207,Scotiabank,,,,,,,POINT (-79.4588207 43.6547709)
CIBC,,,,,,264107462,43.6902205,-79.2906506,CIBC,CIBC,,,,,,POINT (-79.29065060000001 43.6902205)
BMO,,,,,,264414083,43.6855628,-79.3125376,BMO,,,,,,,POINT (-79.3125376 43.6855628)
Scotiabank,,,,Mo-Fr 09:30-16:00; Fr 09:30-20:00,,264415207,43.6879586,-79.3012765,Scotiabank,,,,,,,POINT (-79.3012765 43.6879586)
RBC,,,,,,264826252,43.6857011,-79.3135430,RBC,,,,,,,POINT (-79.313543 43.6857011)
Scotiabank,,,,,,264826384,43.6857132,-79.3132039,Scotiabank,,,,,,,POINT (-79.3132039 43.6857132)
Scotiabank,,,,,,266540292,43.7055361,-79.3129510,Scotiabank,,,,,,,POINT (-79.312951 43.7055361)
RBC,,,,,,266540327,43.7060127,-79.3120812,RBC,,,,,,,POINT (-79.31208119999999 43.7060127)
TD Canada Trust,,,,Mo-Fr 08:00-20:00; Sa 08:00-16:00; Su off,,267131374,43.6915139,-79.2887998,TD Canada Trust,,,,,,,POINT (-79.28879980000001 43.6915139)
Meridian Credit Union,,,,,375,273325242,43.6511039,-79.3810285,Meridian Credit Union,,,M5H 2V5,,Bay Street,,POINT (-79.3810285 43.6511039)
TD Canada Trust,Toronto,,,Mo-We 08:00-18:00; Th-Fr 08:00-20:00; Sa 08:00-16:00; Su off,110,273325246,43.6502261,-79.3785002,TD Canada Trust,TD Canada Trust,+1-416-869-6262,,,Yonge Street,yes,POINT (-79.3785002 43.6502261)
CIBC,,,,,,277040111,43.6835390,-79.3234489,CIBC,,,,,,yes,POINT (-79.3234489 43.683539)
TD Canada Trust,,,,Mo-Fr 08:00-20:00; Sa 08:00-16:00,,277040119,43.6840572,-79.3211211,TD Canada Trust,,,,,,yes,POINT (-79.3211211 43.6840572)
CIBC,,,,,,277120905,43.6763935,-79.3586989,CIBC,,,,,,yes,POINT (-79.35869889999999 43.6763935)
RBC,,,,,,278103209,43.6895082,-79.2965678,RBC,,,,,,,POINT (-79.29656780000001 43.6895082)
Scotiabank,,,,,,280493846,43.6647874,-79.3842539,Scotiabank,,,,,,yes,POINT (-79.3842539 43.6647874)
TD Canada Trust,,,,Mo-We 08:00-18:00; Th-Fr 08:00-20:00; Sa 08:00-16:00; Su off,,280900977,43.6611949,-79.3821143,TD Canada Trust,,,,,,yes,POINT (-79.3821143 43.6611949)
RBC,,,,,,280901587,43.6727893,-79.3190655,RBC,,,,,,,POINT (-79.31906549999999 43.6727893)
Scotiabank,Toronto,,,,214,281658965,43.6503456,-79.3895418,Scotiabank,,+1-416-866-6591,M5V 1Z3,,Queen Street West,yes,POINT (-79.3895418 43.6503456)
CIBC,Toronto,,,,70,281664445,43.6497308,-79.3757635,CIBC,CIBC,,,,King Street East,,POINT (-79.37576350000001 43.6497308)
BMO,,,,,,281669607,43.6526831,-79.3790982,BMO,Bank of Montreal,,,,,yes,POINT (-79.3790982 43.6526831)
RBC,,,,,,288058263,43.7035781,-79.4125477,RBC,,,,,,,POINT (-79.4125477 43.7035781)
TD Canada Trust,,,,Mo-We 08:00-18:00; Th-Fr 08:00-20:00; Sa 08:00-16:00,,288058313,43.7038804,-79.4124645,TD Canada Trust,,,,,,no,POINT (-79.4124645 43.7038804)
Scotiabank,,,,,,292781390,43.6655938,-79.3524652,Scotiabank,,,,,,,POINT (-79.3524652 43.6655938)
TD Canada Trust,,,,,,295326050,43.6860529,-79.3765185,TD Canada Trust,,,,,,,POINT (-79.3765185 43.6860529)
RBC,Toronto,,,,2,296784683,43.6704886,-79.3864652,RBC,RBC,,,,Bloor Street East,,POINT (-79.3864652 43.6704886)
TD Canada Trust,,,,,,302045075,43.7942493,-79.3532308,TD Canada Trust,,,,,,,POINT (-79.35323080000001 43.7942493)
TD Canada Trust,,,,,,302171978,43.7542404,-79.3589888,TD Canada Trust,,,,,,,POINT (-79.35898880000001 43.7542404)
RBC,,,,,,302417010,43.8050316,-79.3840691,RBC,,,,,,,POINT (-79.3840691 43.8050316)
TD Canada Trust,,,,,,302473943,43.7466241,-79.3854402,TD Canada Trust,,,,,,,POINT (-79.38544020000001 43.7466241)
TD Canada Trust,,,,,1800,305767395,43.7778087,-79.3458636,TD Canada Trust,,,,,Sheppard Avenue East,yes,POINT (-79.3458636 43.7778087)
TD Canada Trust,,,,,,307900372,43.7283869,-79.4793307,TD Canada Trust,,,,,,,POINT (-79.47933070000001 43.7283869)
TD Canada Trust,Toronto,,,Mo-We 08:00-18:00; Th-Fr 08:00-20:00; Sa 08:00-16:00; Su 12:00-16:00,77,308696704,43.6694974,-79.3895821,TD Canada Trust,,,M4Y 2T1,,Bloor Street West,yes,POINT (-79.3895821 43.6694974)
BMO,,,,,,308696746,43.6697574,-79.3884078,BMO,Bank of Montreal,,,,,,POINT (-79.3884078 43.6697574)
TD Canada Trust,East York,,,,321,314142737,43.6969395,-79.3695687,TD Canada Trust,,,M4G 3T6,,Moore Avenue,yes,POINT (-79.3695687 43.6969395)
BMO,,,,,,315646034,43.6678323,-79.3092955,BMO,,,,,,,POINT (-79.3092955 43.6678323)
HSBC,,,,,,315646772,43.6685771,-79.3059033,HSBC,,,,,,,POINT (-79.3059033 43.6685771)
TD Canada Trust,,,,,,317428331,43.6706264,-79.2979257,TD Canada Trust,,,,,,,POINT (-79.29792569999999 43.6706264)
RBC,,,,,,317428340,43.6703283,-79.2976937,RBC,,,,,,,POINT (-79.2976937 43.6703283)
BMO,,,,,,339550209,43.7175222,-79.4550771,BMO Bank of Montreal,,,,,,,POINT (-79.4550771 43.7175222)
TD Canada Trust,North York,,,,3140,339550231,43.7166351,-79.4563575,TD Canada Trust,,+1-416-785-7230,,,Dufferin Street,,POINT (-79.4563575 43.7166351)
BMO,Toronto,,,,112,343270931,43.6469768,-79.3959514,BMO,Bank of Montreal,,,,Spadina Avenue,yes,POINT (-79.3959514 43.6469768)
BMO,,,,,,344473395,43.6599901,-79.3852164,BMO,Bank of Montreal,,,,,yes,POINT (-79.3852164 43.6599901)
BMO,,,,,,344544934,43.6637542,-79.3803409,BMO,Bank of Montreal,,,,,,POINT (-79.38034089999999 43.6637542)
Scotiabank,,,,,,354971781,43.6475489,-79.3840222,Scotiabank,,,,,,,POINT (-79.3840222 43.6475489)
CIBC,,,,Mo-We 08:00-17:00; Th-Fr 08:00-18:00,,354972468,43.6475082,-79.3849711,CIBC,CIBC,,,,,,POINT (-79.3849711 43.6475082)
Tangerine,Toronto,,,,223,355047081,43.6539758,-79.3797423,Tangerine,Scotiabank,,,,Yonge Street,,POINT (-79.3797423 43.6539758)
TD Canada Trust,,,,,,357059435,43.7895679,-79.1405143,TD Canada Trust,,,,,,,POINT (-79.14051430000001 43.7895679)
Scotiabank,,,,Mo-We 09:30-16:00; Th-Fr 09:30-20:00; Sa 09:30-15:00; Su off,,357059438,43.7900220,-79.1403786,Scotiabank,,,,,,,POINT (-79.14037860000001 43.790022)
BMO,,,,,,357061949,43.7800957,-79.1376925,BMO,,,,,,,POINT (-79.1376925 43.7800957)
BMO,,,,,,360478992,43.7007553,-79.5178518,BMO,,,,,,,POINT (-79.5178518 43.7007553)
RBC,,,,,,361017235,43.7001827,-79.5169784,RBC,,,,,,,POINT (-79.5169784 43.7001827)
TD Canada Trust,,,,,,364168577,43.7569641,-79.5891456,TD Canada Trust,,,,,,,POINT (-79.58914559999999 43.7569641)
TD Canada Trust,,,,,,367105231,43.7731254,-79.2824687,TD Canada Trust,,,,,,,POINT (-79.2824687 43.7731254)
HSBC,,,,Mo-Fr 10:00-18:00; Sa 10:00-16:00,3014,370214388,43.6474776,-79.5116318,HSBC,,,,,Bloor Street West,,POINT (-79.5116318 43.6474776)
BMO,Etobicoke,,,,1500,370216399,43.6923202,-79.5316675,BMO,,,,,Royal York Road,,POINT (-79.5316675 43.6923202)
TD Canada Trust,Etobicoke,,,,972,370219557,43.7365424,-79.5624310,TD Canada Trust,,+1-416-743-8121,M9V 1A7,,Albion Road,yes,POINT (-79.562431 43.7365424)
BMO,,,,Mo-We 09:30-17:00; Th-Fr 09:30-19:00; Sa 09:30-16:00; Su closed,,371385460,43.6503786,-79.4806298,BMO,,,,,,,POINT (-79.4806298 43.6503786)
RBC,,,,,,371385463,43.6501286,-79.4802229,RBC,,,,,,,POINT (-79.4802229 43.6501286)
Scotiabank,Toronto,,,,2295,371385466,43.6503810,-79.4790342,Scotiabank,,,,,Bloor Street West,,POINT (-79.4790342 43.650381)
Scotiabank,,,,,,371731574,43.7987378,-79.3186401,Scotiabank,,,,,,,POINT (-79.3186401 43.7987378)
RBC,,,,,,371731741,43.7982057,-79.3179692,RBC,Royal Bank of Canada,,,,,,POINT (-79.31796919999999 43.7982057)
CIBC,,,,,,372346817,43.6616838,-79.3794728,CIBC,CIBC,,,,,,POINT (-79.3794728 43.6616838)
RBC,,,,,,372369978,43.6686348,-79.3376544,RBC,,,,,,,POINT (-79.33765440000001 43.6686348)
TD Canada Trust,,,,,,372507294,43.6970725,-79.3294310,TD Canada Trust,,,,,,,POINT (-79.329431 43.6970725)
RBC,,,,,,372511421,43.6970513,-79.3289613,RBC,,,,,,,POINT (-79.3289613 43.6970513)
Scotiabank,,,,,,382898661,43.8234343,-79.2486063,Scotiabank,,,,,,,POINT (-79.24860630000001 43.8234343)
National Bank,,,,,2200,383551093,43.7516767,-79.5998994,National Bank,,,,,Martin Grove Road,,POINT (-79.5998994 43.7516767)
CIBC,,,,,,383551118,43.7135655,-79.5812632,CIBC,,,,,,,POINT (-79.5812632 43.7135655)
CIBC,,,,,201,383562243,43.6754460,-79.5558959,CIBC,,,,,Lloyd Manor Road,,POINT (-79.5558959 43.675446)
TD Canada Trust,York,,,,2623,383629928,43.6898749,-79.4751650,TD Canada Trust,,,,,Eglinton Avenue West,,POINT (-79.475165 43.6898749)
CIBC,,,,,,383629960,43.6921424,-79.4673064,CIBC,,,,,,,POINT (-79.4673064 43.6921424)
BMO,,,,,,383630004,43.6951096,-79.4520745,BMO,,,,,,,POINT (-79.45207449999999 43.6951096)
TD Canada Trust,,,,,,385624375,43.7549377,-79.2448822,TD Canada Trust,,,,,,,POINT (-79.24488220000001 43.7549377)
TD Canada Trust,,,,,,385626640,43.7252260,-79.2533890,TD Canada Trust,,,,,,,POINT (-79.253389 43.725226)
CIBC,,,,,,386776791,43.7684331,-79.3852574,CIBC,,,,,,,POINT (-79.3852574 43.7684331)
HSBC,,,,,,386804237,43.7482640,-79.3846811,HSBC,,,,,,,POINT (-79.38468109999999 43.748264)
BMO,Toronto,,,,640,387449955,43.6644298,-79.4150057,BMO,Bank of Montreal,,,,Bloor Street West,,POINT (-79.41500569999999 43.6644298)
Scotiabank,,,,,,387787108,43.7184278,-79.3375333,Scotiabank,,,,,,,POINT (-79.3375333 43.7184278)
BMO,,,,,,387788662,43.7724995,-79.2510842,BMO,,,,,,,POINT (-79.25108419999999 43.7724995)
TD Canada Trust,,,,,,387788665,43.7749137,-79.2410663,TD Canada Trust,,,,,,,POINT (-79.2410663 43.7749137)
Scotiabank,,,,,,387790720,43.7061668,-79.3462128,Scotiabank,,,,,,yes,POINT (-79.3462128 43.7061668)
TD Canada Trust,,,,,,387790721,43.7062844,-79.3457875,TD Canada Trust,,,,,,yes,POINT (-79.3457875 43.7062844)
RBC,,,,,,387791395,43.7072831,-79.3430130,RBC,,,,,,yes,POINT (-79.343013 43.7072831)
RBC,,,,,,387792407,43.7366607,-79.3441631,RBC,,,,,,,POINT (-79.3441631 43.7366607)
Scotiabank,,,,,,387793132,43.7550303,-79.3477813,Scotiabank,,,,,,,POINT (-79.34778129999999 43.7550303)
Scotiabank,Toronto,,,,79,389607948,43.6530273,-79.3758591,Scotiabank,,,M5C 1R8,,Queen Street East,yes,POINT (-79.3758591 43.6530273)
CIBC,North York,,,,946,390354859,43.7370966,-79.3461756,CIBC,,,,,Lawrence Avenue East,,POINT (-79.3461756 43.7370966)
Scotiabank,,,,,,390354861,43.7357616,-79.3482945,Scotiabank,,,,,,,POINT (-79.34829449999999 43.7357616)
Scotiabank,,,,,,390360305,43.7682862,-79.3861674,Scotiabank,,,,,,,POINT (-79.38616740000001 43.7682862)
BMO,,,,,,391005491,43.6488521,-79.3808751,BMO,Bank of Montreal,,,,,,POINT (-79.3808751 43.6488521)
TD Canada Trust,,,,,,391011816,43.6467933,-79.3790175,TD Canada Trust,TD Canada Trust,,,,,,POINT (-79.3790175 43.6467933)
TD Canada Trust,,,,Mo-Fr 08:00-20:00; Sa 08:00-16:00; Su off,,391166245,43.7880349,-79.3803176,TD Canada Trust,,,,,,,POINT (-79.3803176 43.7880349)
CIBC,North York,,,,143,391174568,43.7908724,-79.3670995,CIBC,,,,,Ravel Road,,POINT (-79.36709949999999 43.7908724)
BMO,,,,,,391181071,43.7793092,-79.3640008,BMO,,,,,,,POINT (-79.3640008 43.7793092)
RBC,,,,,,392154393,43.7471841,-79.3846424,RBC,,,,,,,POINT (-79.3846424 43.7471841)
BMO,,,,,,392156991,43.7076261,-79.3761432,BMO,,,,,,,POINT (-79.3761432 43.7076261)
Scotiabank,,,,,,392157018,43.7052464,-79.3747298,Scotiabank,,,,,,,POINT (-79.3747298 43.7052464)
TD Canada Trust,,,,Mo-We 08:00-18:00; Th-Fr 08:00-20:00; Sa 08:00-16:00; Su off,,392509165,43.7049748,-79.3977417,TD Canada Trust,,,,,,yes,POINT (-79.3977417 43.7049748)
BMO,,,,,,392512379,43.7065235,-79.3985988,BMO,,,,,,yes,POINT (-79.3985988 43.7065235)
Scotiabank,,,,,,392512400,43.7064132,-79.3986053,Scotiabank,,,,,,,POINT (-79.3986053 43.7064132)
BMO,,,,Mo-Th 09:30-17:00; Fr 09:30-19:00; Sa 09:30-16:00,,393672323,43.6534544,-79.3979581,BMO,Bank of Montreal,,,,,,POINT (-79.3979581 43.6534544)
CIBC,Toronto,,,Mo-Tu 09:00-17:00; We-Th 09:00-20:00; Fr 09:00-19:00; Sa 09:00-16:00; Su off,1,393673553,43.6402812,-79.3933078,CIBC,CIBC,+1-416-623-9816,M5V 3Y7,,Fort York Boulevard,,POINT (-79.3933078 43.6402812)
RBC,Toronto,,,,6,393673556,43.6407041,-79.3935507,RBC,RBC,,,,Fort York Boulevard,,POINT (-79.39355070000001 43.6407041)
CIBC,Toronto,,,"Mo,Tu 09:30-17:00, We,Th 09:30-20:00, Fr 09:30-19:00, Sa 09:00-16:00",245,400705661,43.6640820,-79.3681142,CIBC,,+1-416-980-6179,,,Carlton Street,yes,POINT (-79.36811419999999 43.664082)
TD Canada Trust,,,,,,400707922,43.6552530,-79.3644878,TD Canada Trust,,,,,,yes,POINT (-79.36448780000001 43.655253)
CIBC,Toronto,,,,378,401521683,43.6489979,-79.3961422,CIBC,CIBC,,,,Queen Street West,yes,POINT (-79.3961422 43.6489979)
Alterna Savings,,,,,,409181181,43.6832532,-79.3231592,Alterna Savings,,,,,,,POINT (-79.32315920000001 43.6832532)
HSBC,,,,,,410375775,43.7325011,-79.4554387,HSBC,,,,,,,POINT (-79.4554387 43.7325011)
CIBC,,,,,1700,410375812,43.7212822,-79.5112747,CIBC,,,,,Wilson Avenue,,POINT (-79.5112747 43.7212822)
TD Canada Trust,,,,,,410375815,43.7197068,-79.5108512,TD Canada Trust,,,,,,,POINT (-79.5108512 43.7197068)
Scotiabank,,,,,,410375816,43.7196372,-79.5111136,Scotiabank,,,,,,,POINT (-79.5111136 43.7196372)
BMO,,,,,,410376722,43.7231322,-79.5600257,BMO,,,,,,,POINT (-79.5600257 43.7231322)
RBC,,,,,,410797709,43.6756330,-79.3581339,RBC,,,,,,yes,POINT (-79.3581339 43.675633)
Scotiabank,,,,,,410799729,43.7682040,-79.4681278,Scotiabank,,,,,,,POINT (-79.4681278 43.768204)
CIBC,,,,,,410800476,43.7736059,-79.4418592,CIBC,CIBC,,,,,,POINT (-79.4418592 43.7736059)
BMO,,,,,,410983906,43.6714433,-79.4216145,BMO,,,,,,,POINT (-79.4216145 43.6714433)
TD Canada Trust,,,,,125,411934233,43.6304911,-79.4821747,TD Canada Trust,,,,,The Queensway,yes,POINT (-79.4821747 43.6304911)
CIBC,,,,,,412343866,43.6474610,-79.3768221,CIBC,CIBC,,,,,,POINT (-79.3768221 43.647461)
TD Canada Trust,,,,Mo-We 08:00-18:00; Th-Fr 08:00-20:00; Sa 08:00-16:00; Su off,,412345963,43.6492514,-79.3724309,TD Canada Trust,TD Canada Trust,,,,,yes,POINT (-79.3724309 43.6492514)
,,,,,,414737594,43.6323718,-79.5525995,Ukrainian Credit Union,,,,,,,POINT (-79.5525995 43.6323718)
BMO,,,,,863,414983787,43.6106977,-79.5476561,BMO,,,,,Brown's Line,,POINT (-79.5476561 43.6106977)
CIBC,,,,,,417231073,43.7092175,-79.4776609,CIBC,,,,,,,POINT (-79.4776609 43.7092175)
Scotiabank,,,,,,417232561,43.7188715,-79.4324175,Scotiabank,,,,,,,POINT (-79.4324175 43.7188715)
CIBC,,,,,,417729665,43.7551419,-79.3600373,CIBC,CIBC,,,,,yes,POINT (-79.3600373 43.7551419)
TD Canada Trust,North York,,,Mo-We 08:00-18:00; Th-Fr 08:00-20:00; Sa 08:00-16:00; Su off,61,421328758,43.7454595,-79.3248495,TD Canada Trust,,,,,Underhill Drive,,POINT (-79.3248495 43.7454595)
Scotiabank,,,,,,423019174,43.7563319,-79.3141889,Scotiabank,,,,,,,POINT (-79.3141889 43.7563319)
CIBC,,,,,1500,429256527,43.6624193,-79.5322077,CIBC,,,,,Islington Avenue,,POINT (-79.5322077 43.6624193)
Scotiabank,,,,"Mo,Tu,Fr 09:30-17:00; We,Th 09:30-20:00; Sa 09:30-16:00",,429659320,43.8065410,-79.2215056,Scotiabank,,,,,,,POINT (-79.2215056 43.806541)
Scotiabank,,,,,,431302420,43.7096968,-79.2479783,Scotiabank,,,,,,,POINT (-79.2479783 43.7096968)
TD Canada Trust,,,,,,432772911,43.6625768,-79.5317888,TD Canada Trust,,,,,,,POINT (-79.5317888 43.6625768)
Scotiabank,,,,,,432774047,43.7085303,-79.4759481,Scotiabank,,,,,,,POINT (-79.4759481 43.7085303)
BMO,,,,,,432775824,43.6138621,-79.4894314,BMO,,,,,,,POINT (-79.4894314 43.6138621)
RBC,Etobicoke,,,,1233,432778815,43.6210650,-79.5247746,RBC,,,,,The Queensway,,POINT (-79.5247746 43.621065)
CIBC,,,,,,433542284,43.7076523,-79.2681094,CIBC,,,,,,yes,POINT (-79.2681094 43.7076523)
BMO,,,,,,436912959,43.7978812,-79.2703981,BMO,,,,,,,POINT (-79.27039809999999 43.7978812)
CIBC,,,,,,474961236,43.6781561,-79.4429097,CIBC,CIBC,,,,,,POINT (-79.4429097 43.6781561)
TD Canada Trust,,,,Mo-We 08:00-18:00; Th-Fr 08:00-20:00; Sa 08:00-16:00; Su off,,474965307,43.7375820,-79.4337650,TD Canada Trust,,,,,,,POINT (-79.43376499999999 43.737582)
TD Canada Trust,North York,,,"Su 11:00-16:00, Mo-We 08:00-18:00, Th-Fr 08:00-20:00, Sa 08:00-16:00",580,474967355,43.7562406,-79.4390032,TD Canada Trust,,,M3H 2S1,,Sheppard Avenue West,,POINT (-79.4390032 43.7562406)
RBC,,,,,,474967386,43.7838395,-79.4466790,RBC,,,,,,,POINT (-79.446679 43.7838395)
BMO,,,,,,474968529,43.7872281,-79.4170689,BMO,,,,,,,POINT (-79.4170689 43.7872281)
RBC,,,,,5001,475444415,43.7658464,-79.4116156,RBC,,,,,Yonge Street,,POINT (-79.4116156 43.7658464)
TD Canada Trust,,,,,,495302124,43.7334424,-79.3457895,TD Canada Trust,,,,,,yes,POINT (-79.3457895 43.7334424)
BMO,,,,,,495883885,43.7466889,-79.2000497,BMO,,,,,,,POINT (-79.20004969999999 43.7466889)
CIBC,,,,,,495883889,43.7466458,-79.2002035,CIBC,,,,,,,POINT (-79.2002035 43.7466458)
RBC,,,,,,502020460,43.6794316,-79.4355056,RBC,,,,,,,POINT (-79.4355056 43.6794316)
Scotiabank,,,,,,502078127,43.6782520,-79.4424556,Scotiabank,,,,,,,POINT (-79.4424556 43.678252)
TD Canada Trust,Toronto,,,Mo-We 08:00-18:00; Th-Fr 08:00-20:00; Sa 08:00-16:00; Su off,510,502704898,43.6831840,-79.4188440,TD Canada Trust,,,,,St. Clair Avenue West,yes,POINT (-79.41884400000001 43.683184)
National Bank,,,,,,502704917,43.6766104,-79.4481688,National Bank,,,,,,,POINT (-79.4481688 43.6766104)
BMO,,,,,,504687083,43.6551540,-79.4338144,BMO,,,,,,,POINT (-79.4338144 43.655154)
CIBC,,,,,,515618891,43.6522301,-79.3788884,CIBC,CIBC,,,,,,POINT (-79.37888839999999 43.6522301)
Scotiabank,,,,,,517226072,43.7270811,-79.4025175,Scotiabank,,,,,,,POINT (-79.4025175 43.7270811)
RBC,,,,,,517226073,43.7290201,-79.4033918,RBC,,,,,,,POINT (-79.40339179999999 43.7290201)
CIBC,,,,,,517226079,43.7300086,-79.4036485,CIBC,,,,,,,POINT (-79.4036485 43.7300086)
TD Canada Trust,North York,,,Mo-Fr 08:00-18:00,3415,517226082,43.7328971,-79.4040050,TD Canada Trust,TD Canada Trust,+1-416-487-1537,M4N 2M8,,Yonge Street,no,POINT (-79.404005 43.7328971)
BMO,Toronto,,,Mo-We 09:00-17:00; Th-Fr 09:00-18:00; Sa 09:00-16:00,3320,517227446,43.7311900,-79.4040412,BMO,,,,,Yonge Street,,POINT (-79.40404119999999 43.73119)
HSBC,,,,,,518276575,43.6500690,-79.3780775,HSBC,,,,,,,POINT (-79.3780775 43.650069)
RBC,Toronto,,,Mo-Fr 08:00-17:00,200,519717323,43.6461841,-79.3795289,RBC,,+1-416-955-5115 (insurance),,,Bay Street,,POINT (-79.3795289 43.6461841)
ICICI Bank,,,,,,519717374,43.6504230,-79.3811592,ICICI Bank,,,,,,,POINT (-79.3811592 43.650423)
Scotiabank,,,,,,519717391,43.6514400,-79.3816230,Scotiabank,,,,,,,POINT (-79.381623 43.65144)
BMO,,,,,,524113987,43.7106954,-79.3994341,BMO,BMO,,,,,,POINT (-79.39943409999999 43.7106954)
TD Canada Trust,Toronto,,,Mo-We 08:00-18:00; Th-Fr 08:00-20:00; Sa 08:00-16:00; Su 11:00-16:00,2453,524114023,43.7112702,-79.3990987,TD Canada Trust,,,,,Yonge Street,yes,POINT (-79.3990987 43.7112702)
TD Canada Trust,,,,Mo-We 08:00-18:00; Th-Fr 08:00-20:00; Sa 08:00-16:00; Su off,,524119577,43.7275397,-79.4030839,TD Canada Trust,,,,,,,POINT (-79.4030839 43.7275397)
CIBC,,,,,,524150961,43.6529369,-79.3971788,CIBC,CIBC,,,,,,POINT (-79.39717880000001 43.6529369)
BOC,,,,,,524150970,43.6537370,-79.3947557,BOC,,,,,,,POINT (-79.3947557 43.653737)
TD Canada Trust,North York,,,,50,530274995,43.7698388,-79.3713780,TD Canada Trust,TD Canada Trust,,,,Provost Drive,,POINT (-79.37137800000001 43.7698388)
CIBC,,,,,,530787065,43.6453610,-79.4485152,CIBC,CIBC,,,,,yes,POINT (-79.4485152 43.645361)
Scotiabank,,,,,,530787069,43.6452978,-79.4484940,Scotiabank,,,,,,,POINT (-79.448494 43.6452978)
RBC,,,,,,530789557,43.6447523,-79.4482598,RBC,Royal Bank,,,,,,POINT (-79.4482598 43.6447523)
Scotiabank,,,,,,534376180,43.6529896,-79.3983556,Scotiabank,,,,,,,POINT (-79.3983556 43.6529896)
CIBC,,,,,,534453399,43.6878836,-79.3942306,CIBC,CIBC,,,,,,POINT (-79.3942306 43.6878836)
Scotiabank,,,,,,535008506,43.7041255,-79.4115234,Scotiabank,,,,,,,POINT (-79.41152339999999 43.7041255)
CIBC,,,,,,535026357,43.6996456,-79.4326162,CIBC,CIBC,,,,,,POINT (-79.4326162 43.6996456)
BMO,,,,,,535026377,43.7007433,-79.4273647,BMO,,,,,,,POINT (-79.4273647 43.7007433)
TD Canada Trust,,,,,,535026380,43.7010981,-79.4257714,TD Canada Trust,,,,,,no,POINT (-79.4257714 43.7010981)
RBC,,,,,,535026381,43.7009086,-79.4266289,RBC,,,,,,,POINT (-79.4266289 43.7009086)
Scotiabank,,,,,,535026384,43.7007983,-79.4256578,Scotiabank,,,,,,,POINT (-79.4256578 43.7007983)
BMO,Etobicoke,,,,3022,535036457,43.6473827,-79.5119835,BMO Bank of Montreal,,,,,Bloor Street West,,POINT (-79.5119835 43.6473827)
TD Canada Trust,,,,Mo-Fr 08:00-20:00; Sa 08:00-16:00; Su 11:00-16:00,2972,535036461,43.6480098,-79.5091563,TD Canada Trust,,,,,Bloor Street West,no,POINT (-79.5091563 43.6480098)
RBC,,,,,,538159523,43.6884777,-79.4127866,RBC,RBC,,,,,,POINT (-79.4127866 43.6884777)
Scotiabank,,,,,,538159524,43.6886746,-79.4128602,Scotiabank,,,,,,,POINT (-79.4128602 43.6886746)
BMO,,,,,,538343125,43.6711550,-79.3834663,BMO,,,,,,,POINT (-79.38346629999999 43.671155)
TD Canada Trust,,,,,,540311696,43.7585631,-79.4098485,TD Canada Trust,,,,,,,POINT (-79.4098485 43.7585631)
,,,,,,540594626,43.6774043,-79.4461501,IC Savings,,,,,,,POINT (-79.4461501 43.6774043)
BMO,Toronto,,,,1200,540594627,43.6778262,-79.4443886,BMO,,,,,St. Clair Avenue West,,POINT (-79.4443886 43.6778262)
Scotiabank,,,,,,542005029,43.7260698,-79.2305537,Scotiabank,,,,,,yes,POINT (-79.2305537 43.7260698)
BMO,,,,Mo-Sa 08:00-22:00,,542852154,43.7672607,-79.1895429,BMO,BMO,,,,,,POINT (-79.18954290000001 43.7672607)
TD Canada Trust,,,,,,542893742,43.7919767,-79.3130712,TD Canada Trust,,,,,,,POINT (-79.3130712 43.7919767)
RBC,,,,,,544542564,43.7261397,-79.2317405,RBC,,,,,,,POINT (-79.2317405 43.7261397)
BMO,,,,,,547491248,43.6491617,-79.3785651,BMO,,,,,,,POINT (-79.3785651 43.6491617)
CIBC,,,,,,558628291,43.6890372,-79.3485078,CIBC,,,,,,yes,POINT (-79.34850779999999 43.6890372)
,,,,Mo-We 08:00-18:00; Th-Fr 08:00-20:00; Sa 08:00-16:00; Su off,,560196724,43.7055708,-79.4428298,,,,,,,,POINT (-79.4428298 43.7055708)
RBC,Toronto,,,,155,560227429,43.6457992,-79.3857642,RBC,,+1-416-955-6286 (insurance),,,Wellington Street West,yes,POINT (-79.3857642 43.6457992)
TD Canada Trust,,,,Mo-We 08:00-18:00; Th-Fr 08:00-20:00; Sa 08:00-16:00; Su 12:00-16:00,,560650174,43.7624334,-79.4105427,TD Canada Trust,,,,,,,POINT (-79.41054269999999 43.7624334)
CIBC,,,,,,561037783,43.7202958,-79.4310986,CIBC,,,,,,yes,POINT (-79.4310986 43.7202958)
TD Canada Trust,,,,,,561037785,43.7195564,-79.4302400,TD Canada Trust,,,,,,yes,POINT (-79.43024 43.7195564)
RBC,,,,,,561044360,43.7808689,-79.4161676,RBC,,,,,,,POINT (-79.41616759999999 43.7808689)
BMO,,,,,,561181504,43.7462665,-79.2881351,BMO,,,,,,,POINT (-79.28813510000001 43.7462665)
HSBC,Toronto,,,,70,572859641,43.6467492,-79.3832611,HSBC,HSBC Bank Canada,+1-416-868-8000,M5J 1S9,,York Street,,POINT (-79.3832611 43.6467492)
TD Canada Trust,,,,,,598103301,43.6680031,-79.4414539,TD Canada Trust,,,,,,yes,POINT (-79.4414539 43.6680031)
BMO,,,,,,618404719,43.7841295,-79.2896111,BMO,,,,,,,POINT (-79.2896111 43.7841295)
HSBC,,,,,,678894032,43.7879910,-79.2681572,HSBC,,,,,,,POINT (-79.2681572 43.787991)
RBC,,,,,,691071776,43.6598895,-79.3648467,RBC,,,,,,,POINT (-79.3648467 43.6598895)
CIBC,,,,,,697808714,43.6483733,-79.3791523,CIBC,,,,,,,POINT (-79.3791523 43.6483733)
TD Canada Trust,,,,,,699224216,43.6780154,-79.3582959,TD Canada Trust,,,,,,yes,POINT (-79.3582959 43.6780154)
CIBC,,,,,,701882856,43.6483736,-79.3797071,CIBC,,,,,,yes,POINT (-79.3797071 43.6483736)
CIBC,,,,,,703555789,43.7977623,-79.2727294,CIBC,,,,,,,POINT (-79.2727294 43.7977623)
TD Canada Trust,,,,,,705234040,43.7330137,-79.2678083,TD Canada Trust,,,,,,,POINT (-79.2678083 43.7330137)
TD Canada Trust,North York,,,Mo-Fr 08:00-20:00; Sa 08:00-16:00; Su off,2790,707392505,43.7124469,-79.4283582,TD Canada Trust,,,,,Bathurst Street,,POINT (-79.42835820000001 43.7124469)
RBC,,,,,,707392527,43.7120585,-79.4283057,RBC,,,,,,,POINT (-79.4283057 43.7120585)
TD Canada Trust,Toronto,,,Mo-We 08:00-18:00; Th-Fr 08:00-20:00; Sa 08:00-16:00; Su off,1966,708119391,43.6995814,-79.3971904,TD Canada Trust,,,M4S 1Z4,,Yonge Street,no,POINT (-79.3971904 43.6995814)
RBC,Toronto,,,,1015,717893252,43.6581242,-79.3298002,RBC,,+1-416-461-3970,,,Lake Shore Boulevard East,,POINT (-79.32980019999999 43.6581242)
TD Canada Trust,,,,,,717893276,43.6579475,-79.3279252,TD Canada Trust,,,,,,,POINT (-79.3279252 43.6579475)
TD Canada Trust,,,,Mo-We 08:00-18:00; Th-Fr 08:00-20:00; Sa 08:00-16:00,,729417903,43.6938746,-79.5573211,TD Canada Trust,,,,,,,POINT (-79.5573211 43.6938746)
TD Canada Trust,,,,,,729433325,43.7080927,-79.4782073,TD Canada Trust,,,,,,no,POINT (-79.47820729999999 43.7080927)
RBC,,,,,,754637551,43.7050194,-79.3890851,RBC,,,,,,,POINT (-79.3890851 43.7050194)
BMO,,,,,,766938600,43.6476539,-79.3858007,BMO,,,,,,,POINT (-79.3858007 43.6476539)
RBC,Toronto,,,,207,775894182,43.6392193,-79.3810431,RBC,,+1-416-955-2550 (insurance),,,Queens Quay West,yes,POINT (-79.3810431 43.6392193)
Scotiabank,,,,,,775939290,43.6406229,-79.3777085,Scotiabank,,,,,,yes,POINT (-79.3777085 43.6406229)
CIBC,,,,,,777810395,43.8077601,-79.3569735,CIBC,,,,,,,POINT (-79.3569735 43.8077601)
TD Canada Trust,Toronto,,,,1416,803316415,43.6982119,-79.4392003,TD Canada Trust,,,,,Eglinton Avenue West,,POINT (-79.4392003 43.6982119)
Meridian Credit Union,Toronto,,,Mo-We 09:30-17:00; Th-Fr 09:30-19:00; Sa 09:30-15:00; Su off,690,850373152,43.7058780,-79.3894107,Meridian Credit Union,,+1-416-440-2960,M4S 2N3,,Mount Pleasant Road,,POINT (-79.3894107 43.705878)
RBC,,,,,,854105120,43.7038121,-79.4521942,RBC,RBC,,,,,,POINT (-79.45219419999999 43.7038121)
CIBC,Scarborough,,,,3420,869732867,43.7972954,-79.3153527,CIBC,,,,,Finch Avenue East,,POINT (-79.31535270000001 43.7972954)
BMO,Toronto,,,Mo-We 09:00-17:00; Th-Fr 09:00-19:00; Sa 09:00-15:00; Su off,242,871501524,43.6682433,-79.3972205,BMO,,,,,Bloor Street West,yes,POINT (-79.3972205 43.6682433)
BMO,Toronto,,,,26,902109826,43.6403402,-79.3947822,BMO,,,,,Fort York Boulevard,,POINT (-79.39478219999999 43.6403402)
CIBC,,,,,,927205344,43.7621268,-79.4107238,CIBC,,,,,,,POINT (-79.4107238 43.7621268)
HSBC,,,,Mo-Fr 09:00-17:00; Sa 10:00-16:00; Su off,,975540390,43.6693984,-79.3941592,HSBC,,,,,,yes,POINT (-79.3941592 43.6693984)
BMO,,,,,,1111963337,43.7739199,-79.5022309,BMO,,,,,,yes,POINT (-79.5022309 43.7739199)
Alterna Savings,,,,,,1111970417,43.7744143,-79.5013530,Alterna Savings,,,,,,yes,POINT (-79.50135299999999 43.7744143)
Scotiabank,,,,,,1114113181,43.6504088,-79.3797252,Scotiabank,,,,,,,POINT (-79.3797252 43.6504088)
TD Canada Trust,,,,"Mo-We 08:00-18:00; Th,Fr 08:00-20:00; Sa 08:00-16:00",,1119452018,43.6423031,-79.3808879,TD Canada Trust,Toronto-Dominion Bank,,,,,yes,POINT (-79.3808879 43.6423031)
CIBC,,,,,,1122192882,43.6559870,-79.3831690,CIBC,,,,,,yes,POINT (-79.383169 43.655987)
BMO,Toronto,,,,1560,1122913443,43.6892048,-79.3948009,BMO,,,,,Yonge Street,,POINT (-79.39480090000001 43.6892048)
,Toronto,,,,950,1123669791,43.6749330,-79.3889650,Effort Trust,,,,,Yonge Street,,POINT (-79.388965 43.674933)
BMO,,,,,,1125193275,43.7630573,-79.4109644,BMO,,,,,,,POINT (-79.4109644 43.7630573)
HSBC,,,,,,1125221420,43.7688860,-79.4131910,HSBC,,,,,,,POINT (-79.413191 43.768886)
BMO,,,,,,1125222068,43.7685620,-79.4130410,BMO,,,,,,,POINT (-79.41304100000001 43.768562)
TD Canada Trust,,,,,,1131216699,43.7629360,-79.4903649,TD Canada Trust,,,,,,,POINT (-79.4903649 43.762936)
BMO,,,,,,1137828949,43.6692610,-79.3883570,BMO,,,,,,,POINT (-79.388357 43.669261)
CIBC,Toronto,,,,462,1138449976,43.6894530,-79.4131490,CIBC,,,,,Spadina Road,,POINT (-79.413149 43.689453)
TD Canada Trust,,,,,443,1138450911,43.6892939,-79.4127940,TD Canada Trust,,,,,Spadina Road,,POINT (-79.41279400000001 43.6892939)
BMO,Toronto,,,,,1138451426,43.6890840,-79.4127052,BMO,,,,,,,POINT (-79.4127052 43.689084)
CIBC,,,,,,1148294038,43.7587110,-79.4654240,CIBC,,,,,,,POINT (-79.465424 43.758711)
Scotiabank,North York,,,,2175,1186819610,43.7744110,-79.3310470,Scotiabank,,,,,Sheppard Avenue East,,POINT (-79.331047 43.774411)
National Bank,,,,,,1186819668,43.7753288,-79.3307577,National Bank,,,,,,,POINT (-79.33075770000001 43.7753288)
CIBC,,,,,,1186819752,43.7758990,-79.3229600,CIBC,CIBC,,,,,,POINT (-79.32295999999999 43.775899)
HSBC,,,,,,1208665799,43.7066748,-79.3994407,HSBC,,,,,,yes,POINT (-79.3994407 43.7066748)
BMO,,,,,,1208680689,43.7038501,-79.4110788,BMO,,,,,,,POINT (-79.4110788 43.7038501)
TD Canada Trust,,,,,,1208799414,43.7748360,-79.4146060,TD Canada Trust,,,,,,,POINT (-79.41460600000001 43.774836)
CIBC,Toronto,,,,5255,1208809978,43.7720211,-79.4132665,CIBC,,+1-416-223-8772,M2N 5P8,,Yonge Street,,POINT (-79.41326650000001 43.7720211)
HSBC,,,,Mo-Fr 09:30-16:30; Sa 10:00-16:00,,1226891091,43.6513658,-79.3977576,HSBC,,,,,,,POINT (-79.39775760000001 43.6513658)
RBC,,,,,1800,1246314509,43.7779057,-79.3456290,RBC,,,,,Sheppard Avenue East,yes,POINT (-79.345629 43.7779057)
RBC,,,,,,1267302860,43.6496484,-79.3840066,RBC,,,,,,,POINT (-79.38400660000001 43.6496484)
TD Canada Trust,,,,Mo-We 08:00-18:00; Th-Fr 08:00-20:00; Sa 08:00-16:00; Su off,,1267303511,43.6488200,-79.3842020,TD Canada Trust,,,,,,,POINT (-79.384202 43.64882)
CIBC,East York,,,,660,1268623255,43.7115170,-79.3767901,CIBC,,,,,Eglinton Avenue East,,POINT (-79.37679009999999 43.711517)
TD Canada Trust,,,,"Mo-Su ""please add opening times""",,1276104148,43.7647560,-79.3968990,TD Canada Trust,,,,,,,POINT (-79.396899 43.764756)
TD Canada Trust,Toronto,,,"Mo-Su ""please add opening times""",61,1279840928,43.6395896,-79.4187867,TD Canada Trust,,,,,Hanna Avenue,yes,POINT (-79.4187867 43.6395896)
,,,,,,1279887035,43.6474610,-79.3800520,SBI Canada,,,,,,,POINT (-79.38005200000001 43.647461)
Scotiabank,,,,,,1279887931,43.6490727,-79.3800459,Scotiabank,Bank of Nova Scotia,,,,,,POINT (-79.3800459 43.6490727)
,,,,,,1287712625,43.7026410,-79.3976730,CityCan Mortgage Services,,,,,,,POINT (-79.397673 43.702641)
RBC,,,,,,1291245589,43.7102313,-79.3630996,RBC,,,,,,,POINT (-79.3630996 43.7102313)
TD Canada Trust,,,,,,1291246471,43.7117173,-79.3637393,TD Canada Trust,,,,,,,POINT (-79.36373930000001 43.7117173)
CIBC,,,,,,1329989802,43.6620735,-79.4259081,CIBC,,,,,,yes,POINT (-79.4259081 43.6620735)
CIBC,,,,,,1334061682,43.7046991,-79.3745604,CIBC,,,,,,,POINT (-79.37456039999999 43.7046991)
Scotiabank,,,,,,1347346210,43.7262665,-79.3000047,Scotiabank,,,,,,,POINT (-79.3000047 43.7262665)
CIBC,,,,,,1366136397,43.6705090,-79.3871180,CIBC,,,,,,,POINT (-79.387118 43.670509)
TD Canada Trust,,,,,,1386870916,43.6883298,-79.3939079,TD Canada Trust,TD Canada Trust,,,,,yes,POINT (-79.3939079 43.6883298)
,,,,,,1392113231,43.7079740,-79.3915750,Osuuspankki Finnish Credit Union Limited,,,,,,,POINT (-79.391575 43.707974)
,,,,,,1416806360,43.7082970,-79.3896650,DUCA Credit Union,,,,,,,POINT (-79.38966499999999 43.708297)
Scotiabank,,,,,,1436756609,43.7138180,-79.3647390,Scotiabank,,,,,,,POINT (-79.364739 43.713818)
RBC,,,,,,1445999732,43.6436800,-79.3893080,RBC,,,,,,,POINT (-79.389308 43.64368)
National Bank,,,,,,1459289637,43.8022840,-79.2938570,National Bank,,,,,,,POINT (-79.293857 43.802284)
CIBC,,,,,,1502217567,43.7835255,-79.1699431,CIBC,,,,,,,POINT (-79.1699431 43.7835255)
RBC,,,,,,1518496591,43.6195530,-79.4855070,RBC,,,,,,,POINT (-79.485507 43.619553)
CIBC,,,,,2935,1518516241,43.6005627,-79.5054003,CIBC,,,,,Lake Shore Boulevard West,,POINT (-79.50540030000001 43.6005627)
,,,,,,1562058306,43.6515820,-79.3786260,Industrial and Commercial Bank of China (Canada),,,,,,,POINT (-79.378626 43.651582)
CIBC,,,,Mo-We 09:00-18:00; Th 09:00-20:00; Fr 09:00-19:00; Sa 09:00-16:00; Su off,,1568604688,43.7066462,-79.3980786,CIBC,,,,,,yes,POINT (-79.39807860000001 43.7066462)
CIBC,,,,,,1639866939,43.6512663,-79.3649477,CIBC,CIBC,,,,,yes,POINT (-79.3649477 43.6512663)
TD Canada Trust,Toronto,,,,2220,1678689485,43.6512738,-79.4764461,TD Canada Trust,,,,,Bloor Street West,yes,POINT (-79.4764461 43.6512738)
Scotiabank,Scarborough,,,,325,1776711527,43.8145283,-79.3230782,Scotiabank,,,M1W 3Y1,,Bamburgh Circle,,POINT (-79.3230782 43.8145283)
TD Canada Trust,North York,,,,2885,1815451424,43.7677360,-79.3879480,TD Canada Trust,,,,,Bayview Avenue,,POINT (-79.38794799999999 43.767736)
BMO,Scarborough,,,,2739,1816585967,43.7363890,-79.2482656,BMO,,,,,Eglinton Avenue East,,POINT (-79.2482656 43.736389)
RBC,,,,Mo-We 09:30-17:00; Th 09:30-20:00; Fr 09:30-18:00; Sa 09:00-16:00,,1846075320,43.7557595,-79.4381451,RBC,,,,,,,POINT (-79.4381451 43.7557595)
Scotiabank,Toronto,,,,2895,1861798155,43.6008119,-79.5042410,Scotiabank,,,,,Lake Shore Boulevard West,,POINT (-79.50424099999999 43.6008119)
RBC,,,,,,1863193991,43.7652844,-79.2803370,RBC,RBC,,,,,,POINT (-79.280337 43.7652844)
RBC,,,,Mo-We 9:30-17:00; Th-Fr 9:30-18:00; Sa 9:00-16:00; Su off,,1870666693,43.6287263,-79.4903627,RBC,,,,,,,POINT (-79.49036270000001 43.6287263)
RBC,,,,,290,1888709039,43.6346909,-79.5620422,RBC,,,,,The West Mall,,POINT (-79.56204219999999 43.6346909)
Scotiabank,North York,,,"Mo-We 09:30-17:00, Th-Fr 09:30-20:00, Sa 09:30-16:00",628,1928115616,43.7555632,-79.4405940,Scotiabank,,+1-416-638-1955,M3H 2S1,,Sheppard Avenue West,,POINT (-79.440594 43.7555632)
BMO,,,,,,1928115618,43.7554257,-79.4412650,BMO,,,,,,,POINT (-79.441265 43.7554257)
BMO,,,,,,1963432914,43.7759850,-79.3250520,BMO,,,,,,,POINT (-79.325052 43.775985)
Bank of China,,,,,,1965833713,43.7859815,-79.3519268,Bank of China,,,,,,,POINT (-79.3519268 43.7859815)
CIBC,,,,,,1966526315,43.7881436,-79.3303816,CIBC,,,,,,,POINT (-79.3303816 43.7881436)
Scotiabank,,,,,,2018924095,43.7244956,-79.4540863,Scotiabank,,,,,,,POINT (-79.4540863 43.7244956)
CIBC,Etobicoke,,,,2291,2045166837,43.7287972,-79.5738540,CIBC,,,,,Kipling Avenue,,POINT (-79.573854 43.7287972)
TD Canada Trust,,,,,,2122925729,43.7243369,-79.2988700,TD Canada Trust,,,,,,,POINT (-79.29886999999999 43.7243369)
TD Canada Trust,,,,,,2149834598,43.6504267,-79.3606646,TD Canada Trust,,,,,,,POINT (-79.36066460000001 43.6504267)
Alterna Savings,Toronto,,,,3001,2159618449,43.6001240,-79.5073401,Alterna Savings,,,,,Lake Shore Boulevard West,,POINT (-79.50734009999999 43.600124)
,Etobicoke,,,,3055,2159618475,43.5995811,-79.5099151,St. Stanislaus-St. Casimer's Polish Parishes Credit Union Ltd,,,,,Lake Shore Boulevard West,,POINT (-79.5099151 43.5995811)
RBC,,,,Mo-Fr 09:30-17:00,,2164676300,43.6502981,-79.3720547,RBC,RBC,,,,,,POINT (-79.37205470000001 43.6502981)
RBC,,,,,,2172207983,43.7049522,-79.3750899,RBC,,,,,,,POINT (-79.37508990000001 43.7049522)
BMO,,,,,,2193108947,43.6594959,-79.3825340,BMO,,,,,,yes,POINT (-79.38253400000001 43.6594959)
RBC,,,,,,2193108948,43.6592714,-79.3824502,RBC,,,,,,,POINT (-79.38245019999999 43.6592714)
CIBC,,,,,,2201111011,43.6597900,-79.4351060,CIBC,,,,,,,POINT (-79.435106 43.65979)
TD Canada Trust,,,,Mo-Fr 08:00-20:00; Sa 08:00-16:00; Su off,,2210110306,43.6873336,-79.3477844,TD Canada Trust,,,,,,no,POINT (-79.34778439999999 43.6873336)
TD Canada Trust,Toronto,,,Mo-We 08:00-18:00; Th 08:00-20:00; Fr 08:00-20:00; Sa 08:00-16:00; Su closed,614,2253802131,43.6362628,-79.4018532,TD Canada Trust,,+1-416-360-7791,M5V 1B3,,Fleet Street,yes,POINT (-79.40185320000001 43.6362628)
BMO,Toronto,,,,1293,2286883374,43.6581787,-79.4430078,BMO,,,,,Bloor Street West,,POINT (-79.4430078 43.6581787)
RBC,,,,,2947,2287335954,43.6478847,-79.5081374,RBC,,,,,Bloor Street West,,POINT (-79.5081374 43.6478847)
BMO,,,,,,2353059138,43.7785777,-79.4155991,BMO,,,,,,,POINT (-79.41559909999999 43.7785777)
TD Canada Trust,Etobicoke,,,Mo-Fr 08:00-20:00; Sa 08:00-16:00; Su 11:00-16:00,250,2365100292,43.6794414,-79.5470293,TD Canada Trust,,+1-416-241-5248,M9R 2R5,,Wincott Drive,no,POINT (-79.54702930000001 43.6794414)
,Toronto,,,,2280,2405795800,43.6508158,-79.4784348,Buduchnist Credit Union,,,,,Bloor Street West,yes,POINT (-79.4784348 43.6508158)
,Toronto,,,,2397,2405837497,43.6495754,-79.4826959,Ukrainian Credit Union Limited,,,,,Bloor Street West,,POINT (-79.4826959 43.6495754)
,,,,,,2407511161,43.7255914,-79.3187736,Latvian Credit Union,,,,,,,POINT (-79.3187736 43.7255914)
,,,,,,2470543877,43.6080122,-79.5475228,Moya Financial,,,,,,,POINT (-79.5475228 43.6080122)
RBC,Toronto,,,,101,2473918407,43.6555395,-79.3838982,RBC,,,,,Dundas Street West,,POINT (-79.3838982 43.6555395)
National Bank,,,,,,2476496590,43.7246645,-79.4168259,National Bank,,,,,,,POINT (-79.41682590000001 43.7246645)
BMO,,,,,,2476507541,43.7281053,-79.4177207,BMO,,,,,,,POINT (-79.4177207 43.7281053)
BMO,,,,,,2480722088,43.6588525,-79.3905557,BMO,,,,,,,POINT (-79.39055569999999 43.6588525)
BMO,York,,,,605,2534750295,43.6819320,-79.4722308,BMO,,,,,Rogers Road,,POINT (-79.47223080000001 43.681932)
BMO,,,,,,2547436284,43.7687409,-79.3703248,BMO,,,,,,,POINT (-79.37032480000001 43.7687409)
TD Canada Trust,,,,,,2547520854,43.7873547,-79.4176553,TD Canada Trust,,,,,,,POINT (-79.41765530000001 43.7873547)
,,,,,,2547520859,43.7886752,-79.4181703,City Saving Financial Savings,,,,,,,POINT (-79.4181703 43.7886752)
,,,,,,2557976285,43.6551189,-79.4340876,President's Choice Financial,,,,,,,POINT (-79.4340876 43.6551189)
Scotiabank,,,,,,2558957604,43.6500362,-79.4358133,Scotiabank,,,,,,,POINT (-79.43581330000001 43.6500362)
BMO,Toronto,,,,171,2563172135,43.6385977,-79.4180586,BMO,BMO,,,,East Liberty Street,,POINT (-79.41805859999999 43.6385977)
CIBC,Toronto,,,,120,2563172142,43.6390652,-79.4172762,CIBC,CIBC,,,,Lynn Williams Street,,POINT (-79.4172762 43.6390652)
Scotiabank,,,,,,2626675466,43.6616593,-79.3378914,Scotiabank,,,,,,,POINT (-79.3378914 43.6616593)
National Bank,,,,,,2626678291,43.6514435,-79.3667121,National Bank,,,,,,yes,POINT (-79.3667121 43.6514435)
RBC,,,,,,2626678862,43.6516755,-79.3657766,RBC,,,,,,,POINT (-79.3657766 43.6516755)
HSBC,,,,,,2636084668,43.7231533,-79.2894637,HSBC,,,,,,,POINT (-79.2894637 43.7231533)
TD Canada Trust,,,,,,2684474616,43.6646194,-79.3678858,TD Canada Trust,,,,,,,POINT (-79.3678858 43.6646194)
Meridian Credit Union,,,,,26,2696995031,43.6885439,-79.3928737,Meridian Credit Union,,,,,St. Clair Avenue East,,POINT (-79.3928737 43.6885439)
BMO,,,,,,2704253971,43.7167355,-79.4289597,BMO,,,,,,,POINT (-79.42895969999999 43.7167355)
BMO,,,,,,2755278717,43.7980282,-79.3180188,BMO,,+1-416-497-2863,,,,,POINT (-79.3180188 43.7980282)
TD Canada Trust,Toronto,,,,25,2765988736,43.6503024,-79.3611314,TD Canada Trust,,,,,Mill Street,,POINT (-79.3611314 43.6503024)
RBC,Toronto,,,,1980,2780593061,43.6723666,-79.4697335,RBC,,,,,St. Clair Avenue West,,POINT (-79.4697335 43.6723666)
BMO,,,,,,2784479085,43.6658949,-79.4510409,BMO,,,,,,,POINT (-79.4510409 43.6658949)
TD Canada Trust,,,,Mo-We 08:00-18:00; Th-Fr 08:00-20:00; Sa 08:00-16:00; Su off,,2792733118,43.6761288,-79.4503485,TD Canada Trust,,,,,,no,POINT (-79.4503485 43.6761288)
TD Canada Trust,Scarborough,,,,2561,2794019048,43.7738881,-79.3218173,TD Canada Trust,,+1-416-491-2727,M1T 1A4,,Victoria Park Avenue,,POINT (-79.32181730000001 43.7738881)
Scotiabank,,,,,,2806287602,43.6558281,-79.3891346,Scotiabank,,,,,,,POINT (-79.38913460000001 43.6558281)
RBC,,,,,,2809875143,43.6774632,-79.4956997,RBC,,,,,,,POINT (-79.4956997 43.6774632)
TD Canada Trust,,,,,,2848631101,43.6437904,-79.4196726,TD Canada Trust,,,,,,no,POINT (-79.4196726 43.6437904)
RBC,,,,,,2848637832,43.6426785,-79.4273674,RBC,,,,,,,POINT (-79.42736739999999 43.6426785)
RBC,,,,,,2869612782,43.6802637,-79.3905197,RBC,,,,,,,POINT (-79.3905197 43.6802637)
CIBC,,,,,,2883532663,43.6490437,-79.5288912,CIBC,CIBC,,,,,,POINT (-79.5288912 43.6490437)
CIBC,,,,,,2892352942,43.7572656,-79.3117499,CIBC,,,,,,,POINT (-79.3117499 43.7572656)
RBC,,,,,,2915315637,43.7818747,-79.2924602,RBC,,,,,,,POINT (-79.29246019999999 43.7818747)
RBC,,,,,,2926923401,43.6974526,-79.3290692,RBC,,,,,,,POINT (-79.32906920000001 43.6974526)
BMO,,,,,,2928429563,43.7105509,-79.2908148,BMO,,,,,,,POINT (-79.29081480000001 43.7105509)
Desjardins,Toronto,,,,11,2953594665,43.6488484,-79.3785503,Desjardins,,,,,King Street West,,POINT (-79.3785503 43.6488484)
HSBC,,,,,,3016315363,43.8071001,-79.3382839,HSBC,,,,,,,POINT (-79.33828389999999 43.8071001)
ICICI Bank,,,,,,3016320932,43.8325882,-79.2673256,ICICI Bank,,,,,,,POINT (-79.26732560000001 43.8325882)
TD Canada Trust,,,,Mo-Su,,3019023144,43.7792808,-79.3036989,TD Canada Trust,,,,,,,POINT (-79.3036989 43.7792808)
BMO,,,,,,3099831942,43.7490275,-79.5599738,BMO,,,,,,,POINT (-79.55997379999999 43.7490275)
TD Canada Trust,Etobicoke,,,,3569,3107939728,43.5942395,-79.5337179,TD Canada Trust,,,,,Lake Shore Boulevard West,,POINT (-79.5337179 43.5942395)
HSBC,,,,,,3215285378,43.6771576,-79.4457461,HSBC,,,,,,,POINT (-79.44574609999999 43.6771576)
RBC,Scarborough,,,,1940,3248253218,43.7281379,-79.2884117,RBC,,,,,Eglinton Avenue East,,POINT (-79.2884117 43.7281379)
RBC,,,,,,3283174869,43.7870322,-79.4686109,RBC,,,,,,,POINT (-79.4686109 43.7870322)
TD Canada Trust,,,,,,3285162570,43.7863229,-79.4694878,TD Canada Trust,,,,,,yes,POINT (-79.4694878 43.7863229)
Scotiabank,,,,,,3288777734,43.6793991,-79.4356863,Scotiabank,,,,,,,POINT (-79.4356863 43.6793991)
RBC,,,,,,3293422694,43.8252546,-79.2992764,RBC,,,,,,,POINT (-79.2992764 43.8252546)
Scotiabank,,,,,,3293428518,43.8246469,-79.3012333,Scotiabank,,,,,,,POINT (-79.30123330000001 43.8246469)
RBC,,,,,,3303214139,43.7529685,-79.3583099,RBC,,,,,,,POINT (-79.35830989999999 43.7529685)
National Bank,Toronto,,,Mo-Fr 07:45-17:00; Sa-Su off,121,3307875588,43.6478532,-79.3828241,National Bank,,+1-416-864-7791,M5H 3T9,,King Street West,,POINT (-79.38282409999999 43.6478532)
CIBC,,,,,,3326486316,43.7394717,-79.5142184,CIBC,,,,,,,POINT (-79.5142184 43.7394717)
TD Canada Trust,,,,,,3326486317,43.7402587,-79.5124980,TD Canada Trust,,,,,,,POINT (-79.51249799999999 43.7402587)
BMO,,,,,,3326486319,43.7385534,-79.5124739,BMO,,,,,,,POINT (-79.5124739 43.7385534)
CIBC,,,,,,3326515984,43.7117196,-79.5342141,CIBC,,,,,,,POINT (-79.5342141 43.7117196)
Meridian Credit Union,,,,,,3396208183,43.7990196,-79.2017544,Meridian Credit Union,,,,,,,POINT (-79.2017544 43.7990196)
BMO,,,,,,3442199471,43.6606908,-79.5819433,BMO,,,,,,,POINT (-79.58194330000001 43.6606908)
BMO,,,,Mo-We 09:30-18:00; Th 09:30-20:00; Fr 09:30-18:00; Sa 09:30-16:00; Su off,,3465493028,43.7091455,-79.3626229,BMO,,,,,,,POINT (-79.36262290000001 43.7091455)
,,,,,1451,3479184231,43.6869322,-79.5280928,DUCA Credit Union,,,,,Royal York Road,,POINT (-79.5280928 43.6869322)
BMO,,,,,,3507799231,43.7855646,-79.2759225,BMO,,,,,,,POINT (-79.27592249999999 43.7855646)
RBC,,,,,,3518382482,43.7610863,-79.4102926,RBC,,,,,,,POINT (-79.41029260000001 43.7610863)
Scotiabank,,,,,,3570691994,43.6514240,-79.3822235,Scotiabank,,,,,,,POINT (-79.38222349999999 43.651424)
TD Canada Trust,,,,,,3570691995,43.6515266,-79.3821112,TD Canada Trust,,,,,,,POINT (-79.3821112 43.6515266)
RBC,Scarborough,,,09:30-18:00,1571,3575722655,43.8085468,-79.2692400,RBC,,+1-416-292-6701,,,Sandhurst Circle,,POINT (-79.26924 43.8085468)
,Toronto,,,Mo-We 09:30-17:00; Th 09:30-19:00; Fr 09:30-17:00; Sa-Su off; PH off,17,3590625834,43.6445204,-79.3886444,DUCA Credit Union,,,,,John Street,,POINT (-79.3886444 43.6445204)
CIBC,,,,,,3594688039,43.7442796,-79.4867526,CIBC,,,,,,,POINT (-79.4867526 43.7442796)
RBC,,,,,,3594692222,43.7453939,-79.4873335,RBC,,,,,,,POINT (-79.48733350000001 43.7453939)
TD Canada Trust,,,,,,3595344907,43.7916369,-79.4445218,TD Canada Trust,,,,,,,POINT (-79.4445218 43.7916369)
TD Canada Trust,,,,,,3600915103,43.6413112,-79.4164556,TD Help & Advice Centre,,,,,,,POINT (-79.41645560000001 43.6413112)
RBC,Toronto,,,,51,3603415996,43.6395528,-79.4197131,RBC,,,,,Hanna Avenue,yes,POINT (-79.4197131 43.6395528)
CIBC,,,,,,3624207193,43.6426893,-79.4255079,CIBC,CIBC,,,,,,POINT (-79.4255079 43.6426893)
RBC,,,,,,3638153933,43.6414413,-79.4141583,RBC,,,,,,,POINT (-79.4141583 43.6414413)
CIBC,,,,,,3648181661,43.7245979,-79.2316125,CIBC,CIBC,,,,,yes,POINT (-79.2316125 43.7245979)
TD Canada Trust,,,,,,3700500417,43.6480332,-79.3816600,TD Canada Trust,,,,,,,POINT (-79.38166 43.6480332)
National Bank,Toronto,,,,18,3703089726,43.6431862,-79.3819210,National Bank,,,,,York Street,,POINT (-79.38192100000001 43.6431862)
State Bank of India,,,,,,3733761115,43.7791569,-79.3045180,State Bank of India,,,,,,,POINT (-79.304518 43.7791569)
TD Canada Trust,,,,,,3735212948,43.6224472,-79.4822192,TD Canada Trust,,,,,,yes,POINT (-79.4822192 43.6224472)
CIBC,,,,,2990,3767658786,43.6478473,-79.5099310,CIBC,,,,,Bloor Street West,,POINT (-79.50993099999999 43.6478473)
TD Canada Trust,,,,,,3772726145,43.7533485,-79.3474934,TD Canada Trust,,,,,,,POINT (-79.3474934 43.7533485)
RBC,,,,,,3778077745,43.6632310,-79.3840133,RBC,,,,,,,POINT (-79.38401330000001 43.663231)
RBC,Toronto,,,09:00-16:00,570,3780992066,43.6474135,-79.4035568,RBC,,,,,Queen Street West,yes,POINT (-79.4035568 43.6474135)
BMO,,,,,,3841979996,43.6687335,-79.4837091,BMO,,,,,,,POINT (-79.4837091 43.6687335)
RBC,,,,,,3843685988,43.7113373,-79.5661638,RBC,,,,,,,POINT (-79.5661638 43.7113373)
Scotiabank,,,,,,3857469596,43.6453804,-79.3803133,Scotiabank,,,,,,,POINT (-79.3803133 43.6453804)
Meridian Credit Union,,,,Mo-Fr 09:00-17:00; Sa 09:00-15:00; PH off,37,3882194639,43.7736763,-79.2829125,Meridian Credit Union,Meridian,,M1P 5B7,,William Kitchen Road,,POINT (-79.28291249999999 43.7736763)
CIBC,,,,,666,3931418543,43.6416489,-79.5762931,CIBC,,,,,Burnhamthorpe Road,,POINT (-79.5762931 43.6416489)
BMO,Toronto,,,,2072,3999366165,43.6709096,-79.2967668,BMO,BMO,,,,Queen Street East,,POINT (-79.2967668 43.6709096)
Scotiabank,Toronto,,,,2080,3999406658,43.6709567,-79.2965085,Scotiabank,,,,,Queen Street East,,POINT (-79.2965085 43.6709567)
Meridian Credit Union,Toronto,,,,2084,3999406659,43.6709795,-79.2963875,Meridian Credit Union,,,,,Queen Street East,,POINT (-79.29638749999999 43.6709795)
,,,,,,4068383984,43.6424469,-79.3739227,Luminus Financial,,,,,,,POINT (-79.37392269999999 43.6424469)
Scotiabank,,,,,,4136859714,43.6229084,-79.4817710,Scotiabank,,,,,,,POINT (-79.48177099999999 43.6229084)
TD Canada Trust,,,,,,4288409098,43.7700885,-79.5461323,TD Canada Trust,,,,,,,POINT (-79.5461323 43.7700885)
BMO,,,,,,4294677012,43.8101457,-79.2695148,BMO,BMO Bank Of Montreal,,,,,,POINT (-79.2695148 43.8101457)
TD Canada Trust,Scarborough,,,,1571,4294685699,43.8098968,-79.2688331,TD Canada Trust,TD Canada Trust,+1-416-298-2320,,,Sandhurst Circle,,POINT (-79.26883309999999 43.8098968)
Scotiabank,,,,,,4339203661,43.8356334,-79.2539925,Scotiabank,,,,,,,POINT (-79.2539925 43.8356334)
BMO,Toronto,,,Mo-Fr 10:00-17:00; Sa 10:00-16:00,,4391227919,43.6653274,-79.4649173,BMO,Bank of Montreal,,,,Dundas Street West,,POINT (-79.4649173 43.6653274)
TD Canada Trust,,,,,,4459715562,43.7873207,-79.2684883,TD Canada Trust,,,,,,,POINT (-79.2684883 43.7873207)
ICICI Bank,,,,,,4460567056,43.8028360,-79.2943590,ICICI Bank,,,,,,,POINT (-79.294359 43.802836)
Scotiabank,,,,,,4460610037,43.8071899,-79.2891899,Scotiabank,,,,,,,POINT (-79.2891899 43.8071899)
TD Canada Trust,,,,,,4462759876,43.7345508,-79.2597680,TD Canada Trust,,,,,,,POINT (-79.25976799999999 43.7345508)
BMO,,,,,591,4487349355,43.6474762,-79.4018157,BMO,,,,,Queen Street West,yes,POINT (-79.4018157 43.6474762)
Desjardins,Toronto,,,,95,4525146644,43.6868633,-79.3981519,Desjardins,,,,,St. Clair Avenue West,,POINT (-79.3981519 43.6868633)
TD Canada Trust,,,,Mo-Fr 11:00-20:00; Sa 08:00-16:00; Su off,1870,4536935073,43.7145640,-79.3780283,TD Canada Trust,,,,,Bayview Avenue,,POINT (-79.3780283 43.714564)
RBC,,,,,,4564428465,43.6592639,-79.3896985,RBC,,,,,,,POINT (-79.38969849999999 43.6592639)
TD Canada Trust,,,,,,4602952088,43.7960139,-79.2261531,TD Canada Trust,,,,,,,POINT (-79.2261531 43.7960139)
Scotiabank,Toronto,,,,720,4636370517,43.6438332,-79.4039491,Scotiabank,,+1-416-866-3493,M5V 2T3,,King Street West,,POINT (-79.40394910000001 43.6438332)
,,,,,,4762132792,43.6454306,-79.5600516,TD Canada Trust,,,,,,,POINT (-79.56005159999999 43.6454306)
CIBC,,,,,,5079036920,43.7043603,-79.4087774,CIBC,,,,,,,POINT (-79.40877740000001 43.7043603)
TD Canada Trust,Toronto,,,,Branch,5124625223,43.6490236,-79.3731596,TD Canada Trust,,+1-416-214-0155,M5E 1T4,,Front Street East,yes,POINT (-79.37315959999999 43.6490236)
Meridian Credit Union,,,,,,5125590315,43.6459602,-79.3851808,Meridian Credit Union,,,,,,yes,POINT (-79.3851808 43.6459602)
Scotiabank,Toronto,,,,10,5165633397,43.6385901,-79.4200181,Scotiabank,,,,,Liberty Street,,POINT (-79.42001809999999 43.6385901)
RBC,Toronto,,,,330,5189261847,43.6439711,-79.3907954,RBC,,,M5V 3B7,,Front Street West,,POINT (-79.3907954 43.6439711)
CIBC,,,,,,5220252159,43.7433315,-79.3121751,CIBC,,,,,,,POINT (-79.3121751 43.7433315)
National Bank,,,,,,5220291170,43.6806863,-79.2835896,National Bank,,,,,,,POINT (-79.2835896 43.6806863)
,,,,,,5272755612,43.6439108,-79.4018859,Comtech Fire Credit Union,,,,,,,POINT (-79.4018859 43.6439108)
,,,,,,5418126321,43.7119392,-79.3006540,,,,,,,,POINT (-79.30065399999999 43.7119392)
TD Canada Trust,,,,,1886,5642631886,43.6955338,-79.4518318,TD Canada Trust,,,,,Eglinton Avenue West,no,POINT (-79.45183179999999 43.6955338)
RBC,,,,,,5671150473,43.7880929,-79.3302946,RBC,RBC,,,,,,POINT (-79.3302946 43.7880929)
RBC,Etobicoke,,,,1104,5705829721,43.7368095,-79.5666790,RBC,,+1-416-749-3200,M9V 1A8,,Albion Road,yes,POINT (-79.56667899999999 43.7368095)
CIBC,Toronto,,,,1,5711491121,43.6523326,-79.3790455,CIBC,,+1-416-980-2939,,,Queen Street East,yes,POINT (-79.3790455 43.6523326)
CIBC,Toronto,,,,595,5711547221,43.6560663,-79.3829240,CIBC,,+1-416-861-3801,,,Bay Street,yes,POINT (-79.382924 43.6560663)
Meridian Credit Union,Toronto,,,,464,5720970621,43.6564319,-79.4086186,Meridian Credit Union,,+1-416-929-1487,M6G 1A1,,College Street,yes,POINT (-79.4086186 43.6564319)
TD Canada Trust,Toronto,,,,65,5749663523,43.6655728,-79.3810756,TD Canada Trust,,+1-416-944-4135,M4Y 1G7,,Wellesley Street East,yes,POINT (-79.3810756 43.6655728)
Meridian Credit Union,,,,,,5794386498,43.6412085,-79.4153220,Meridian Credit Union,,,,,,,POINT (-79.415322 43.6412085)
Meridian Credit Union,Toronto,,,,486,5801716353,43.6647931,-79.3683517,Meridian Credit Union,,+1-416-963-9839,M4X 1P2,,Parliament Street,yes,POINT (-79.36835170000001 43.6647931)
CIBC,,,,,,5917075377,43.7202773,-79.5963889,CIBC,,,,,,,POINT (-79.59638889999999 43.7202773)
RBC,,,,,,5927659119,43.6444298,-79.3680842,RBC,,,,,,yes,POINT (-79.3680842 43.6444298)
TD Canada Trust,North York,,,,1677,6195431749,43.7273707,-79.4173442,TD Canada Trust,,,,,Avenue Road,yes,POINT (-79.4173442 43.7273707)
,Toronto,,,,1168,6240360486,43.6494695,-79.4217988,IC Savings,,,,,Dundas Street West,,POINT (-79.4217988 43.6494695)
,,,,Mo-We 09:30-15:30; Th-Fr 09:00-20:00; Sa 09:00-13:00; Su closed,2975,6306230105,43.6476379,-79.5092918,Parama Credit Union,,,,,Bloor Street West,,POINT (-79.5092918 43.6476379)
Scotiabank,,,,,2930,6306326486,43.6483943,-79.5073573,Scotiabank,,,,,Bloor Street West,,POINT (-79.5073573 43.6483943)
CIBC,,,,,1500,6307474997,43.6913782,-79.5315474,CIBC,,,,,Royal York Road,,POINT (-79.53154739999999 43.6913782)
,,,,,,6310888485,43.6364559,-79.5401454,IC Savings,,,,,,,POINT (-79.5401454 43.6364559)
RBC,,,,,140,6314606871,43.6855107,-79.5241184,RBC,,,,,La Rose Avenue,,POINT (-79.52411840000001 43.6855107)
Scotiabank,,,,,25,6323375947,43.6125694,-79.5558251,Scotiabank,,,,,The West Mall,,POINT (-79.55582510000001 43.6125694)
RBC,,,,,,6324061449,43.6832580,-79.5653357,RBC,,,,,,,POINT (-79.56533570000001 43.683258)
TD Canada Trust,,,,,500,6332297849,43.7196435,-79.5999129,TD Canada Trust,,,,,Rexdale Boulevard,,POINT (-79.59991290000001 43.7196435)
CIBC,,,,,1530,6334199715,43.7418478,-79.5845989,CIBC,,,,,Albion Road,,POINT (-79.5845989 43.7418478)
BMO,,,,,1530,6334238415,43.7414409,-79.5860500,BMO,,,,,Albion Road,,POINT (-79.58605 43.7414409)
Scotiabank,Toronto,,,,992,6340806335,43.6611364,-79.4300741,Scotiabank,,,,,Bloor Street West,,POINT (-79.4300741 43.6611364)
RBC,Toronto,,,,972,6340806337,43.6613644,-79.4291179,RBC,,,,,Bloor Street West,,POINT (-79.42911789999999 43.6613644)
TD Canada Trust,,,,,,6352717358,43.7488345,-79.5610425,TD Canada Trust,,,,,,,POINT (-79.5610425 43.7488345)
CIBC,,,,,,6352773257,43.7583653,-79.5702084,CIBC,,,,,,,POINT (-79.5702084 43.7583653)
BMO,,,,,1700,6355483809,43.7211462,-79.5122289,BMO,,,,,Wilson Avenue,,POINT (-79.5122289 43.7211462)
,,,,,,6357286289,43.6643423,-79.4143054,KEB Hana Bank Canada,,,,,,,POINT (-79.4143054 43.6643423)
Scotiabank,,,,,,6369148098,43.6549383,-79.4072595,Scotiabank,,,,,,,POINT (-79.4072595 43.6549383)
CIBC,,,,,1911,6370602927,43.7558625,-79.5161670,CIBC,,,,,Finch Avenue West,,POINT (-79.516167 43.7558625)
BMO,,,,,1,6370871213,43.7582487,-79.5200035,BMO,,,,,York Gate Boulevard,,POINT (-79.5200035 43.7582487)
RBC,,,,,,6371265838,43.7695310,-79.5214985,RBC,,,,,,,POINT (-79.52149850000001 43.769531)
,Toronto,,,,1573,6374391728,43.6558131,-79.4542690,Parama Credit Union,,,,,Bloor Street West,,POINT (-79.454269 43.6558131)
TD Canada Trust,Toronto,,,,247,6483208781,43.6516174,-79.3971634,TD Canada Trust,,,,,Spadina Avenue,,POINT (-79.3971634 43.6516174)
TD Canada Trust,,,,,2945,6491357309,43.6653399,-79.4673984,TD Canada Trust,,,,,Dundas Street West,,POINT (-79.46739839999999 43.6653399)
Scotiabank,,,,,,6542992470,43.7605642,-79.3270404,Scotiabank,,,,,,,POINT (-79.3270404 43.7605642)
RBC,,,,,,6543870190,43.7272994,-79.4825145,RBC,,,,,,,POINT (-79.48251449999999 43.7272994)
Scotiabank,,,,,6464,6545238877,43.7964767,-79.4219995,Scotiabank,,,,,Yonge Street,,POINT (-79.4219995 43.7964767)
BMO,,,,,6464,6545307509,43.7962220,-79.4212132,BMO,,,,,Yonge Street,,POINT (-79.4212132 43.796222)
Scotiabank,,,,,279,6546039653,43.6513821,-79.3672447,Scotiabank,,,M5A 1K2,,King Street East,yes,POINT (-79.3672447 43.6513821)
BMO,,,,,,6548219492,43.6512812,-79.3645350,BMO,,,,,,,POINT (-79.364535 43.6512812)
BMO,,,,,,6548224596,43.6497461,-79.3744913,BMO,,,,,,,POINT (-79.3744913 43.6497461)
,,,,,,6549482188,43.7082833,-79.4539198,IC Savings,,,,,,,POINT (-79.45391979999999 43.7082833)
HSBC,,,,,,6554483057,43.6882411,-79.5884945,HSBC,,,,,,,POINT (-79.5884945 43.6882411)
BMO,,,,,,6578943810,43.7057522,-79.3469769,BMO,,,,,,,POINT (-79.3469769 43.7057522)
CIBC,,,,,,6579133128,43.6699595,-79.3391269,CIBC,,,,,,,POINT (-79.3391269 43.6699595)
TD Canada Trust,,,,,,6589755207,43.7751512,-79.2585139,TD Canada Trust,,,,,,,POINT (-79.2585139 43.7751512)
Alterna Savings,,,,,,6589921442,43.7762805,-79.2628169,Alterna Savings,,,,,,,POINT (-79.2628169 43.7762805)
Scotiabank,,,,,,6589930740,43.7762676,-79.2571003,Scotiabank,,,,,,,POINT (-79.2571003 43.7762676)
BMO,,,,,,6592019129,43.7575279,-79.2300555,BMO,,,,,,,POINT (-79.23005550000001 43.7575279)
CIBC,,,,,,6592055405,43.7573495,-79.2299426,CIBC,,,,,,,POINT (-79.2299426 43.7573495)
TD Canada Trust,,,,,,6604284843,43.7509240,-79.4012216,TD Canada Trust,,,,,,,POINT (-79.4012216 43.750924)
RBC,,,,,,6612464388,43.7977397,-79.1519423,RBC,,,,,,,POINT (-79.1519423 43.7977397)
,,,,,,6680642261,43.7688326,-79.4123553,Shinan Bank,,,,,,,POINT (-79.4123553 43.7688326)
Meridian Credit Union,,,,,,6680667831,43.7625154,-79.4102943,Meridian Credit Union,,,,,,,POINT (-79.4102943 43.7625154)
BMO,,,,,,6685670169,43.6595088,-79.3475432,BMO,,,,,,,POINT (-79.3475432 43.6595088)
CIBC,,,,,,7055876154,43.7359486,-79.2492443,CIBC,,,,,,,POINT (-79.2492443 43.7359486)
Scotiabank,,,,,,7055876155,43.7371341,-79.2502329,Scotiabank,,,,,,,POINT (-79.2502329 43.7371341)
,,,,,,7086800147,43.7195811,-79.4327294,TD,,,,,,,POINT (-79.4327294 43.7195811)
