Brand,City,Country,Email,Hours,House_Number,ID,Latitude,Longitude,Name,Phone Number,Postal_Code,Province,Street,Website,Wheelchair,geometry
7-Eleven,,,,24/7,,60715216,43.6667511,-79.4040584,7-Eleven,,,,,https://www.7-eleven.com/,yes,POINT (-79.4040584 43.6667511)
,,,,,,60796403,43.6703952,-79.4134423,Olive Convenience,,,,,,,POINT (-79.4134423 43.6703952)
,,,,,,60930915,43.6747931,-79.3968700,Super Convenience,,,,,,,POINT (-79.39687000000001 43.6747931)
,,,,,,67344189,43.6699163,-79.4287477,Joe's Convenience,,,,,,limited,POINT (-79.4287477 43.6699163)
,,,,,151,67344925,43.6665134,-79.4194288,My 151 Convenience,,,,Barton Avenue,,,POINT (-79.41942880000001 43.6665134)
,,,,,,67344938,43.6675085,-79.4146202,Palmerston Convenience,,,,,,,POINT (-79.4146202 43.6675085)
,Toronto,,,Mo-Su 09:00-23:00,949,67972418,43.6613171,-79.4279504,Stop 'N Shop,,,,Bloor Street West,,,POINT (-79.4279504 43.6613171)
,Toronto,,,,983,67972439,43.6609732,-79.4294704,Bloor Mini Mart,,,,Bloor Street West,,,POINT (-79.4294704 43.6609732)
,,,,,,67972684,43.6672347,-79.4319263,Sun Shine Variety,,,,,,,POINT (-79.4319263 43.6672347)
,,,,,138,67972693,43.6673212,-79.4315622,77 Food Market,,,,Hallam Street,,,POINT (-79.4315622 43.6673212)
,Toronto,,,,782,67972738,43.6622892,-79.4298546,John's Variety,,,,Dovercourt Road,,,POINT (-79.4298546 43.6622892)
,,,,,,67972743,43.6630840,-79.4355109,Rosie Robin,,,,,,,POINT (-79.4355109 43.663084)
Circle K,,,,24/7,,118421690,43.6555741,-79.3850770,Circle K,,,,,http://www.macs.ca/,,POINT (-79.385077 43.6555741)
7-Eleven,Toronto,,,,260,152659340,43.6581229,-79.3997958,7-Eleven,,,,College Street,https://www.7-eleven.com/,no,POINT (-79.39979580000001 43.6581229)
,,,,24/7,,155912469,43.6497660,-79.4313066,Bros Convenience,,,,,,,POINT (-79.4313066 43.649766)
Hasty Market,York,,,,400,243421027,43.6868767,-79.4347601,Hasty Market,,,,Winona Drive,http://www.hastymarketcorp.com/,,POINT (-79.43476010000001 43.6868767)
,,,,,,243955857,43.6625604,-79.4039281,Harbord Convenience,,,,,,,POINT (-79.4039281 43.6625604)
,,,,,,244885891,43.6510420,-79.4110567,7-Eleven,,,,,https://www.7-eleven.com/,,POINT (-79.4110567 43.651042)
,,,,,,245020014,43.6477067,-79.4100045,Melo Grocery,,,,,,,POINT (-79.4100045 43.6477067)
7-Eleven,,,,,,245020018,43.6454799,-79.4108450,7-Eleven,,,,,https://www.7-eleven.com/,,POINT (-79.41084499999999 43.6454799)
Esso,Toronto,,,,381,251047415,43.6986546,-79.3861777,Esso,,M4S 2L5,,Mount Pleasant Road,https://www.esso.ca/,,POINT (-79.3861777 43.6986546)
,Toronto,,,,410,251246374,43.6515743,-79.4512437,White Corner Variety,+1-416-530-4583,M6R 2N2,,Roncesvalles Avenue,,yes,POINT (-79.45124370000001 43.6515743)
,Toronto,,,,1452,252170655,43.6572044,-79.4487946,3 Jit Variety,,,,Bloor Street West,,,POINT (-79.4487946 43.6572044)
,Toronto,,,,484,253718699,43.6533995,-79.4518574,Green Field,,,,Roncesvalles Avenue,,,POINT (-79.45185739999999 43.6533995)
,,,,,,260338326,43.6551267,-79.4590663,7-Eleven,,,,,https://www.7-eleven.com/,,POINT (-79.4590663 43.6551267)
Esso,,,,,,260990913,43.6975851,-79.3291251,Esso,,,,,https://www.esso.ca/,yes,POINT (-79.3291251 43.6975851)
Shell,,,,,,260990951,43.6974267,-79.3298547,Shell,,,,,,,POINT (-79.3298547 43.6974267)
,,,,,,262694862,43.6575765,-79.4030485,Starbank Convenience,,,,,,yes,POINT (-79.4030485 43.6575765)
,,,,,,262919586,43.6949632,-79.3035547,L.B. Supermarket,,,,,,,POINT (-79.30355470000001 43.6949632)
,,,,,,262919589,43.6935847,-79.3113831,Gledhill Convenience,,,,,,,POINT (-79.3113831 43.6935847)
,,,,,,263041964,43.6945074,-79.3084526,D&K Grocery,,,,,,,POINT (-79.3084526 43.6945074)
,,,,,,264823055,43.6910297,-79.3148890,Woodbine Convenience Store,,,,,,yes,POINT (-79.31488899999999 43.6910297)
Esso,,,,,,266579047,43.6910397,-79.2878587,Esso,,,,,https://www.esso.ca/,,POINT (-79.2878587 43.6910397)
,,,,,,267314406,43.6400166,-79.3791918,York Quay Fine Foods,,,,,,yes,POINT (-79.3791918 43.6400166)
,,,,,,267314750,43.6396928,-79.3830883,Jasvik At Your Convenience,,,,,,,POINT (-79.3830883 43.6396928)
,,,,,,269328754,43.6942585,-79.3166516,Terry's Milk,,,,,,,POINT (-79.3166516 43.6942585)
Petro-Canada,,,,,,269450988,43.6865034,-79.3081922,Petro-Canada,,,,,,,POINT (-79.30819219999999 43.6865034)
,,,,,,269539180,43.6942698,-79.3162393,Woodbine Mini Mart,,,,,,,POINT (-79.31623930000001 43.6942698)
Petro-Canada,Toronto,,,,115,270858365,43.6529039,-79.3724356,Petro-Canada,,,,Jarvis Street,,,POINT (-79.3724356 43.6529039)
,,,,24/7,,271628183,43.6838881,-79.2999791,S Market,,,,,,,POINT (-79.2999791 43.6838881)
,,,,,,271628211,43.6838119,-79.3014439,Your Convenience,,,,,,,POINT (-79.3014439 43.6838119)
7-Eleven,Toronto,,,24/7,372,273325240,43.6510367,-79.3813927,7-Eleven,+1-416-203-8350,M5H 2W9,,Bay Street,https://www.7-eleven.com/,,POINT (-79.38139270000001 43.6510367)
Esso,North York,,,,1840,276270556,43.7135510,-79.3781082,Esso,,,,Bayview Avenue,https://www.esso.ca/,yes,POINT (-79.3781082 43.713551)
,Toronto,,,,131,276758156,43.6916186,-79.3043752,Vic's Milk,,,,Chisholm Avenue,,,POINT (-79.3043752 43.6916186)
,East York,,,,70,276758807,43.6918296,-79.3032765,B & D Variety Store,,,,Doncaster Avenue,,,POINT (-79.3032765 43.6918296)
,,,,,,277040121,43.6893028,-79.3229811,Sammon Grocery,,,,,,,POINT (-79.32298110000001 43.6893028)
,,,,,,277045238,43.6886000,-79.3352181,Evan's Variety,,,,,,,POINT (-79.33521810000001 43.6886)
,,,,,,277045240,43.6876810,-79.3405072,Daisy Mart,,,,,,,POINT (-79.3405072 43.687681)
,,,,,,277045246,43.6835922,-79.3387937,Tedway Variety,,,,,,,POINT (-79.3387937 43.6835922)
,,,,,,277045285,43.6806508,-79.3375515,Donlands Variety,,,,,,,POINT (-79.3375515 43.6806508)
,,,,,,277140077,43.6892412,-79.3489544,William's Convenience & Food Mart,,,,,,,POINT (-79.3489544 43.6892412)
,,,,"Mo-Th 08:00-22:30; Fr,Sa 08:00-11:30; Su 08:00-10:30",,278030820,43.6934510,-79.2973575,Daisy Mart,,,,,,,POINT (-79.2973575 43.693451)
,,,,,,278030822,43.6925918,-79.2973192,Imag Convenience Store,,,,,,,POINT (-79.2973192 43.6925918)
,,,,,,278102972,43.6915291,-79.3000521,,,,,,,,POINT (-79.3000521 43.6915291)
,East York,,,,2775,278862314,43.7065455,-79.3068988,Plymouth Variety,,,,St Clair Avenue East,,,POINT (-79.3068988 43.7065455)
,,,,,,279217361,43.6861976,-79.3384156,True M & A Variety,,,,,,,POINT (-79.3384156 43.6861976)
,,,,,,279217371,43.6869797,-79.3348821,Sammon Convenience,,,,,,,POINT (-79.3348821 43.6869797)
,,,,,,279677538,43.7014971,-79.2967276,Convenience Plus,,,,,,,POINT (-79.2967276 43.7014971)
,,,,,,280367112,43.7072647,-79.3027146,JAE Smoke & Convenience,,,,,,,POINT (-79.3027146 43.7072647)
,Toronto,,,,568,280493840,43.6648032,-79.3846560,Ultra Convenience,,,,Yonge Street,,,POINT (-79.38465600000001 43.6648032)
,,,,,,280901803,43.6790343,-79.3098387,Len's Milk Corner,,,,,,,POINT (-79.3098387 43.6790343)
Circle K,,,,24/7,,281359935,43.7085890,-79.3900236,Circle K,,,,,http://www.macs.ca/,,POINT (-79.39002360000001 43.708589)
,Toronto,,,,224,281361302,43.6676734,-79.3724521,Sunny Green Vegetable And Fruit Limited,,,,Wellesley Street East,,,POINT (-79.3724521 43.6676734)
,,,,,,281361604,43.6634680,-79.3723778,J & S Convenience,,,,,,,POINT (-79.3723778 43.663468)
,Toronto,,,,166,281361608,43.6631579,-79.3737412,,,,,Carlton Street,,no,POINT (-79.3737412 43.6631579)
,,,,,,281361737,43.6602206,-79.3771856,Mac's,,,,,http://www.macs.ca/,,POINT (-79.3771856 43.6602206)
,,,,24/7,,281361815,43.6565356,-79.3762969,Dundas Market,,,,,,,POINT (-79.3762969 43.6565356)
,,,,,,281361826,43.6565965,-79.3773321,International News Plus,,,,,,,POINT (-79.3773321 43.6565965)
,,,,,,281663042,43.6520813,-79.3776566,Friends Convenience & Grocery,,,,,,,POINT (-79.37765659999999 43.6520813)
,Toronto,,,,36,281665683,43.6491001,-79.3742090,Total Convenience Food Market,,,,Church Street,,,POINT (-79.37420899999999 43.6491001)
,,,,,,281667487,43.6480574,-79.3734721,Richie Neighbourhood Store,,,,,,,POINT (-79.3734721 43.6480574)
,,,,,,281669102,43.6503927,-79.3772472,Victoria Variety & Gift,,,,,,,POINT (-79.3772472 43.6503927)
,,,,,23,281669981,43.6574658,-79.3828019,Elm Basket Food & Variety,,,,Elm Street,,,POINT (-79.3828019 43.6574658)
,,,,24/7,,281913067,43.6785507,-79.3585735,Sak's Fine Foods,,,,,,,POINT (-79.35857350000001 43.6785507)
,,,,,,281913070,43.6782036,-79.3582257,Paul's Milk,,,,,,,POINT (-79.35822570000001 43.6782036)
,Toronto,,,,592,281916195,43.6680278,-79.3696273,Jamestown Milk,+1-416-923-4354,M4X 1P8,,Parliament Street,,yes,POINT (-79.3696273 43.6680278)
,,,,,,281923894,43.6627506,-79.3639249,Regent Park Supermarket Convenience Store,,,,,,,POINT (-79.3639249 43.6627506)
,,,,,,281923895,43.6626890,-79.3642642,Anne Grocery,,,,,,,POINT (-79.36426419999999 43.662689)
,,,,,,288057758,43.7029142,-79.4169680,Family Food Fair Convenience,,,,,,,POINT (-79.416968 43.7029142)
,,,,,,288057966,43.7035781,-79.4140904,Crosstown Convenience,,,,,,,POINT (-79.41409040000001 43.7035781)
,,,,,,288060580,43.7060043,-79.4026147,Market Convenience,,,,,,,POINT (-79.4026147 43.7060043)
Daisy Mart,,,,Mo-Su 08:30-22:00,,292779921,43.6565225,-79.3674588,Daisy Mart,,,,,,,POINT (-79.36745879999999 43.6565225)
,,,,,,292780204,43.6574447,-79.3620701,B.A. Grocery & Variety,,,,,,,POINT (-79.3620701 43.6574447)
,,,,,,295314899,43.6682130,-79.3817949,Church Bella Variety,,,,,,,POINT (-79.3817949 43.668213)
,,,,,,295326044,43.6861645,-79.3759220,Scoops Convenience Boutique on Summerhill,,,,,,,POINT (-79.375922 43.6861645)
,,,,,,302419257,43.7987625,-79.3688427,Kitchen Food Fair,,,,,,,POINT (-79.3688427 43.7987625)
,,,,,,305024784,43.6625828,-79.4049411,Harbord Variety,,,,,,,POINT (-79.4049411 43.6625828)
,Toronto,,,,651,305024937,43.6635684,-79.4019330,Convenience.com,,,,Spadina Avenue,,,POINT (-79.401933 43.6635684)
,,,,,,307781373,43.7153993,-79.4906724,Super Discount Variety,,,,,,,POINT (-79.49067239999999 43.7153993)
Circle K,,,,,,315662869,43.6713810,-79.2943325,Circle K,,,,,http://www.macs.ca/,,POINT (-79.2943325 43.671381)
,,,,,,315670719,43.6803383,-79.2911414,Youliton Best Convenience,,,,,,yes,POINT (-79.2911414 43.6803383)
7-Eleven,Toronto,,,,1,317054745,43.7067887,-79.3976190,7-Eleven,,M4P 3A1,,Eglinton Avenue East,https://www.7-eleven.com/,,POINT (-79.39761900000001 43.7067887)
,Toronto,,,,535,339423490,43.6653143,-79.4096593,Annex Mart,,,,Bloor Street West,,,POINT (-79.4096593 43.6653143)
,,,,,,339554212,43.6770910,-79.3893984,Paris Grocery,,,,,,,POINT (-79.3893984 43.677091)
,,,,,,343286383,43.7265059,-79.3126779,Sloane Convenience,,,,,,,POINT (-79.3126779 43.7265059)
,Toronto,,,,272,344478507,43.6583945,-79.3720065,Your Pantry,+1-416-962-7896,M5A 1Z9,,Dundas Street East,,,POINT (-79.3720065 43.6583945)
,,,,,,344545236,43.6638616,-79.3799309,Maple Leaf Convenience Mart,,,,,,,POINT (-79.37993090000001 43.6638616)
,,,,24/7,705,354968802,43.6587091,-79.3499468,Starbank Convenience Mart,,,,Queen Street East,,,POINT (-79.3499468 43.6587091)
,,,,,,355045745,43.6614410,-79.4095377,Stop 'N Go,,,,,,,POINT (-79.4095377 43.661441)
,,,,,,356494799,43.7983294,-79.1387326,Mister Convenience,,,,,,,POINT (-79.1387326 43.7983294)
,,,,,,357142890,43.7982634,-79.1393409,New Pickering Petroleum Gas Bar & Convenience,,,,,,,POINT (-79.13934089999999 43.7982634)
,,,,,,357938381,43.7900647,-79.1404028,Becker's,,,,,,,POINT (-79.1404028 43.7900647)
Esso,,,,,,360997920,43.7346188,-79.6173128,Esso,,,,,,,POINT (-79.61731279999999 43.7346188)
,York,,,,261,364937091,43.6774379,-79.5059549,Royal Variety,,,,Scarlett Road,,,POINT (-79.50595490000001 43.6774379)
,,,,,,364943605,43.6944023,-79.5187498,Scarlett Convenience,,,,,,,POINT (-79.51874979999999 43.6944023)
,,,,,,366654676,43.7982287,-79.3686400,Superior Dollar,,,,,,,POINT (-79.36864 43.7982287)
,,,,,,366654738,43.7993121,-79.3696214,On The Run,,,,,,,POINT (-79.3696214 43.7993121)
,,,,,,366654786,43.7930682,-79.3544739,On The Run,,,,,,,POINT (-79.3544739 43.7930682)
,York,,,,2189-2191,368127384,43.7035378,-79.5260927,Park's Supermarket,,,,Weston Road,,,POINT (-79.52609270000001 43.7035378)
,,,,,224,368385378,43.6453229,-79.3895732,International News,,,,Wellington Street West,,,POINT (-79.3895732 43.6453229)
Petro-Canada,,,,,,370202085,43.7436678,-79.6066513,Petro-Canada,,,,,,,POINT (-79.6066513 43.7436678)
Shell,,,,,,370202086,43.7437888,-79.6080503,Shell,,,,,,,POINT (-79.6080503 43.7437888)
Hasty Market,,,,,,372345623,43.6614376,-79.3806055,Hasty Market,,,,,http://www.hastymarketcorp.com/,yes,POINT (-79.3806055 43.6614376)
,Toronto,,,,491,372352555,43.6643617,-79.3678378,Corner Discount,+1-416-924-5155,,,Parliament Street,,yes,POINT (-79.3678378 43.6643617)
,Toronto,,,,401,372354116,43.6621099,-79.3668763,Jenny's Convenience,+1-416-923-8737,M5A 3A1,,Parliament Street,,yes,POINT (-79.3668763 43.6621099)
,,,,,,372374867,43.6727043,-79.3194275,Super Dave Convenience,,,,,,,POINT (-79.3194275 43.6727043)
,,,,Mo-Su 07:00-22:00,,372479244,43.6880195,-79.3008542,Main Square Smoke & Gift,,,,,,,POINT (-79.3008542 43.6880195)
,East York,,,,901,372934772,43.6939500,-79.3276494,?? Variety,,,,Coxwell Avenue,,,POINT (-79.3276494 43.69395)
,,,,,,373111394,43.6876259,-79.3531334,Logan Convenience,,,,,,no,POINT (-79.3531334 43.6876259)
,Toronto,,,,521A,373114859,43.6780930,-79.3483363,Lucky Spot,,,,Danforth Avenue,,,POINT (-79.3483363 43.678093)
,Toronto,,,,850,373116934,43.6805668,-79.3483163,Carlaw Convenience,,,,Carlaw Avenue,,,POINT (-79.34831629999999 43.6805668)
,East York,,,,923,373123737,43.6856874,-79.3472066,Everything Store,,,,Pape Avenue,,,POINT (-79.34720660000001 43.6856874)
,Scarborough,,,,3437,373162711,43.7137400,-79.2719939,Daisy Mart,,,,St Clair Avenue East,,,POINT (-79.2719939 43.71374)
,Scarborough,,,,3447,373162929,43.7138082,-79.2717082,Dollar Variety Smoke & Gift,,,,St Clair Avenue East,,,POINT (-79.27170820000001 43.7138082)
,Toronto,,,24/7,591,380027367,43.6709601,-79.3761330,Handy Variety,,,,Parliament Street,,,POINT (-79.376133 43.6709601)
,Toronto,,,24/7,236,380038285,43.6580999,-79.3712286,Sam's Food Store,+1-416-366-3554,M5A 1Z9,,Sherbourne Street,,,POINT (-79.37122859999999 43.6580999)
,,,,,,380038298,43.6584690,-79.3707352,Corner Mart,,,,,,,POINT (-79.3707352 43.658469)
,,,,,,380039760,43.6546820,-79.3692598,Moss Park Discount Store,,,,,,,POINT (-79.36925979999999 43.654682)
,,,,,,380039986,43.6530355,-79.3687953,Select Fine Food,,,,,,,POINT (-79.3687953 43.6530355)
,Toronto,,,,105,380040885,43.6493461,-79.3711435,Time Square Convenience,,,,Front Street East,,no,POINT (-79.3711435 43.6493461)
,Toronto,,,,79,380041240,43.6486739,-79.3728163,International News,,,,Front Street East,,,POINT (-79.3728163 43.6486739)
Shell Select,,,,,,382849930,43.7600612,-79.2258337,Shell Select,,,,,,,POINT (-79.2258337 43.7600612)
,,,,,,383562245,43.6755838,-79.5557779,Hasty Market,,,,,http://www.hastymarketcorp.com/,,POINT (-79.5557779 43.6755838)
,,,,,,383629884,43.6827116,-79.4911262,Daily Mart,,,,,,,POINT (-79.4911262 43.6827116)
,,,,,,383629887,43.6827071,-79.4900684,Lambton Convenience,,,,,,,POINT (-79.4900684 43.6827071)
,York,,,,2609,383629935,43.6901800,-79.4742834,Variety & Video,,,,Eglinton Avenue West,,,POINT (-79.4742834 43.69018)
,,,,,,385037626,43.6335786,-79.4314594,Dunn Milk,,,,,,,POINT (-79.43145939999999 43.6335786)
,,,,,,385624369,43.7549654,-79.2459255,Select,,,,,,,POINT (-79.2459255 43.7549654)
,,,,,,386420543,43.7698247,-79.3759031,Kitchen Food Fair,,,,,,,POINT (-79.3759031 43.7698247)
,,,,,,386420571,43.7697511,-79.3763181,Select,,,,,,,POINT (-79.37631810000001 43.7697511)
Esso,North York,,,,461,386776803,43.7661302,-79.3884837,Esso,,,,Sheppard Avenue East,https://www.esso.ca/,,POINT (-79.38848369999999 43.7661302)
Shell,North York,,,,2831,386776963,43.7664330,-79.3874714,Shell,,,,Bayview Avenue,,,POINT (-79.3874714 43.766433)
,East York,,,24/7,8,387790712,43.7049497,-79.3490031,Super Stop,,,,Thorncliffe Park Drive,,,POINT (-79.3490031 43.7049497)
,,,,,,387791577,43.7093010,-79.3336267,INS Market,,,,,https://www.7-eleven.com/,yes,POINT (-79.3336267 43.709301)
,North York,,,,1095,387792406,43.7368144,-79.3428913,Super Stop,,,,Don Mills Road,,,POINT (-79.34289130000001 43.7368144)
Circle K,North York,,,,2500,387793884,43.7752484,-79.3476922,Circle K,,,,Don Mills Road,,,POINT (-79.3476922 43.7752484)
,,,,,,388327957,43.6675460,-79.4004963,International News Plus,,,,,,no,POINT (-79.4004963 43.667546)
,,,,,,390351632,43.7416237,-79.3185051,Daily Convenience,,,,,,,POINT (-79.3185051 43.7416237)
7-Eleven,,,,,,391085661,43.6659120,-79.3875626,7-Eleven,,,,,https://www.7-eleven.com/,,POINT (-79.3875626 43.665912)
,,,,,,391166249,43.7880730,-79.3809231,Bayview Foods Variety,,,,,,,POINT (-79.3809231 43.788073)
,,,,,,391181072,43.7792133,-79.3639663,Nymark Convinience,,,,,,,POINT (-79.3639663 43.7792133)
,,,,"Mo-Su ""please add opening times""",,392145800,43.6940401,-79.3471202,"Easy ""N"" Shop",,,,,,,POINT (-79.34712020000001 43.6940401)
,,,,,,392145847,43.6935517,-79.3494892,Neon Mini Mart,,,,,,,POINT (-79.34948919999999 43.6935517)
,,,,,,392146043,43.6935348,-79.3500027,Keg Variety,,,,,,,POINT (-79.3500027 43.6935348)
,,,,,,394180407,43.6711178,-79.3847626,International News,,,,,,,POINT (-79.3847626 43.6711178)
,,,,,,400912561,43.6554541,-79.3656450,Cinema Ras Variety Store,,,,,,,POINT (-79.365645 43.6554541)
,,,,Mo-Su,,400912573,43.6549199,-79.3681279,Mimi Variety,,,,,,,POINT (-79.3681279 43.6549199)
,,,,,,400914271,43.6530039,-79.3759266,Crown Variety & Snack,,,,,,,POINT (-79.3759266 43.6530039)
,,,,,,400916039,43.6527600,-79.3787151,Gateway Newsstands,,,,,,,POINT (-79.37871509999999 43.65276)
,,,,,,401511716,43.6809554,-79.3112068,Yes Food Fair,,,,,,,POINT (-79.31120679999999 43.6809554)
Esso,,,,24/7,,409158397,43.7185832,-79.2833994,Esso,,,,,https://www.esso.ca/,,POINT (-79.28339939999999 43.7185832)
Circle K,,,,,,410376723,43.7233135,-79.5599571,Circle K,,,,,http://www.macs.ca/,,POINT (-79.55995710000001 43.7233135)
,,,,,,410798660,43.7607635,-79.4992241,SuperStop,,,,,,,POINT (-79.49922410000001 43.7607635)
Esso,,,,,,410799730,43.7682406,-79.4672558,Esso,,,,,https://www.esso.ca/,,POINT (-79.4672558 43.7682406)
Hasty Market,,,,24/7,,410801675,43.6561439,-79.3899985,Hasty Market,,,,,http://www.hastymarketcorp.com/,,POINT (-79.3899985 43.6561439)
,,,,,,410999222,43.6753661,-79.4231721,New Market Convenience,,,,,,,POINT (-79.4231721 43.6753661)
,Toronto,,,Mo-Fr 09:00-22:00; Sa 10:00-22:00; Su 11:00-22:00,120,412351499,43.6525005,-79.3729236,French Quarter Convenience & Grocery,,,,Lombard Street,,,POINT (-79.37292359999999 43.6525005)
On the Run,,,,,,412398383,43.6568376,-79.3767641,On the Run,,,,,,,POINT (-79.3767641 43.6568376)
,,,,,,416557179,43.6885764,-79.3259731,Daisy Mart,,,,,,,POINT (-79.3259731 43.6885764)
,,,,,,417231068,43.7026267,-79.5042599,Vinayaka Convenience,,,,,,,POINT (-79.50425989999999 43.7026267)
,,,,,,420539142,43.6801708,-79.3374380,7-Eleven,,,,,https://www.7-eleven.com/,,POINT (-79.33743800000001 43.6801708)
,,,,,,420549579,43.6399876,-79.3811460,International News,,,,,,,POINT (-79.381146 43.6399876)
,,,,24/7,,427687187,43.7699780,-79.2607017,Mac's,,,,,http://www.macs.ca/,,POINT (-79.2607017 43.769978)
Circle K,,,,,,429659328,43.8078818,-79.2201848,Circle K,,,,,,,POINT (-79.2201848 43.8078818)
,Scarborough,,,,462,433542283,43.7076736,-79.2688982,Sam's Milk & Variety Market,,M1K 1N8,,Birchmount Road,,no,POINT (-79.2688982 43.7076736)
,,,,,,436015129,43.8347198,-79.2569317,On the Run,,,,,,,POINT (-79.2569317 43.8347198)
,,,,,,439496097,43.6623853,-79.3511507,H-P Variety Store,,,,,,,POINT (-79.35115070000001 43.6623853)
,,,,,,439496099,43.6621720,-79.3529926,Don's Milk,,,,,,,POINT (-79.35299259999999 43.662172)
,,,,,,474956791,43.7799742,-79.1382582,,,,,,,,POINT (-79.1382582 43.7799742)
,,,,,,474958376,43.8017820,-79.1991889,On the Run,,,,,,,POINT (-79.1991889 43.801782)
,,,,,,474961234,43.6778180,-79.4428693,7-Eleven,,,,,https://www.7-eleven.com/,yes,POINT (-79.4428693 43.677818)
,,,,,,474961237,43.6780486,-79.4433469,Dufferin Smoke & Variety,,,,,,,POINT (-79.44334689999999 43.6780486)
Hasty Market,Toronto,,,,129,491912595,43.6423835,-79.3832331,Hasty Market,,,,Bremner Boulevard,http://www.hastymarketcorp.com/,,POINT (-79.3832331 43.6423835)
,,,,,,495885689,43.7467569,-79.1997627,,,,,,,,POINT (-79.19976269999999 43.7467569)
,,,,,,501985555,43.6792956,-79.4472298,Lily's Variety,,,,,,,POINT (-79.4472298 43.6792956)
,,,,,,502049906,43.6779891,-79.4436180,,,,,,,,POINT (-79.443618 43.6779891)
,,,,,,502090184,43.6811691,-79.4290850,,,,,,,,POINT (-79.429085 43.6811691)
,,,,,,502704876,43.6818555,-79.4256925,,,,,,,,POINT (-79.4256925 43.6818555)
,,,,,,502704877,43.6815493,-79.4255177,,,,,,,,POINT (-79.4255177 43.6815493)
,,,,,,502704915,43.6764412,-79.4489748,,,,,,,,POINT (-79.4489748 43.6764412)
,,,,,,502704916,43.6768822,-79.4485614,,,,,,,,POINT (-79.4485614 43.6768822)
,,,,,,502717433,43.6736101,-79.4631955,Peter Pan 'K' Convenience,,,,,,,POINT (-79.4631955 43.6736101)
,,,,,,502717449,43.6743145,-79.4601813,,,,,,,,POINT (-79.4601813 43.6743145)
,,,,,,502717451,43.6740789,-79.4597201,St. Lucia Variety,,,,,,,POINT (-79.4597201 43.6740789)
,,,,,,502717452,43.6745542,-79.4591561,,,,,,,,POINT (-79.4591561 43.6745542)
,,,,,,502717453,43.6746750,-79.4586341,,,,,,,,POINT (-79.4586341 43.674675)
,,,,,,502717470,43.6745473,-79.4573271,,,,,,,,POINT (-79.4573271 43.6745473)
,Toronto,,,,78,502720111,43.6874677,-79.3979605,Mac's,+1-416-324-9844,M4V 1M7,,St. Clair Avenue West,http://www.macs.ca/,,POINT (-79.3979605 43.6874677)
,,,,,,502815979,43.6701249,-79.3465182,,,,,,,,POINT (-79.34651820000001 43.6701249)
,,,,,,502815981,43.6703778,-79.3463435,Alpha Variety,,,,,,,POINT (-79.3463435 43.6703778)
,,,,,,502827769,43.6743615,-79.3569598,Mary's Variety & Grocery Store,,,,,,,POINT (-79.3569598 43.6743615)
,,,,,,512544241,43.6634732,-79.3287983,Leslieville Variety,,,,,,,POINT (-79.3287983 43.6634732)
,,,,,,513610967,43.6676215,-79.3121411,Major Convenience,,,,,,,POINT (-79.31214110000001 43.6676215)
,,,,,,513610969,43.6675664,-79.3119936,You and Me Smoke & Gift,,,,,,,POINT (-79.31199359999999 43.6675664)
,Toronto,,,24/7,252,513952391,43.6499621,-79.3913182,Gardenview Convenience,+1-416-593-2560,,,Queen Street West,,,POINT (-79.3913182 43.6499621)
,,,,,,517227447,43.7317309,-79.4041307,Alex Convenience,,,,Yonge Street,,,POINT (-79.4041307 43.7317309)
,,,,,,518304248,43.6898869,-79.3201736,Glebe Mart,,,,,,,POINT (-79.3201736 43.6898869)
,East York,,,,167,518304250,43.6907366,-79.3173750,Woodmount Variety,,,,Woodmount Avenue,,,POINT (-79.317375 43.6907366)
,,,,,,524128801,43.7359116,-79.4424510,Daisy Mart,,,,,,,POINT (-79.44245100000001 43.7359116)
,Toronto,,,,109,524137937,43.6538696,-79.3910647,Grange Green Farms,,,,McCaul Street,,,POINT (-79.3910647 43.6538696)
,,,,,,527025581,43.6469107,-79.4305654,Iren's Grocery,,,,,,,POINT (-79.43056540000001 43.6469107)
,Toronto,,,,329,530778589,43.6491110,-79.4499597,Master Supermarket,,,,Roncesvalles Avenue,,,POINT (-79.44995969999999 43.649111)
,,,,,,530781891,43.6473224,-79.4492612,Joe's Variety and Gift Centre,,,,,,,POINT (-79.4492612 43.6473224)
,Toronto,,,09:00-23:00,211,530784881,43.6456026,-79.4485970,Jac's Milk,,,,Roncesvalles Avenue,,,POINT (-79.44859700000001 43.6456026)
,,,,,,530818840,43.6411706,-79.4469136,October Convenience,,,,,,,POINT (-79.4469136 43.6411706)
,,,,,,540283039,43.7679241,-79.4010595,Hollywood Convenience,,,,,,,POINT (-79.4010595 43.7679241)
,North York,,,24/7,12,540294865,43.7577064,-79.4089129,Rabba,,M2N 7K6,,Harrison Garden Boulevard,,,POINT (-79.4089129 43.7577064)
,,,,,,540897842,43.7463457,-79.2098140,Daisy Mart,,,,,,,POINT (-79.20981399999999 43.7463457)
,,,,,,540923958,43.7715761,-79.2091193,,,,,,,,POINT (-79.2091193 43.7715761)
,,,,,,541617929,43.7581070,-79.2242882,Afghan Supermarket,,,,,,,POINT (-79.2242882 43.758107)
,,,,24/7,,542005024,43.7247840,-79.2313409,Circle K,,,,,http://www.macs.ca/,,POINT (-79.23134090000001 43.724784)
,Scarborough,,,,421,542033108,43.7505163,-79.2213506,Markham Variety,,,,Markham Road,,,POINT (-79.22135059999999 43.7505163)
,,,,,,542895216,43.8048160,-79.2993120,Daisy Mart,,,,,,,POINT (-79.299312 43.804816)
,,,,,,544543795,43.7287677,-79.2289061,,,,,,,,POINT (-79.2289061 43.7287677)
,,,,,,544554090,43.7415066,-79.2253449,,,,,,,,POINT (-79.2253449 43.7415066)
,,,,,,544554113,43.7423075,-79.2211677,,,,,,,,POINT (-79.2211677 43.7423075)
,,,,,,544560260,43.7414582,-79.2319596,Golden Tuck Shop,,,,,,,POINT (-79.2319596 43.7414582)
,,,,,,544664064,43.7315878,-79.4190598,Peterpan's Convenience,,,,,,,POINT (-79.4190598 43.7315878)
,,,,,522,547832250,43.6601977,-79.4798934,Young Flowers Convenience,,,,Annette Street,,,POINT (-79.47989339999999 43.6601977)
,,,,,545,547832252,43.6599192,-79.4800993,Little Bee Mart,,,,Annette Street,,,POINT (-79.48009930000001 43.6599192)
,,,,,,550878317,43.6861765,-79.2735067,,,,,,,no,POINT (-79.2735067 43.6861765)
,Toronto,,,,2414,550879139,43.6748234,-79.2792421,,,,,Queen Street East,,,POINT (-79.2792421 43.6748234)
,,,,,,550879280,43.6740628,-79.2817377,,,,,,,,POINT (-79.28173769999999 43.6740628)
,,,,,,551077688,43.6958619,-79.2758217,,,,,,,,POINT (-79.27582169999999 43.6958619)
,Scarborough,,,,3355,558583562,43.7871987,-79.1839032,Family Mart Plus,,,,Ellesmere Avenue,,,POINT (-79.1839032 43.7871987)
,,,,,,560196732,43.7036365,-79.4411932,,,,,,,,POINT (-79.4411932 43.7036365)
,,,,,,560197575,43.7807499,-79.4155038,Gateway Newsstands,,,,,,,POINT (-79.4155038 43.7807499)
,,,,24/7,,560635033,43.6731747,-79.3875252,Canadian Tire,,,,,https://www.canadiantire.ca/,,POINT (-79.3875252 43.6731747)
,Toronto,,,,150,560635922,43.6757672,-79.4034806,Circle K,,M5R 2E6,,Dupont Street,,,POINT (-79.40348059999999 43.6757672)
,,,,,,561039002,43.7233143,-79.4304786,9-11 Milk,,,,,,no,POINT (-79.4304786 43.7233143)
,North York,,,,3587,561040799,43.7325618,-79.4323175,7-Eleven,,,,Bathurst Street,https://www.7-eleven.com/,,POINT (-79.4323175 43.7325618)
,,,,,,561041446,43.7260548,-79.4310092,,,,,,,,POINT (-79.43100920000001 43.7260548)
,,,,,,561041943,43.7470158,-79.4367374,,,,,,,,POINT (-79.4367374 43.7470158)
,,,,,,561044024,43.8052225,-79.3851015,Tiger Express,,,,,,,POINT (-79.3851015 43.8052225)
,,,,,,561044365,43.7807241,-79.4155215,J's Variety,,,,,,,POINT (-79.4155215 43.7807241)
,,,,,,565543442,43.7755868,-79.4131089,Northtown Convenience,,,,,,,POINT (-79.4131089 43.7755868)
,,,,,,565545454,43.6677637,-79.3851213,,,,,,,,POINT (-79.38512129999999 43.6677637)
,,,,,,565583949,43.7797435,-79.2978630,Daisy Mart,,,,,,,POINT (-79.29786300000001 43.7797435)
,,,,,,565583950,43.7795730,-79.2978058,,,,,,,,POINT (-79.29780580000001 43.779573)
,,,,,,565583952,43.7815280,-79.2989837,"On The Run, Tim Hortons",,,,,,,POINT (-79.29898369999999 43.781528)
Daisy Mart,,,,,,565586068,43.7640714,-79.2911811,Daisy Mart,,,,,,,POINT (-79.2911811 43.7640714)
,Toronto,,,,349,569656245,43.6728384,-79.3370270,Uncle Don's,+1-416-463-9979,M4J 3G4,,Jones Avenue,,,POINT (-79.33702700000001 43.6728384)
,,,,,,569657552,43.6759966,-79.3435609,Ping Field Variety,,,,,,,POINT (-79.3435609 43.6759966)
,,,,,,572859647,43.6462232,-79.3825987,International News,,,,,,,POINT (-79.3825987 43.6462232)
,,,,,,572859686,43.6524437,-79.3785610,International News,,,,,,,POINT (-79.378561 43.6524437)
,,,,,,575209679,43.6508881,-79.3890261,St. Patrick's Mini Market,,,,,,,POINT (-79.3890261 43.6508881)
,Toronto,,,,250,575209694,43.6547501,-79.3893900,International News,,,,Dundas Street West,,,POINT (-79.38939000000001 43.6547501)
,Toronto,,,,3,575245006,43.6639321,-79.4183902,Christie Convenience,,,,Christie Street,,,POINT (-79.4183902 43.6639321)
,,,,,,577450041,43.6687180,-79.3870619,,,,,,,,POINT (-79.38706190000001 43.668718)
,,,,,,579234676,43.6618049,-79.3789127,Peng's Convenience,,,,,,,POINT (-79.3789127 43.6618049)
,Toronto,,,,533,579254437,43.6604689,-79.4143650,OJJJ's Variety,,,,Harbord Street,,,POINT (-79.414365 43.6604689)
,,,,,,579258893,43.6684676,-79.3749655,Sherbourne Variety & Gift,,,,,,,POINT (-79.3749655 43.6684676)
,,,,,,588179800,43.6710160,-79.3822552,International News,,,,,,,POINT (-79.3822552 43.671016)
,Toronto,,,,1733,588647080,43.6546108,-79.4597546,October Convenience,,,,Bloor Street West,,,POINT (-79.4597546 43.6546108)
,Toronto,,,,659,591115494,43.6774888,-79.3441087,P & L Variety Inc.,,,,Pape Avenue,,,POINT (-79.34410870000001 43.6774888)
,,,,,,595495869,43.6612700,-79.3834356,Gateway Newsstands,,,,,,,POINT (-79.3834356 43.66127)
,,,,,,595495870,43.6610401,-79.3834322,,,,,,,,POINT (-79.3834322 43.6610401)
,Toronto,,,24/7,24,595986645,43.6647820,-79.3857760,Rabba,+1-416-922-4451,,,Wellesley Street West,,,POINT (-79.38577600000001 43.664782)
,,,,,,607996705,43.7733010,-79.4034223,Parkview Convenience,,,,,,,POINT (-79.4034223 43.773301)
,,,,,,621944519,43.6436651,-79.3882748,Nicholby's,,,,,,,POINT (-79.3882748 43.6436651)
,,,,,,709877842,43.6493341,-79.3870306,JC's,,,,,,,POINT (-79.3870306 43.6493341)
,,,,,,709877872,43.6565044,-79.4660791,,,,,,,,POINT (-79.4660791 43.6565044)
,,,,,,712595026,43.7895252,-79.3028726,Daisy Mart,,,,,,,POINT (-79.3028726 43.7895252)
,Scarborough,,,,2365,712613211,43.7852759,-79.3099830,Warden Mart Dollar & Smoke Shop,,,,Warden Avenue,,,POINT (-79.309983 43.7852759)
,,,,,,727853015,43.6438359,-79.3803820,International News,,,,,,yes,POINT (-79.380382 43.6438359)
,,,,,,747580050,43.7018047,-79.3872986,Kitchen Food Fair,,,,,,,POINT (-79.38729859999999 43.7018047)
,,,,,,759954188,43.6725276,-79.3881781,Big Bee Convenience & Food Mart,,,,,,,POINT (-79.3881781 43.6725276)
,,,,,,761870856,43.7082555,-79.3927767,Hasty Market,,,,,http://www.hastymarketcorp.com/,yes,POINT (-79.3927767 43.7082555)
Hasty Market,,,,,,767577535,43.6398011,-79.3831862,Hasty Market,,,,,http://www.hastymarketcorp.com/,,POINT (-79.3831862 43.6398011)
,Toronto,,,Su 09:00-23:00; Mo-Th 08:30-23:00; Fr 08:30-24:00; Sa 09:00-24:00,736,769480507,43.6593948,-79.3854842,Joy Convenience,,,,Bay Street,,,POINT (-79.38548419999999 43.6593948)
,Toronto,,,,800,769480519,43.6613158,-79.3862985,INS Market,,,,Bay Street,,,POINT (-79.3862985 43.6613158)
,,,,,,775421160,43.6461274,-79.3836841,Gen Convenience,,,,,,,POINT (-79.3836841 43.6461274)
,,,,,,777335096,43.6979288,-79.3972776,Gateway Newsstands,,,,,,yes,POINT (-79.3972776 43.6979288)
,,,,,,777338608,43.6682389,-79.3998164,Gateway Newstands,,,,,,yes,POINT (-79.39981640000001 43.6682389)
,,,,,,799925654,43.7495057,-79.2773821,Daisy Mart,,,,,,,POINT (-79.2773821 43.7495057)
,,,,,,837125168,43.6609698,-79.3763952,KC's Convenience,,,,,,,POINT (-79.3763952 43.6609698)
,,,,,,846245139,43.7697563,-79.3729168,Peking man restaurant,,,,,,,POINT (-79.3729168 43.7697563)
,Toronto,,,,111,849193763,43.6659838,-79.3786569,Corner Kitchen,,,,Wellesley Street East,,,POINT (-79.3786569 43.6659838)
,Toronto,,,,2044,859635110,43.6855419,-79.3139971,Better Bulk,+1-416-690-8868,,,Danforth Avenue,,,POINT (-79.31399709999999 43.6855419)
,Toronto,,,,609,860789055,43.6786396,-79.2985689,Beach Food Mart,,,,Kingston Road,,,POINT (-79.29856890000001 43.6786396)
,,,,,,863515895,43.6592084,-79.3912733,Gateway Newsstands,,,,,,,POINT (-79.39127329999999 43.6592084)
,,,,,,869737619,43.7918381,-79.3129600,Warden Smoke & Gift,,,,,,,POINT (-79.31296 43.7918381)
,,,,,,869737631,43.7915007,-79.3126971,Daisy Mart,,,,,,,POINT (-79.31269709999999 43.7915007)
,,,,,,869746053,43.7438683,-79.4055928,Select,,,,,,,POINT (-79.40559279999999 43.7438683)
Circle K,Etobicoke,,,,280,889504819,43.6808063,-79.5093023,Circle K,,,,Scarlett Road,,,POINT (-79.5093023 43.6808063)
,,,,,,902313986,43.6413660,-79.4145381,INS Market,,,,,,,POINT (-79.4145381 43.641366)
,,,,,,903704604,43.6439421,-79.4088603,Three Star Food & Grocery,,,,,,,POINT (-79.4088603 43.6439421)
,,,,,1666,903717793,43.6393164,-79.4437382,Queen Mini Mart,,,,Queen Street West,,,POINT (-79.4437382 43.6393164)
,Toronto,,,24/7,2914,956229072,43.7220838,-79.4018100,Food Plus Market,,,,Yonge Street,,,POINT (-79.40181 43.7220838)
,,,,,,960085364,43.6712184,-79.3278685,Daisy Mart,,,,,,,POINT (-79.32786849999999 43.6712184)
,,,,,,960085555,43.6691106,-79.3367399,,,,,,,,POINT (-79.3367399 43.6691106)
,,,,,,964114023,43.7328984,-79.2686892,Scarborough Variety,,,,,,,POINT (-79.2686892 43.7328984)
,,,,,,964114049,43.7324379,-79.2696040,Sujaan Convenience,,,,,,,POINT (-79.269604 43.7324379)
,,,,,,970955653,43.7278335,-79.2658067,Bros Convenience & Video,,,,,,,POINT (-79.2658067 43.7278335)
,Toronto,,,,1316 1/2,992146083,43.6382110,-79.4316606,Okay Convenience,,,,King Street West,,,POINT (-79.4316606 43.638211)
,,,,,,992355141,43.7042510,-79.3882860,New Manor Convenience,,,,,,,POINT (-79.38828599999999 43.704251)
,,,,,,992379650,43.6683731,-79.3891072,International News,,,,,,,POINT (-79.3891072 43.6683731)
,,,,,,1023038809,43.7312465,-79.2698754,Eglinton Smoke Shop,,,,,,,POINT (-79.2698754 43.7312465)
,,,,24/7,,1102834055,43.6571266,-79.4029015,Sam's Food Stores,,,,,,,POINT (-79.4029015 43.6571266)
,,,,,,1109951762,43.7026232,-79.3976674,MAA Variety,+1-416-487-5717,,,,,,POINT (-79.3976674 43.7026232)
,,,,,,1111959398,43.7731417,-79.5051948,P.O.D.,,,,,,,POINT (-79.5051948 43.7731417)
,,,,,,1123746281,43.6795383,-79.3902395,Select,,,,,,,POINT (-79.39023950000001 43.6795383)
,,,,,,1125223655,43.7684951,-79.4148730,City Centre Convenience,,,,,,,POINT (-79.414873 43.7684951)
,,,,,,1125522322,43.7685637,-79.4135020,La Memoire,,,,,,,POINT (-79.41350199999999 43.7685637)
,,,,,,1125621583,43.7644570,-79.4120690,Kitchen Food Fair,,,,,,,POINT (-79.412069 43.764457)
,,,,,,1126750756,43.6706578,-79.3859767,International News,,,,,,,POINT (-79.3859767 43.6706578)
,Toronto,,,,1255,1128460859,43.6711520,-79.3898449,Bay Convenience,,,,Bay Street,,,POINT (-79.3898449 43.671152)
,,,,,,1128880185,43.6689399,-79.3860704,Super Smoke,,,,,,,POINT (-79.38607039999999 43.6689399)
,,,,,,1131481061,43.7738540,-79.5024530,Gateway Cigar Stores,,,,,,,POINT (-79.502453 43.773854)
,,,,,,1132632615,43.6467903,-79.3874879,Gateway Newsstands,,,,,,,POINT (-79.3874879 43.6467903)
,,,,,,1133004639,43.6475780,-79.3846750,Gateway Newstands Public Mobile,,,,,,,POINT (-79.384675 43.647578)
,,,,,,1134620715,43.6741090,-79.3879940,Fine Variety,,,,,,,POINT (-79.38799400000001 43.674109)
,,,,,,1136653727,43.6823097,-79.3999078,Quick Run Convenience,,,,,,,POINT (-79.39990779999999 43.6823097)
,,,,,,1138232197,43.6575810,-79.4002600,Smoke & Variety,,,,,,yes,POINT (-79.40026 43.657581)
7-Eleven,Toronto,,,,1,1138265899,43.6612168,-79.3828093,7-Eleven,,,,Carlton Street,https://www.7-eleven.com/,no,POINT (-79.38280930000001 43.6612168)
,Toronto,,,,,1141382061,43.6447280,-79.3871570,International News,,,,,,,POINT (-79.387157 43.644728)
,,,,,,1141397301,43.6483230,-79.3830930,International News,,,,,,,POINT (-79.383093 43.648323)
,,,,,,1145611137,43.6704691,-79.3896094,Gateway Newsstands,,,,,,,POINT (-79.3896094 43.6704691)
,,,,,,1152251410,43.6751990,-79.4031610,Gaby's Groceries,,,,,,,POINT (-79.403161 43.675199)
,,,,,,1154014087,43.6658716,-79.4035430,Mosaic Variety,,,,,,,POINT (-79.403543 43.6658716)
,Toronto,,,,421,1157113979,43.6600921,-79.3822809,Convenience Milk,,,,Yonge Street,,,POINT (-79.3822809 43.6600921)
Hasty Market,,,,,,1157116205,43.6671970,-79.3813540,Hasty Market,,,,,http://www.hastymarketcorp.com/,,POINT (-79.381354 43.667197)
,,,,,,1191943559,43.6459059,-79.3805762,,,,,,,,POINT (-79.38057619999999 43.6459059)
,,,,,886,1193714298,43.6479679,-79.4007722,Brothers Convenience,,,,Queen Street West,,yes,POINT (-79.40077220000001 43.6479679)
,Toronto,,,Mo-Sa 07:00-24:00; Su 09:00-24:00,1240,1197877794,43.6702632,-79.3907475,Bellair Coffee Plus Convenience,,,,Bay Street,,,POINT (-79.3907475 43.6702632)
,North York,,,,5545,1208787297,43.7786030,-79.4149380,H Mart,,M2N 7L3,,Yonge Street,,,POINT (-79.41493800000001 43.778603)
Hasty Market,,,,,,1213562699,43.6656530,-79.3870730,Hasty Market,,,,,http://www.hastymarketcorp.com/,,POINT (-79.387073 43.665653)
,,,,,,1226880406,43.6481734,-79.3964415,INS Market,,,,,,,POINT (-79.39644149999999 43.6481734)
,Toronto,,,,11,1228454412,43.6871218,-79.3928846,Circle K,+1-416-925-7928,M4T 1K2,,Pleasant Boulevard,http://www.macs.ca/,,POINT (-79.3928846 43.6871218)
,,,,,,1231805691,43.6852350,-79.4129020,Tuck Shop,,,,,,,POINT (-79.412902 43.685235)
,,,,,,1244924659,43.7737278,-79.4921290,Hasty Market,,,,,http://www.hastymarketcorp.com/,,POINT (-79.49212900000001 43.7737278)
,Toronto,,,24/7,1269,1245048192,43.6510787,-79.4394230,S Market,,M6H 1C5,,College Street,,,POINT (-79.43942300000001 43.6510787)
,,,,,,1250411699,43.6605685,-79.3847348,,,,,,,yes,POINT (-79.3847348 43.6605685)
,,,,,,1267343683,43.6499934,-79.3785299,International News,,,,,,,POINT (-79.3785299 43.6499934)
,,,,,,1268638981,43.7068220,-79.3754020,Bayview Jug Milk,,,,,,,POINT (-79.37540199999999 43.706822)
,,,,,,1268649858,43.7037810,-79.3742220,M Variety,,,,,,,POINT (-79.374222 43.703781)
,,,,,,1268672124,43.6969571,-79.3715466,Hasty Market,,,,,http://www.hastymarketcorp.com/,,POINT (-79.3715466 43.6969571)
,,,,,,1272837800,43.6404321,-79.3920708,Tuck Shop,,,,,,,POINT (-79.3920708 43.6404321)
,,,,,,1277713816,43.6379746,-79.3912614,Lakeview Convenience,,,,,,,POINT (-79.3912614 43.6379746)
,,,,,,1279780017,43.6375564,-79.3937647,Hasty Market,,,,,http://www.hastymarketcorp.com/,,POINT (-79.39376470000001 43.6375564)
,,,,,,1279784097,43.6375500,-79.3976720,T.O. Tuck Shop,,,,,,,POINT (-79.397672 43.63755)
,,,,"Mo-Th 07:30-23:00, Fr 07:30-24:00, Sa 08:30-24:00, Su 08:30-23:00",,1279837274,43.6392858,-79.4144044,Liberty Convenience,,,,,,,POINT (-79.4144044 43.6392858)
,,,,,,1279882286,43.6490130,-79.3772550,King Grocery,,,,,,,POINT (-79.37725500000001 43.649013)
,,,,,,1279885491,43.6479710,-79.3775820,International News,,,,,,yes,POINT (-79.377582 43.647971)
,,,,,,1286668098,43.6829742,-79.4199482,Manila Food,,,,,,,POINT (-79.41994819999999 43.6829742)
,Toronto,,,,1086,1288900446,43.6778120,-79.3902120,Roxboro Smoke & Treat,,,,Yonge Street,,,POINT (-79.39021200000001 43.677812)
,,,,Mo-Su,,1291264938,43.7086338,-79.3651653,Leaside Mart,,,,,,,POINT (-79.3651653 43.7086338)
,,,,,,1291989063,43.6658812,-79.3805999,Wellesley Convenience,,,,,,yes,POINT (-79.38059990000001 43.6658812)
,,,,,,1293366612,43.6473333,-79.3868768,Gateway Newsstands,,,,,,,POINT (-79.3868768 43.6473333)
,,,,,,1298022884,43.6666987,-79.3155276,Mini Queen Variety,,,,,,,POINT (-79.3155276 43.6666987)
,Toronto,,,,1612,1298025333,43.6664150,-79.3167726,Park Discount,,,,Queen Street East,,,POINT (-79.31677259999999 43.666415)
,,,,,,1301135676,43.7082690,-79.3931750,Redpath Convenience,,,,,,,POINT (-79.393175 43.708269)
,,,,,,1309537725,43.7152600,-79.4004470,Yonge Gifts & Variety,,,,,,,POINT (-79.400447 43.71526)
,,,,,,1320569673,43.6508094,-79.3774117,,,,,,,yes,POINT (-79.3774117 43.6508094)
,,,,,,1324331588,43.8077940,-79.3568790,Daisy Mart,,,,,,,POINT (-79.35687900000001 43.807794)
,,,,,,1348495236,43.6710448,-79.3839087,Gateway Newstands / Dry Cleaners,,,,,,,POINT (-79.38390870000001 43.6710448)
,Toronto,,,,1177,1375319363,43.6824780,-79.3915730,Luni Tuni Convenience,,,,Yonge Street,,,POINT (-79.39157299999999 43.682478)
,,,,,,1385226405,43.6640350,-79.3838170,Maitland Variety,,,,,,,POINT (-79.38381699999999 43.664035)
,,,,,,1387972151,43.7128226,-79.3915890,Circle K,,,,,http://www.macs.ca/,,POINT (-79.391589 43.7128226)
,,,,,,1392099707,43.7072090,-79.3967760,International News,,,,,,,POINT (-79.396776 43.707209)
,,,,,,1392102542,43.7075810,-79.3951910,The World News,,,,,,,POINT (-79.395191 43.707581)
,Toronto,,,,150,1392106107,43.7077600,-79.3942370,The Smoke Shop,,,,Eglinton Avenue East,,yes,POINT (-79.394237 43.70776)
,Toronto,,,,220,1392114270,43.7082640,-79.3916770,Pilipino & Convenience Store,,,,Eglinton Avenue East,,,POINT (-79.391677 43.708264)
,,,,,,1404099869,43.6707806,-79.4014992,,,,,,,,POINT (-79.4014992 43.6707806)
,,,,,,1409175813,43.6552390,-79.3854230,Convenience Tobacco & News,,,,,,,POINT (-79.385423 43.655239)
,,,,,,1416518880,43.7743098,-79.4423934,North View Variety,,,,,,,POINT (-79.4423934 43.7743098)
,North York,,,,515,1416644661,43.7810034,-79.4440663,On the Run,,,,Drewry Avenue,,,POINT (-79.4440663 43.7810034)
,,,,,,1416646183,43.7801350,-79.4438530,,,,,,,,POINT (-79.443853 43.780135)
,,,,,,1417644028,43.6876270,-79.4023940,Idol Convenience,,,,,,,POINT (-79.402394 43.687627)
,,,,,1021,1423451806,43.7738500,-79.2302270,Mac's,,,,Markham Road,http://www.macs.ca/,,POINT (-79.230227 43.77385)
,,,,,,1432352422,43.6607675,-79.3982610,P.O.D. Provisions on Demand,,,,,,,POINT (-79.39826100000001 43.6607675)
,,,,,,1451077313,43.7246921,-79.5506734,M&B Tropical Grocery,,,,,,,POINT (-79.55067339999999 43.7246921)
,,,,,,1459286756,43.8037580,-79.2881820,Mac's,,,,,http://www.macs.ca/,,POINT (-79.28818200000001 43.803758)
,,,,,,1459291206,43.8016740,-79.2964900,On the Run,,,,,,,POINT (-79.29649000000001 43.801674)
,,,,,,1460719998,43.7683317,-79.4720835,,,,,,,,POINT (-79.4720835 43.7683317)
,,,,,,1502160833,43.7872132,-79.1509537,Daisy Mart,,,,,,,POINT (-79.1509537 43.7872132)
,,,,,,1516012790,43.6733330,-79.3181265,Stop 55,,,,,,,POINT (-79.31812650000001 43.673333)
,,,,,,1518469147,43.6374617,-79.4705510,Sunshine Foods Convenience,,,,,,,POINT (-79.470551 43.6374617)
,Toronto,,,,2931,1518516877,43.6006361,-79.5050670,Top Variety,,,,Lake Shore Boulevard West,,,POINT (-79.505067 43.6006361)
,,,,,,1518547393,43.5972907,-79.5227928,7-Eleven,,,,,https://www.7-eleven.com/,,POINT (-79.5227928 43.5972907)
,Toronto,,,,2299,1684172576,43.6503563,-79.4792002,Max's Market,,,,Bloor Street West,https://www.maxsmarket.ca/,yes,POINT (-79.47920019999999 43.6503563)
,,,,,,1713471308,43.7152027,-79.3999187,Apple Village,,,,,,,POINT (-79.3999187 43.7152027)
,,,,,,1723202114,43.6290350,-79.5173331,7-Eleven,,,,,https://www.7-eleven.com/,,POINT (-79.5173331 43.629035)
,,,,,,1790930141,43.7065010,-79.4000970,Fuzion Convenience,,,,,,,POINT (-79.400097 43.706501)
,,,,,,1792548190,43.7085880,-79.3989800,Sun Smoke Snack & Chips,,,,,,,POINT (-79.39897999999999 43.708588)
,,,,,,1793223634,43.7113550,-79.3986670,Best Fresh Buy Market,,,,,,yes,POINT (-79.398667 43.711355)
,,,,,,1823049790,43.7098370,-79.3823520,Happy Convenience,,,,,,,POINT (-79.382352 43.709837)
,,,,,,1839394313,43.7177588,-79.4004708,WY Variety,,,,,,,POINT (-79.40047079999999 43.7177588)
,Etobicoke,,,,3805,1849979583,43.5923065,-79.5422275,Mark's Milk,,,,Lake Shore Boulevard West,,,POINT (-79.5422275 43.5923065)
,Etobicoke,,,,3216,1852079151,43.5974075,-79.5212392,Mon Lee's Variety,,,,Lake Shore Boulevard West,,,POINT (-79.5212392 43.5974075)
,Toronto,,,,301,1854911997,43.6481875,-79.4495983,Garden Milk & Variety,+1-416-531-8755,M6R 2M6,,Roncesvalles Avenue,,yes,POINT (-79.44959830000001 43.6481875)
,Toronto,,,,3063,1861622345,43.5995098,-79.5101303,Lakeshore Smoke & Variety,,,,Lake Shore Boulevard West,,,POINT (-79.5101303 43.5995098)
,Etobicoke,,,,2941,1861778739,43.6005349,-79.5055408,Village Convenience,,,,Lake Shore Boulevard West,,,POINT (-79.50554080000001 43.6005349)
,Toronto,,,,2773,1861818947,43.6018403,-79.4996168,Bake's variety,,,,Lake Shore Boulevard West,,,POINT (-79.4996168 43.6018403)
,,,,,,1870614703,43.5965083,-79.5237845,Russell Variety,,,,,,,POINT (-79.5237845 43.5965083)
,Toronto,,,,2305,1878425999,43.7077762,-79.3983618,jusil Convenience,,,,Yonge Street,,,POINT (-79.3983618 43.7077762)
,Toronto,,,,3585,1885316839,43.5941428,-79.5342309,Thomas Variety,,,,Lake Shore Boulevard West,,,POINT (-79.5342309 43.5941428)
,Etobicoke,,,,3577,1885316848,43.5941482,-79.5341397,Long Branch Village Mart,+1-416-255-0342,,,Lake Shore Boulevard West,,,POINT (-79.5341397 43.5941482)
,,,,,,1885436882,43.6024306,-79.4985263,S Market,,,,,,,POINT (-79.49852629999999 43.6024306)
,Toronto,,,,2988,1885527597,43.6004587,-79.5073816,Publik Variety,,,,Lake Shore Boulevard West,,,POINT (-79.5073816 43.6004587)
,,,,,407,1886020910,43.6200750,-79.4997685,Royal Convenience,+1-416-255-4214,,,Royal York Road,,,POINT (-79.4997685 43.620075)
,,,,,,1886021009,43.6182402,-79.4993838,Dairy Corner Milk Store,,,,,,,POINT (-79.4993838 43.6182402)
,Etobicoke,,,,215,1886021069,43.6118946,-79.4964242,Rocky Mart,,,,Royal York Road,,,POINT (-79.49642420000001 43.6118946)
,,,,,176,1886065712,43.6109904,-79.4963806,Sunny Convenience Plus,,,,Royal York Road,http://www.hastymarketcorp.com/,,POINT (-79.49638059999999 43.6109904)
,Etobicoke,,,,2491,1886065736,43.6130001,-79.4894113,Jac's Milk,,,,Lake Shore Boulevard West,,,POINT (-79.4894113 43.6130001)
,,,,,,1886072406,43.6197179,-79.4851117,Rabba,,,,,,,POINT (-79.4851117 43.6197179)
Hasty Market,,,,,,1886072410,43.6211672,-79.4831065,Hasty Market,,,,,http://www.hastymarketcorp.com/,,POINT (-79.48310650000001 43.6211672)
,,,,,,1886091183,43.6175968,-79.4874908,Lakeshore Mini Mart,,,,,,,POINT (-79.4874908 43.6175968)
,,,,,,1906061584,43.6011202,-79.5452777,Shop 'N' Milk,,,,,,,POINT (-79.5452777 43.6011202)
,,,,,,1906274259,43.6171871,-79.4878126,Total Convenience,,,,,,,POINT (-79.4878126 43.6171871)
,,,,,,1906274267,43.6155997,-79.4886211,Joe's Variety Plus,,,,,,,POINT (-79.4886211 43.6155997)
,,,,,,1911554923,43.5970849,-79.5234530,October Convenience,,,,,,,POINT (-79.523453 43.5970849)
,,,,,,1928085478,43.7559454,-79.4374054,,,,,,,,POINT (-79.4374054 43.7559454)
,,,,,,1946343376,43.7640148,-79.3986010,Daisy Mart,,,,,,,POINT (-79.398601 43.7640148)
Hasty Market,,,,,,1963419048,43.7759940,-79.3220480,Hasty Market,,,,,http://www.hastymarketcorp.com/,,POINT (-79.322048 43.775994)
,,,,,1118,1995526480,43.6230293,-79.5189510,Queensway Smoke Convenience,,,,The Queensway,,,POINT (-79.518951 43.6230293)
,,,,,,2010020501,43.7760955,-79.3179960,Wishing Well Smoke & Gift Shop,,,,,,,POINT (-79.31799599999999 43.7760955)
,,,,,,2019614380,43.6297002,-79.5037748,Greenview Market,+1-416-252-6788,,,,,,POINT (-79.5037748 43.6297002)
,,,,,,2021679959,43.6365967,-79.5206260,Rainbow Convenience,,,,,,,POINT (-79.52062599999999 43.6365967)
,,,,,,2044284143,43.6205890,-79.5028396,Evan's Convenience,,,,,,,POINT (-79.5028396 43.620589)
,Toronto,,,,990,2065409164,43.6701830,-79.4133745,Steven's Grocery,,M5R 3G6,,Bathurst Street,,,POINT (-79.4133745 43.670183)
,,,,,,2072023133,43.7285017,-79.4783802,Smoke & Gifts Variety,,,,,,,POINT (-79.4783802 43.7285017)
,,,,,,2111296670,43.6796094,-79.3449446,,,,,,,,POINT (-79.34494460000001 43.6796094)
,,,,,,2111296691,43.6822356,-79.3462474,7 days Variety Store,,,,,,,POINT (-79.3462474 43.6822356)
,,,,,,2111352850,43.6886915,-79.3486738,B.A. & M Trading Ltd.,,,,,,,POINT (-79.3486738 43.6886915)
,,,,,,2111368149,43.6901152,-79.3494095,Family Stop,,,,,,,POINT (-79.34940949999999 43.6901152)
,,,,,,2118316784,43.6496407,-79.3790111,International News,,,,,,,POINT (-79.3790111 43.6496407)
,Toronto,,,,381,2137983513,43.6989339,-79.3862780,Circle K,,,,Mount Pleasant Road,,,POINT (-79.386278 43.6989339)
,,,,Mo-Su,,2152544171,43.5918562,-79.5430713,,,,,,,,POINT (-79.54307129999999 43.5918562)
,,,,,,2153426030,43.6076214,-79.5482010,Murray's Variety,,,,,,,POINT (-79.54820100000001 43.6076214)
,,,,,,2153426047,43.5984461,-79.5440985,Lucky J Variety Store,,,,,,,POINT (-79.5440985 43.5984461)
,,,,,,2156721304,43.7744937,-79.2573897,Gateway Newsstands,,,,,,,POINT (-79.2573897 43.7744937)
,Scarborough,,,Mo-Su 07:00-22:00,4190,2156757721,43.7854811,-79.2796724,Diary Mart,,M1S 1T3,,Sheppard Avenue East,,,POINT (-79.2796724 43.7854811)
,,,,,3319,2158114878,43.5963321,-79.5246468,Rigo's Variety,,,,Lake Shore Boulevard West,,,POINT (-79.5246468 43.5963321)
,,,,,,2158114978,43.5955968,-79.5278903,One Stop Shop Variety Store,,,,,,,POINT (-79.5278903 43.5955968)
,Toronto,,,,2987,2159618491,43.6001891,-79.5070557,Dairy Mart,,,,Lake Shore Boulevard West,,,POINT (-79.5070557 43.6001891)
,,,,,,2179189397,43.6005503,-79.5177913,Tom's Milk,,,,,,,POINT (-79.5177913 43.6005503)
,Toronto,,,,1210,2286832900,43.6593525,-79.4385490,Five Star Variety,,,,Bloor Street West,,,POINT (-79.43854899999999 43.6593525)
,,,,,,2293718928,43.6625741,-79.4712317,High Park Variety,,,,,,,POINT (-79.4712317 43.6625741)
,Toronto,,rabbaitems@rabba.com,,126,2323251362,43.6491263,-79.3869930,Rabba Marché,+1-416-977-5463,,,Simcoe Street,http://www.rabba.com/,,POINT (-79.386993 43.6491263)
,Etobicoke,,,,408,2346786763,43.6947994,-79.5582953,Husky,,,,Dixon Road,,,POINT (-79.5582953 43.6947994)
,,,,,,2346786893,43.6940915,-79.5582375,Petro-Canada,,,,,,,POINT (-79.5582375 43.6940915)
Circle K,Toronto,,,,952,2353603186,43.6421748,-79.4126227,Circle K,,M6K 1E4,,King Street West,,,POINT (-79.4126227 43.6421748)
,Etobicoke,,,,2125,2359601034,43.6270051,-79.4788563,Rabba Fine Foods,,,,Lake Shore Boulevard West,,,POINT (-79.4788563 43.6270051)
,,,,,,2363378222,43.7847619,-79.1868912,INS Market,,,,,,,POINT (-79.18689120000001 43.7847619)
,,,,Mo-Su 10:00-10:00,,2384477952,43.7626936,-79.5020368,CONVENIENCE STORE,,,,,,,POINT (-79.5020368 43.7626936)
Circle K,Toronto,,,,2240,2405780606,43.6511066,-79.4770688,Circle K,,M6S 1N6,,Bloor Street West,,yes,POINT (-79.4770688 43.6511066)
,Toronto,,,,2428,2405832064,43.6496035,-79.4839380,Jabez Gift & Variety,,,,Bloor Street West,,yes,POINT (-79.48393799999999 43.6496035)
Shell Select,,,,,,2414003048,43.6372770,-79.5397513,Shell Select,,,,,,,POINT (-79.53975130000001 43.637277)
,,,,,,2422123112,43.7450335,-79.4065141,Gateway Newsstands/Public Mobile,,,,,,,POINT (-79.4065141 43.7450335)
7-Eleven,,,,,,2427130105,43.6571516,-79.3814325,7-Eleven,,,,,https://www.7-eleven.com/,,POINT (-79.3814325 43.6571516)
,,,,,,2441951110,43.6689468,-79.4853918,,,,,,,,POINT (-79.4853918 43.6689468)
,,,,,,2470436115,43.7939280,-79.3309778,,,,,,,,POINT (-79.3309778 43.793928)
,,,,,,2478427777,43.7228861,-79.3390684,Circle K,,,,,,,POINT (-79.3390684 43.7228861)
Daisy Mart,,,,,,2517760685,43.7962900,-79.4192039,Daisy Mart,,,,,,,POINT (-79.4192039 43.79629)
,,,,,,2534750300,43.6818971,-79.4710185,Home Ward,,,,,,,POINT (-79.4710185 43.6818971)
,,,,,,2534750306,43.6805820,-79.4718661,Portugal Variety,,,,,,,POINT (-79.4718661 43.680582)
,,,,,,2535397427,43.6799588,-79.4172258,Green Farms,+1-416-532-6622,,,,,,POINT (-79.4172258 43.6799588)
,,,,,,2546385044,43.6834297,-79.3241221,Double-D-Store,,,,,,,POINT (-79.3241221 43.6834297)
,,,,,,2546385045,43.6841377,-79.3208203,Mimi's Convenience Dollar Discount,,,,,,,POINT (-79.32082029999999 43.6841377)
,,,,,,2547436272,43.7671758,-79.3682863,IKEA Swedish Food Market,,,,,,,POINT (-79.36828629999999 43.7671758)
,,,,,,2547520857,43.7895369,-79.4172234,Convenient Store,,,,,,,POINT (-79.4172234 43.7895369)
,,,,,,2547520872,43.7909852,-79.4178277,PARS Food,,,,,,,POINT (-79.4178277 43.7909852)
,,,,,,2547670063,43.7914460,-79.4179457,Arzon Food Market,,,,,,,POINT (-79.4179457 43.791446)
,,,,,,2558370241,43.6497316,-79.4353649,Brockton Discount Centre,,,,,,,POINT (-79.4353649 43.6497316)
,,,,,,2558957630,43.6495898,-79.4334529,Sun Milk,,,,,,,POINT (-79.43345290000001 43.6495898)
,,,,,,2558957633,43.6495869,-79.4333624,Multiple Organics,,,,,,,POINT (-79.43336239999999 43.6495869)
,,,,closed,,2559465212,43.7577037,-79.4090341,Pet Value,,,,,,,POINT (-79.4090341 43.7577037)
,Toronto,,,,75,2562080189,43.6399418,-79.4186030,Convenience K,,,,Hanna Avenue,,,POINT (-79.418603 43.6399418)
,,,,,,2570596056,43.6811636,-79.4291602,Arlington Super Variety,,,,,,,POINT (-79.4291602 43.6811636)
,,,,,,2570609277,43.6798049,-79.4356362,Mac's,,,,,http://www.macs.ca/,,POINT (-79.4356362 43.6798049)
,,,,,,2580208958,43.6470161,-79.4236163,Nobrega's Variety and Grocery,,,,,,,POINT (-79.42361630000001 43.6470161)
,,,,,,2592006292,43.6434160,-79.3821617,New York News,,,,,,,POINT (-79.3821617 43.643416)
,,,,,,2611249746,43.7850592,-79.2779473,Choice 88,,,,,,,POINT (-79.27794729999999 43.7850592)
,,,,,,2622758470,43.7942276,-79.3295679,Mac's,,,,,http://www.macs.ca/,,POINT (-79.3295679 43.7942276)
,,,,,,2626674270,43.6614854,-79.3387856,Boston Discount Store,,,,,,,POINT (-79.33878559999999 43.6614854)
,,,,,,2684479321,43.6617013,-79.3695460,Stanley's Variety,,,,,,,POINT (-79.369546 43.6617013)
,,,,,,2694729226,43.6951776,-79.3429130,7-Eleven,,,,,https://www.7-eleven.com/,,POINT (-79.342913 43.6951776)
,,,,,,2694730111,43.6931866,-79.3422632,Donlands Convenience,,,,,,,POINT (-79.3422632 43.6931866)
,,,,,,2694734668,43.6893395,-79.3407472,Shopping Basket,,,,,,,POINT (-79.3407472 43.6893395)
,,,,,,2711781515,43.6921105,-79.4403261,Sam's Food Stores,,,,,,,POINT (-79.44032609999999 43.6921105)
,Toronto,,,,133,2721213096,43.6502826,-79.3848648,Canar Gifts,,,,Richmond Street West,,,POINT (-79.3848648 43.6502826)
,,,,,,2764633123,43.6495673,-79.3655213,Royal Foodland,,,,,,,POINT (-79.3655213 43.6495673)
,Toronto,,,,252,2765984532,43.6498420,-79.3642120,,,,,The Esplanade,,,POINT (-79.36421199999999 43.649842)
,,,,,,2777516041,43.6024004,-79.5450215,Select Food Store,,,,,,,POINT (-79.5450215 43.6024004)
,,,,,,2781432154,43.6497917,-79.4359507,Macs Cigarette Store,,,,,,,POINT (-79.43595070000001 43.6497917)
,Toronto,,,,1555,2781439872,43.6496835,-79.4338009,Kevin's Convenience,,,,Dundas Street West,,,POINT (-79.43380089999999 43.6496835)
,,,,,,2782450914,43.6654337,-79.4787979,Star Convenience,,,,,,,POINT (-79.4787979 43.6654337)
,,,,,,2783542157,43.7158274,-79.4440363,Gateway Newsstands,,,,,,,POINT (-79.44403629999999 43.7158274)
,,,,,,2783830650,43.7802046,-79.4163970,J Mart,,,,,,,POINT (-79.416397 43.7802046)
,,,,,,2792720076,43.6593127,-79.4433342,AGP Mart,,,,,,,POINT (-79.4433342 43.6593127)
,,,,,,2792969588,43.6538751,-79.3907721,Grange Lottery & News,,,,,,,POINT (-79.39077210000001 43.6538751)
,,,,,,2795566334,43.7869989,-79.2578339,Select,,,,,,,POINT (-79.25783389999999 43.7869989)
,,,,,,2796382269,43.6599817,-79.4089013,Three Star Variety,,,,,,,POINT (-79.4089013 43.6599817)
,Toronto,,,,55,2801514215,43.6872871,-79.3968873,Prime Gifts & Convenience,,,,St. Clair Avenue West,,,POINT (-79.3968873 43.6872871)
,,,,,,2808804101,43.6560554,-79.3895265,,,,,,,,POINT (-79.3895265 43.6560554)
,,,,,,2814024402,43.6782238,-79.4410508,Tony's Variety,,,,,,,POINT (-79.4410508 43.6782238)
,,,,,,2814028501,43.6790531,-79.4388483,Video Games & Variety,,,,,,,POINT (-79.4388483 43.6790531)
,,,,,,2819317442,43.6654025,-79.4734267,Dundas Variety,,,,,,,POINT (-79.4734267 43.6654025)
,,,,,,2819495356,43.6616372,-79.4907000,,,,,,,,POINT (-79.4907 43.6616372)
,,,,,,2819797457,43.6652673,-79.4621269,Henry's Variety,,,,,,,POINT (-79.4621269 43.6652673)
,,,,,,2826993501,43.6454610,-79.3777081,Gateway on the GO,,,,,,,POINT (-79.37770810000001 43.645461)
,,,,,,2833168701,43.6724579,-79.3216725,Kohinoor Foods,,,,,,,POINT (-79.32167250000001 43.6724579)
,,,,,,2842149018,43.7619397,-79.3167374,Bros. Convenience,,,,,,,POINT (-79.31673739999999 43.7619397)
,Toronto,,,,603,2846395161,43.6766648,-79.4114419,Lucky Mini Mart,,,,Davenport Road,,,POINT (-79.4114419 43.6766648)
,,,,24/7,,2848635935,43.6427386,-79.4249640,Ready GO Convenience,,,,,,,POINT (-79.424964 43.6427386)
Circle K,,,,,,2860308101,43.6299015,-79.4876248,Circle K,,,,,,,POINT (-79.48762480000001 43.6299015)
,,,,,,2864373496,43.6237241,-79.5156943,Circle K,,,,,,,POINT (-79.51569430000001 43.6237241)
,,,,Mo-Su 08:00-22:03,,2880876216,43.6153685,-79.4976849,Shop 'N Go,,,,,,,POINT (-79.4976849 43.6153685)
,,,,,,2882080923,43.6149410,-79.4981487,XTR A&A Convenience,,,,,,,POINT (-79.4981487 43.614941)
,,,,,,2883512347,43.6486120,-79.5286478,Neighbour's Fine Foods,,,,,,,POINT (-79.5286478 43.648612)
,,,,,,2883887901,43.6775879,-79.4958000,Mac's,,,,,http://www.macs.ca/,,POINT (-79.4958 43.6775879)
,,,,,,2884427975,43.7737879,-79.3407269,Forest Convenience,,,,,,,POINT (-79.34072690000001 43.7737879)
,,,,,,2887790415,43.6670985,-79.3933845,Gateway Newsstands,,,,,,,POINT (-79.3933845 43.6670985)
,,,,,,2898392608,43.6596195,-79.3662334,Bob's Convenience,,,,,,,POINT (-79.3662334 43.6596195)
,Toronto,,,Mo-Fr 07:00-18:00; Sa-Su off,1,2900120001,43.6421903,-79.3745923,INS Market,,,,Yonge Street,,,POINT (-79.3745923 43.6421903)
,,,,,,2901438753,43.6716157,-79.4930961,Wonderfood,,,,,,,POINT (-79.4930961 43.6716157)
,,,,,,2926829701,43.7321673,-79.2887721,Market Plus,,,,,,,POINT (-79.2887721 43.7321673)
,,,,,,2926909401,43.7141279,-79.3058792,Corner Shop,,,,,,,POINT (-79.30587920000001 43.7141279)
,,,,,,2928439072,43.7172819,-79.2938033,Every Day Variety,,,,,,,POINT (-79.29380329999999 43.7172819)
,,,,,,2971998020,43.6895406,-79.3414180,,,,,,,,POINT (-79.341418 43.6895406)
,Toronto,,,,140,3050752469,43.7127724,-79.3938159,Erskine Tuck Shop,,,,Erskine Avenue,,,POINT (-79.39381590000001 43.7127724)
On the Run,,,,,,3086591712,43.8042180,-79.3373264,On the Run,,,,,,,POINT (-79.33732639999999 43.804218)
,,,,,,3099829048,43.7495769,-79.5523314,Jay's Convenience,,,,,,,POINT (-79.5523314 43.7495769)
,,,,,,3099864453,43.7436221,-79.5825957,AVO Convenience,,,,,,,POINT (-79.5825957 43.7436221)
,,,,24/7,,3104852640,43.6485613,-79.3699944,Cheers Fine Foods,,,,,,yes,POINT (-79.3699944 43.6485613)
,,,,,,3157199405,43.6672805,-79.3731560,Becker's,,,,,,,POINT (-79.37315599999999 43.6672805)
,Toronto,,,,866,3231903524,43.6984661,-79.4065003,On the Run,,,,Avenue Road,,,POINT (-79.4065003 43.6984661)
,,,,,,3271181703,43.7467394,-79.2315686,,,,,,,,POINT (-79.2315686 43.7467394)
,,,,,,3306925589,43.6686557,-79.3723602,St. James Town Gift & Variety,,,,,,,POINT (-79.3723602 43.6686557)
,,,,,,3306925596,43.6709929,-79.3718939,Rose Park Tuck Shop,,,,,,,POINT (-79.3718939 43.6709929)
,,,,,,3306925620,43.6711721,-79.3752416,,,,,,,,POINT (-79.3752416 43.6711721)
,,,,,,3306925646,43.6711626,-79.3750259,Howard Convenience,,,,,,,POINT (-79.3750259 43.6711626)
,,,,,,3306925648,43.6714135,-79.3753946,RJ's Filipino Foodmart,,,,,,,POINT (-79.37539460000001 43.6714135)
,,,,,,3306925649,43.6714145,-79.3753349,Liyu Whole Food Store,,,,,,,POINT (-79.3753349 43.6714145)
,,,,,,3311069780,43.6689573,-79.3821066,Town Star Convenience,,,,,,,POINT (-79.3821066 43.6689573)
,,,,,,3329263290,43.7864522,-79.4705573,On the Run,,,,,,,POINT (-79.4705573 43.7864522)
,,,,,,3364858032,43.6677327,-79.4900762,Snack Shop,,,,,,,POINT (-79.4900762 43.6677327)
,,,,,,3388208267,43.6817661,-79.4722699,,,,,,,,POINT (-79.4722699 43.6817661)
,,,,,,3388226612,43.6823919,-79.4721074,,,,,,,,POINT (-79.4721074 43.6823919)
,,,,,,3397681080,43.6504016,-79.4402935,,,,,,,,POINT (-79.4402935 43.6504016)
,Etobicoke,,,Mo-Fr 07:30-21:00; Sa 08:30-21:00; Su 09:00-19:00,2141,3405891058,43.7196561,-79.5694736,Jug City,,M9W 4K8,,Kipling Avenue,,,POINT (-79.56947359999999 43.7196561)
,,,,,,3425624506,43.6582422,-79.3390386,Gales Snack bar,,,,,,no,POINT (-79.33903859999999 43.6582422)
,,,,,,3425955426,43.7921972,-79.1559625,Gabby's Express,,,,,,,POINT (-79.1559625 43.7921972)
Circle K,,,,,,3426172630,43.6323707,-79.5453984,Circle K,,,,,,,POINT (-79.5453984 43.6323707)
,,,,,,3427063375,43.6787706,-79.4741337,Welcome Variety & Lotto,,,,,,,POINT (-79.4741337 43.6787706)
,,,,24/7,,3427074390,43.6807898,-79.4754337,,,,,,,,POINT (-79.4754337 43.6807898)
,,,,,,3434604993,43.6701467,-79.4660836,Convenience Store,,,,,,,POINT (-79.4660836 43.6701467)
,Toronto,,,,1310,3435195517,43.6585109,-79.4425756,Hasty Market,,,,Bloor Street West,,,POINT (-79.4425756 43.6585109)
,,,,,,3460311002,43.6897920,-79.2911399,Mini Variety,,,,,,,POINT (-79.2911399 43.689792)
,,,,24/7,,3460316093,43.6907876,-79.2877977,Circle K,,,,,,,POINT (-79.2877977 43.6907876)
,,,,,,3460762684,43.6913375,-79.2891812,Bestco Convenience,,,,,,,POINT (-79.2891812 43.6913375)
,,,,,,3470511925,43.6416563,-79.3774803,INS Market,,,,,,,POINT (-79.3774803 43.6416563)
,,,,,,3473846040,43.7525137,-79.2641684,Convenience,,,,,,,POINT (-79.2641684 43.7525137)
,,,,,,3473924838,43.7513432,-79.2642861,On the Run,,,,,,,POINT (-79.26428610000001 43.7513432)
,Toronto,,,,390,3477659573,43.6384669,-79.3902507,Queen's Quay Convenience,,M5V 3A6,,Queens Quay West,,,POINT (-79.3902507 43.6384669)
,,,,,,3479310674,43.7313789,-79.5999657,West Indian Grocery,,,,,,,POINT (-79.5999657 43.7313789)
,,,,,,3479318591,43.7311589,-79.5998569,Sunrise Food Fair,,,,,,,POINT (-79.59985690000001 43.7311589)
,,,,,,3479333980,43.7310901,-79.6009226,Adepa African Grocery,,,,,,,POINT (-79.6009226 43.7310901)
Circle K,,,,,,3479333984,43.7311682,-79.6006209,Circle K,,,,,,,POINT (-79.6006209 43.7311682)
,,,,,,3484654270,43.7135320,-79.3782066,Circle K,,,,,,,POINT (-79.3782066 43.713532)
,Etobicoke,,,,266,3494914031,43.6241313,-79.4898459,My Market,,,,Manitoba Street,,,POINT (-79.48984590000001 43.6241313)
,,,,,,3507187419,43.7912068,-79.2490194,Sunstore Convenience,,,,,,,POINT (-79.24901939999999 43.7912068)
,,,,,,3519817585,43.7143409,-79.3357948,Kitchen Food Fair,,,,,,yes,POINT (-79.3357948 43.7143409)
,,,,,,3519830592,43.7141781,-79.3344506,Gerry's,,,,,,yes,POINT (-79.3344506 43.7141781)
,,,,,,3534105349,43.6671833,-79.3453727,City Food Mart,,,,,,,POINT (-79.3453727 43.6671833)
,,,,,,3554929389,43.6492365,-79.3807539,Gateway Newsstands,,,,,,,POINT (-79.3807539 43.6492365)
,,,,,,3559875675,43.6562301,-79.3842169,Gateway Newsstands,,,,,,,POINT (-79.3842169 43.6562301)
,,,,,,3562198325,43.7351578,-79.3556554,On the Run,,,,,,,POINT (-79.3556554 43.7351578)
7-Eleven,,,,,,3579550486,43.7204181,-79.5137148,7-Eleven,,,,,https://www.7-eleven.com/,,POINT (-79.5137148 43.7204181)
,Toronto,,,,581,3587014127,43.6443951,-79.3996511,John's Mart,,M5V 1M1,,King Street West,,,POINT (-79.3996511 43.6443951)
,,,,,,3587014144,43.6499538,-79.3835371,INS Market,,,,,,,POINT (-79.3835371 43.6499538)
,,,,,,3592445923,43.7025848,-79.4401618,Mini-Mart,,,,,,,POINT (-79.4401618 43.7025848)
,,,,,,3601217652,43.8013621,-79.2003717,BK Variety,,,,,,,POINT (-79.20037170000001 43.8013621)
,,,,,,3648172017,43.7212870,-79.2365323,Variety,,,,,,,POINT (-79.23653229999999 43.721287)
,,,,,,3648181230,43.7259745,-79.2305148,Super Smoke & Gifts,,,,,,,POINT (-79.23051479999999 43.7259745)
,,,,,,3648186525,43.7272047,-79.2295731,Lucky Lotto Variety,,,,,,,POINT (-79.2295731 43.7272047)
,,,,,,3654927823,43.6095419,-79.5472450,Today's News Convenience,,,,,,,POINT (-79.547245 43.6095419)
,Toronto,,,,82,3670530409,43.6260832,-79.4772995,Variety Plus,,,,Marine Parade Drive,,,POINT (-79.4772995 43.6260832)
,,,,"Mo-Fr 07:00-22:00; Sa,Su 08:00-22:00",,3672015339,43.6298923,-79.4757451,Grenadier Convenience,,,,,,,POINT (-79.4757451 43.6298923)
,Toronto,,,,129,3676543711,43.6498490,-79.3698115,Market Place,,M5A 1E3,,Front Street East,,yes,POINT (-79.3698115 43.649849)
,,,,,,3733314766,43.6014490,-79.5013801,Dandy Convenience Store,+1-416-252-1773,,,,,,POINT (-79.50138010000001 43.601449)
,,,,,,3739744771,43.7695963,-79.2619580,,,,,,,,POINT (-79.26195800000001 43.7695963)
Shell Select,,,,,,3739748348,43.7770786,-79.2311353,Shell Select,,,,,,,POINT (-79.23113530000001 43.7770786)
Circle K,Scarborough,,,,1480,3739757327,43.7652259,-79.2814601,Circle K,,,,Kennedy Road,,,POINT (-79.2814601 43.7652259)
,,,,,,3755181742,43.6094701,-79.5490693,Sandown Market West,+1-416-259-8260,,,,,,POINT (-79.5490693 43.6094701)
,,,,,,3755247628,43.7392598,-79.2177402,M&M Convenience,,,,,,,POINT (-79.21774019999999 43.7392598)
,,,,,,3756247700,43.6966267,-79.2863559,,,,,,,,POINT (-79.2863559 43.6966267)
,,,,,,3763305787,43.7902942,-79.1957429,,,,,,,,POINT (-79.1957429 43.7902942)
,,,,,,3763471923,43.6890787,-79.2971771,,,,,,,,POINT (-79.2971771 43.6890787)
,,,,,,3789791479,43.6543140,-79.3374886,Circle K,,,,,,,POINT (-79.3374886 43.654314)
,,,,,,3789800645,43.7033759,-79.3632916,Circle K,,,,,,,POINT (-79.3632916 43.7033759)
,,,,,,3790322006,43.6698338,-79.3438462,Don's Convenience,,,,,,,POINT (-79.3438462 43.6698338)
,,,,,,3810607331,43.7715049,-79.2518711,On the Run,,,,,,,POINT (-79.2518711 43.7715049)
,,,,,,3816467134,43.7808322,-79.2473457,Green Spot Convenience,,,,,,,POINT (-79.2473457 43.7808322)
,,,,,,3818090773,43.6121339,-79.5417095,Belgian Grocery & Variety Store,,,,,,,POINT (-79.5417095 43.6121339)
,,,,,,3836778407,43.6681856,-79.5003241,,,,,,,,POINT (-79.5003241 43.6681856)
,,,,,,3836782457,43.6900614,-79.5761887,Select,,,,,,,POINT (-79.5761887 43.6900614)
,,,,,,3889812952,43.7354996,-79.5607896,Snack Shop,,,,,,,POINT (-79.56078960000001 43.7354996)
,,,,,,3891060516,43.7632210,-79.3183030,Super Stop,,,,,,,POINT (-79.318303 43.763221)
,,,,,,3895254563,43.6040590,-79.5360835,Delta Variety,,,,,,,POINT (-79.5360835 43.604059)
,,,,,,3896019586,43.7424855,-79.5948996,,,,,,,,POINT (-79.59489960000001 43.7424855)
,,,,,,3909486320,43.6604942,-79.5824774,Dollar Mahal plus Convenience,,,,,,,POINT (-79.5824774 43.6604942)
,,,,,,3909486330,43.6503711,-79.5801401,Renforth Smoke & Gift Shop,,,,,,,POINT (-79.58014009999999 43.6503711)
,,,,,,3917225120,43.7550271,-79.3516553,Variety Plus,,,,,,,POINT (-79.3516553 43.7550271)
,Toronto,,,,14A,3928028047,43.6432215,-79.3769647,HarbourView Convenience,,,,Harbour Street,,no,POINT (-79.3769647 43.6432215)
,,,,,,3930426866,43.7208023,-79.6132327,Hasty Market,,,,,,,POINT (-79.6132327 43.7208023)
Hasty Market,,,,,,3931418546,43.6417170,-79.5762015,Hasty Market,,,,,,,POINT (-79.5762015 43.641717)
,,,,,,3931422157,43.6414709,-79.5765800,e Convenience,,,,,,,POINT (-79.57658000000001 43.6414709)
,,,,,,3932381830,43.7206704,-79.5369265,Becker's,,,,,,,POINT (-79.53692650000001 43.7206704)
,,,,,,3949994211,43.6493470,-79.5488480,M&C Lucky Convenience,,,,,,,POINT (-79.54884800000001 43.649347)
,,,,,,3977952148,43.6485137,-79.6050783,A&D Convenience,,,,,,,POINT (-79.6050783 43.6485137)
,,,,,,3979920219,43.7660917,-79.3887987,On the Run,,,,,,,POINT (-79.3887987 43.7660917)
,,,,,,4013200606,43.7842880,-79.4467775,Delikatesy,,,,,,,POINT (-79.4467775 43.784288)
,Toronto,,,,566,4015549354,43.6673898,-79.3694062,Kalaimakal Convenience,,M4X 1P8,,Parliament Street,,no,POINT (-79.3694062 43.6673898)
,,,,,,4030020003,43.6446778,-79.5679891,West Mall Variety,,,,,,,POINT (-79.56798910000001 43.6446778)
,,,,,,4060797969,43.7783519,-79.3070657,Select,,,,,,,POINT (-79.3070657 43.7783519)
,,,,,,4060812075,43.7935831,-79.2381479,On the Run,,,,,,,POINT (-79.2381479 43.7935831)
,Toronto,,,,2300,4077386950,43.7068920,-79.3992228,Yonge-Eglinton Centre Postal Service and Variety,,,,Yonge Street,,yes,POINT (-79.3992228 43.706892)
,,,,,,4095621566,43.6473174,-79.3773207,Gateway Newstands,,,,,,yes,POINT (-79.3773207 43.6473174)
,,,,,,4111913315,43.7939378,-79.2400545,,,,,,,,POINT (-79.2400545 43.7939378)
Circle K,,,,,,4157587631,43.6360430,-79.3995000,Circle K,,,,,,yes,POINT (-79.3995 43.636043)
,,,,,,4177416983,43.7576545,-79.5188632,Circle K,,,,,,,POINT (-79.5188632 43.7576545)
,,,,,,4179854241,43.6233208,-79.4804926,Circle K,,,,,,,POINT (-79.48049260000001 43.6233208)
,,,,,,4192156786,43.6489147,-79.4048187,Carlton Convenience - Variety & Gifts,,,,,,,POINT (-79.40481870000001 43.6489147)
,,,,,,4196284820,43.7941339,-79.3312181,Select,,,,,,,POINT (-79.3312181 43.7941339)
,,,,,,4199001340,43.8060414,-79.2781550,Select,,,,,,,POINT (-79.278155 43.8060414)
,,,,,,4213952165,43.7177717,-79.2937801,,,,,,,,POINT (-79.29378010000001 43.7177717)
,,,,,,4214004249,43.7436695,-79.3043527,,,,,,,,POINT (-79.3043527 43.7436695)
,,,,,,4245225975,43.7099696,-79.5059902,Pelmo Mini Mart,,,,,,,POINT (-79.5059902 43.7099696)
,,,,,,4245233286,43.7076911,-79.5054665,George's Food Store,,,,,,,POINT (-79.5054665 43.7076911)
,,,,,,4245235158,43.7031360,-79.5040343,Lucky Smoke Gift Convenience,,,,,,,POINT (-79.5040343 43.703136)
,,,,,,4245247491,43.7012485,-79.5036770,Homeland West Indian Supermarket,,,,,,,POINT (-79.503677 43.7012485)
,,,,,,4253543841,43.6526374,-79.3629761,C Stores,,,,,,,POINT (-79.3629761 43.6526374)
,,,,,,4263822316,43.8277858,-79.2876880,,,,,,,,POINT (-79.287688 43.8277858)
,Toronto,,,,201,4315311829,43.6507787,-79.3698622,New Campus Variety,,M5A 1J5,,King Street East,,,POINT (-79.3698622 43.6507787)
,,,,,,4317376004,43.6398746,-79.4396529,Parkdale Milk and Variety,,,,,,,POINT (-79.4396529 43.6398746)
,,,,,,4320386624,43.6696698,-79.4927044,U-Save,,,,,,,POINT (-79.49270439999999 43.6696698)
,,,,,,4320388556,43.6705233,-79.4935142,Diaper & Gift Outlet,,,,,,,POINT (-79.49351420000001 43.6705233)
,,,,,,4320400408,43.6738495,-79.4948794,,,,,,,,POINT (-79.4948794 43.6738495)
On the Run,,,,,,4328179818,43.7558088,-79.3600762,On the Run,,,,,,,POINT (-79.36007619999999 43.7558088)
,,,,,,4328466818,43.7536106,-79.3593919,Super Stop Convenience,,,,,,,POINT (-79.35939190000001 43.7536106)
,,,,,,4331320337,43.6794554,-79.3902245,,,,,,,,POINT (-79.3902245 43.6794554)
,,,,,,4346730876,43.6690745,-79.4837478,Rocky Convenience,,,,,,,POINT (-79.4837478 43.6690745)
,,,,,,4368798490,43.6384464,-79.4007228,Am2Pm Express Market,,,,,,,POINT (-79.4007228 43.6384464)
,,,,,,4373039260,43.6729899,-79.2865637,Beach Place Variety,,,,,,,POINT (-79.2865637 43.6729899)
,,,,,,4382560315,43.6670197,-79.3448148,Arsema's Variety,,,,,,,POINT (-79.34481479999999 43.6670197)
,Etobicoke,,,,2140,4395552219,43.7190217,-79.5706839,Daisy Mart,,M9W 4K5,,Kipling Avenue,,,POINT (-79.57068390000001 43.7190217)
,,,,,,4405581396,43.6998846,-79.4315340,Uptown Variety,,,,,,,POINT (-79.431534 43.6998846)
,,,,,,4414106721,43.7008761,-79.5108922,,,,,,,,POINT (-79.5108922 43.7008761)
,,,,,,4414956898,43.7004826,-79.5168223,Tom's Variety,,,,,,,POINT (-79.5168223 43.7004826)
,,,,,972,4425991583,43.6680340,-79.4283359,Foto Grocery,+1-416-537-1664,,,Ossington Avenue,,,POINT (-79.42833589999999 43.668034)
,,,,,,4430831002,43.6390808,-79.3983075,Quik Shop,,,,,,,POINT (-79.3983075 43.6390808)
,,,,,,4431106091,43.6907291,-79.5766324,Dixon Convenience,,,,Dixon Road,,,POINT (-79.57663239999999 43.6907291)
,Toronto,,,,1431,4435701086,43.6403730,-79.4370233,Queen Supermarket,+1-416-534-0077,M6K 1M3,,Queen Street West,https://www.queensupermarket.net/,,POINT (-79.43702330000001 43.640373)
,,,,,,4475029982,43.6854335,-79.4378399,Peter's Variety,,,,,,,POINT (-79.4378399 43.6854335)
,,,,,,4477084884,43.6889329,-79.4321692,Fair Mart,,,,,,,POINT (-79.4321692 43.6889329)
,,,,,11721,4484927302,43.8007284,-79.1504807,sunshine variety,+1-416-287-1549,,,Sheppard Avenue East,,,POINT (-79.1504807 43.8007284)
,,,,,778,4493421923,43.6585373,-79.4875183,Canary & Fox Micro Market,,,,Annette Street,https://canaryandfox.com/,,POINT (-79.4875183 43.6585373)
,,,,,786,4493421926,43.6584522,-79.4878971,Wally's Smoke,,,,Annette Street,,,POINT (-79.4878971 43.6584522)
,,,,,,4494582189,43.6648085,-79.4455319,K. Mini Market,,,,,,,POINT (-79.44553190000001 43.6648085)
,Toronto,,,,1840,4496915298,43.6541238,-79.4635427,Rabba,,,,Bloor Street West,,yes,POINT (-79.4635427 43.6541238)
,,,,,2231,4504457658,43.7242900,-79.5090055,Seui Thi Super Market Chi Thanh,,,,Jane Street,,,POINT (-79.5090055 43.72429)
,,,,,,4520934876,43.6929987,-79.5571429,Westway Smoke & Convenience,,,,,,,POINT (-79.5571429 43.6929987)
,,,,,,4534083999,43.7210301,-79.5370738,Weston Convenience,,,,,,,POINT (-79.5370738 43.7210301)
,,,,,,4554705833,43.6667821,-79.5788351,6-12 Variety Store,,,,,,,POINT (-79.57883510000001 43.6667821)
,,,,,,4554824381,43.6531515,-79.5733255,Convenience Market,,,,,,,POINT (-79.5733255 43.6531515)
,,,,,,4582740589,43.7779801,-79.4547442,'Convenience Store',,,,,,,POINT (-79.45474419999999 43.7779801)
,,,,Mo-Su,,4621075577,43.6560718,-79.3939620,Baldwin Convenience,,,,,,,POINT (-79.393962 43.6560718)
,Toronto,,,Mo-Sa 09:00-19:00; Su 10:00-19:00,2650,4630113391,43.7054617,-79.3133278,Grocery & Bargain,,M4B 3M1,,St Clair Avenue East,,,POINT (-79.3133278 43.7054617)
,,,,,,4692270358,43.7835176,-79.2986720,Daisy Mart,,,,,,,POINT (-79.298672 43.7835176)
,Toronto,,,,927,4818159685,43.6614784,-79.4272786,Double Double Convenience,,,,Bloor Street West,,,POINT (-79.42727859999999 43.6614784)
,Toronto,,,,919,4922343568,43.6507918,-79.4128988,Discount Mart,+1-416-603-8959,,,Dundas Street West,,limited,POINT (-79.41289879999999 43.6507918)
,Toronto,,,"Mo-Fr 07:00-19:00, Sa 07:00-18:00, Su 07:00-14:00",878,4922343574,43.6513065,-79.4114752,Dundas Street Supermarket,,,,Dundas Street West,,,POINT (-79.4114752 43.6513065)
,,,,,,4932801710,43.6746475,-79.4572137,Dollar & Variety Store,,,,,,,POINT (-79.4572137 43.6746475)
,,,,,,5016394369,43.6826511,-79.4645713,,,,,,,,POINT (-79.4645713 43.6826511)
,,,,,,5016400116,43.6819645,-79.4667077,Mini-Mart,,,,,,,POINT (-79.4667077 43.6819645)
,,,,,,5016401643,43.6825076,-79.4642186,Milk Mart,,,,,,,POINT (-79.4642186 43.6825076)
,Toronto,,,,1264,5022507104,43.6588893,-79.4409618,TL Discount Store,,,,Bloor Street West,,,POINT (-79.4409618 43.6588893)
,,,,,,5029773358,43.7190962,-79.4292842,Circle K,,,,,,,POINT (-79.4292842 43.7190962)
,,,,,3884,5037132798,43.6406037,-79.5420743,Diary Jug Conenience Store,,,,Bloor Street West,,,POINT (-79.5420743 43.6406037)
,,,,,3830,5045251812,43.6415006,-79.5381129,Maple Convenience,,,,Bloor Street West,,,POINT (-79.5381129 43.6415006)
,East York,,,,561,5052405529,43.6976524,-79.3291721,Circle K,+1-416-421-9333,M4C 2Z7,,O'Connor Drive,,,POINT (-79.32917209999999 43.6976524)
,,,,,,5110834812,43.6596811,-79.3662450,Anggona,,,,,,,POINT (-79.36624500000001 43.6596811)
,,,,,,5110834814,43.6598033,-79.3662933,Marhaba Super Market Inc. 2,,,,,,,POINT (-79.3662933 43.6598033)
,,,,,,5110834817,43.6599470,-79.3663541,Alisha Video & Gifts,,,,,,,POINT (-79.3663541 43.659947)
,Toronto,,,,330 1/2,5110834818,43.6599899,-79.3663762,Surma Super Market,+1-416-925-2784,,,Parliament Street,,yes,POINT (-79.3663762 43.6599899)
,,,,,,5110835027,43.6630881,-79.3673220,Super Bargin,,,,,,,POINT (-79.367322 43.6630881)
,,,,,,5110845076,43.7802949,-79.2997522,On The Way,,,,,,,POINT (-79.2997522 43.7802949)
,,,,,,5137610886,43.6463283,-79.4436689,Wilson's Variety and Grocery,,,,,,,POINT (-79.44366890000001 43.6463283)
,Toronto,,,,1550,5150012803,43.6563147,-79.4532283,Bloor Smoke Gift Variety,,,,Bloor Street West,,,POINT (-79.45322830000001 43.6563147)
,,,,,,5158010728,43.7963228,-79.2301343,Food Mart,,,,,,,POINT (-79.2301343 43.7963228)
,,,,,,5158010732,43.7957663,-79.2310941,Food Mart,,,,,,,POINT (-79.23109410000001 43.7957663)
,,,,,,5158208476,43.7957020,-79.2261701,Lapsley Food and Conveniences,,,,,,,POINT (-79.2261701 43.795702)
,,,,,5064,5161264392,43.6457246,-79.5318847,Dairy Milk,,,,Dundas Street West,,,POINT (-79.53188470000001 43.6457246)
,,,,,,5184936116,43.6727076,-79.4680226,Healthy Planet,,,,,,,POINT (-79.4680226 43.6727076)
,Toronto,,rabbaitems@rabba.com,,361,5202545053,43.6431912,-79.3913725,,+1-416-205-9600,,,Front Street West,http://www.rabba.com/,,POINT (-79.3913725 43.6431912)
,,,,,,5220291175,43.6808476,-79.2827549,Pik-Kwik,,,,,,,POINT (-79.2827549 43.6808476)
,,,,,,5220318994,43.6875918,-79.2862246,,,,,,,,POINT (-79.2862246 43.6875918)
,,,,,,5220417827,43.6871384,-79.2869368,Loblaws Gas Bar,,,,,,,POINT (-79.28693680000001 43.6871384)
,Toronto,,,24/7,677,5225571351,43.6436755,-79.4032587,Busy Bee King Mart,,,,King Street West,,,POINT (-79.40325869999999 43.6436755)
,,,,,,5249129259,43.6726508,-79.4683214,Healthy Planet,,,,,,,POINT (-79.46832139999999 43.6726508)
,,,,,,5260039173,43.7929704,-79.3303603,,,,,,,,POINT (-79.3303603 43.7929704)
,,,,,,5266291978,43.7689530,-79.3700478,Cornerstone Market,,,,,,,POINT (-79.37004779999999 43.768953)
,,,,,,5267141830,43.7943925,-79.3535641,Convenience Flowers,,,,,,,POINT (-79.3535641 43.7943925)
,Scarborough,,,Mo-Su 10:00-22:30,5661,5290828995,43.8316386,-79.2659691,Nguyen Huong Foods Company,+1-416-292-8875,M1V 5P6,,Steeles Avenue East,,,POINT (-79.26596910000001 43.8316386)
,,,,,,5375399109,43.7370072,-79.4343737,Circle K,,,,,,,POINT (-79.43437369999999 43.7370072)
,Toronto,,,,573,5379553312,43.6654018,-79.3845990,Mix40,+1-647-748-5655,M4Y 1Z2,,Yonge Street,http://mix40.mogroupp.com,yes,POINT (-79.38459899999999 43.6654018)
,,,,,,5418880295,43.6305460,-79.4847873,T.D. Variety,,,,,,,POINT (-79.48478729999999 43.630546)
,Toronto,,,,590,5431847321,43.6553928,-79.4136193,Splish Splash,+1-416-532-6499,,,College Street,,,POINT (-79.41361929999999 43.6553928)
,Toronto,,,,1425,5437754621,43.6825410,-79.3267518,Holrds Convenience,+1-647-351-0803,,,Danforth Avenue,,yes,POINT (-79.3267518 43.682541)
,Toronto,,,,685,5473925721,43.6816298,-79.4254178,St Clair Convenience,,M6C 1A7,,St. Clair Avenue West,,yes,POINT (-79.42541780000001 43.6816298)
,,,,,,5503866477,43.6412614,-79.4340491,Super Land Market,,,,,,,POINT (-79.4340491 43.6412614)
,,,,,,5503886003,43.6406655,-79.4341987,A-1 Convenience,,,,,,,POINT (-79.4341987 43.6406655)
,,,,,,5503886005,43.6411367,-79.4346084,Best Convenience,,,,,,,POINT (-79.4346084 43.6411367)
,Toronto,,,,319,5508582721,43.6486556,-79.4497763,Roncesvalles Convenience Plus,+1-416-531-2616,M6R 2M6,,Roncesvalles Avenue,,yes,POINT (-79.4497763 43.6486556)
,,,,,,5549137660,43.6458082,-79.3761508,Gateway Newstands,,,,,,,POINT (-79.3761508 43.6458082)
,Toronto,,,Mo-Su 08:00-23:30,9,5559913025,43.7797541,-79.4147737,Family Convenience,,M2N 7K4,,Finch Avenue East,,,POINT (-79.4147737 43.7797541)
,,,,,,5581608385,43.7802217,-79.4107465,,,,,,,,POINT (-79.4107465 43.7802217)
,,,,,,5642628626,43.6955284,-79.4503647,Pat's Gift & Variety,,,,,,,POINT (-79.45036469999999 43.6955284)
,,,,,,5642653387,43.6921134,-79.4673913,C-Mart,,,,,,,POINT (-79.4673913 43.6921134)
,,,,,,5646571590,43.6813847,-79.3316952,Circle K,,,,,,,POINT (-79.3316952 43.6813847)
,,,,,,5646589340,43.6822335,-79.3296728,A&E Variety,,,,,,,POINT (-79.3296728 43.6822335)
,,,,24/7,,5671150472,43.7886325,-79.3307321,Circle K,,,,,,,POINT (-79.33073210000001 43.7886325)
,,,,,,5671150474,43.7878891,-79.3298722,Dollar Store,,,,,,,POINT (-79.3298722 43.7878891)
,,,,,,5677724757,43.7257583,-79.3139505,Circle K,,,,,,,POINT (-79.3139505 43.7257583)
,,,,,,5678688168,43.6738152,-79.4372314,,,,,,,,POINT (-79.4372314 43.6738152)
,Etobicoke,,,,1162,5708886322,43.7380040,-79.5676857,Albion Paan & Video,,M9V 1A8,,Albion Road,,no,POINT (-79.5676857 43.738004)
,Etobicoke,,,,900,5709480421,43.7350440,-79.5588837,Yong Albion Convinience,+1-416-740-4329,M9V 1A5,,Albion Road,,limited,POINT (-79.5588837 43.735044)
,Toronto,,,,764,5720736721,43.6522344,-79.4070366,E Zhan Bubble Tea Internet Café,+1-647-430-5987,M6J 1T8,,Dundas Street West,,no,POINT (-79.4070366 43.6522344)
,Toronto,,,,445,5741810847,43.6638490,-79.3800400,Maple Leaf Convenience,+1-416-967-3564,M4Y 2C5,,Church Street,,no,POINT (-79.38003999999999 43.663849)
,Toronto,,,,497,5749636621,43.6654873,-79.3807217,Pusateri Fruit,+1-416-923-2043,M4Y 2C6,,Church Street,http://www.pusateri.ca,yes,POINT (-79.3807217 43.6654873)
,,,,,65,5771988071,43.6500529,-79.4001868,Alexandra Tuck Shop,,,,Augusta Avenue,,,POINT (-79.4001868 43.6500529)
,,,,,,5793561214,43.7697182,-79.5020860,Gateway on the Go,,,,,,,POINT (-79.50208600000001 43.7697182)
,,,,,,5793619265,43.7561773,-79.5187935,Jian Hing Supermarket,,,,,,,POINT (-79.5187935 43.7561773)
,,,,,,5793619276,43.7562286,-79.5180935,Norfinch Smoke and Gift,,,,,,,POINT (-79.51809350000001 43.7562286)
,,,,,,5793891409,43.7372049,-79.5247909,On the Go,,,,,,,POINT (-79.5247909 43.7372049)
,Toronto ON,,,,247,5796529753,43.6617678,-79.3692029,Gerrard Convenience,+1-416-945-2277,,,Gerrard Street East,,yes,POINT (-79.3692029 43.6617678)
,Toronto,,,,609,5801942353,43.6680790,-79.3693080,Parliament Smoke & Gift,+1-416-968-3794,M4X 1P9,,Parliament Street,,yes,POINT (-79.369308 43.668079)
,Toronto,,,,1422,5856826841,43.6573710,-79.4479374,Bloor Mini Mart,,,,Bloor Street West,,,POINT (-79.4479374 43.657371)
,Etobicoke,,,Mo-Su 08:00-21:00,1701,5917075342,43.7331192,-79.5884896,Dollar King & Party Supplies,,M9V 4N4,,Martin Grove Road,,,POINT (-79.5884896 43.7331192)
,Etobicoke,,,Mo-Su 07:00-23:00,1701,5917075343,43.7331385,-79.5884199,Convenience Store,,M9V 4N4,,Martin Grove Road,,,POINT (-79.58841990000001 43.7331385)
,North York,,,Mo-Sa 08:00-18:00,1442,6003902000,43.7086375,-79.4803711,,,,,Lawrence Avenue West,,,POINT (-79.4803711 43.7086375)
,,,,24/7,198,6074566918,43.6504791,-79.3887926,Express To Go Convenience,,,,Queen Street West,,,POINT (-79.3887926 43.6504791)
,Toronto,,,"Mo-Sa 07:00-22:00, Su 09:00-22:00",20,6097088538,43.6401487,-79.4238567,Fuzion Convenience,,,,Joe Shuster Way,,,POINT (-79.4238567 43.6401487)
,,,,,,6173003694,43.6261353,-79.5283834,Gabby's Express,,,,,,,POINT (-79.5283834 43.6261353)
,,,,,,6175070710,43.7593978,-79.5708789,Sathuja's Chinna Kadai Fish & Meat Market,,,,,,,POINT (-79.5708789 43.7593978)
,,,,,,6175614778,43.5969684,-79.5435896,Snack Express,,,,,,,POINT (-79.5435896 43.5969684)
,Toronto,,,,160A,6184564993,43.6365376,-79.4370653,Kapamilya Foods,+1-416-534-0269,M6K 1C2,,Springhurst Avenue,,,POINT (-79.4370653 43.6365376)
,Toronto,,,,160,6184565002,43.6366420,-79.4369312,Jameson Variety Fair,,,,Springhurst Avenue,,,POINT (-79.4369312 43.636642)
,,,,,,6184565004,43.6372748,-79.4362821,Central Market,+1-416-516-8318,,,,,,POINT (-79.4362821 43.6372748)
,Toronto,,,,1265,6184565121,43.6381367,-79.4306816,King's Milk,,,,King Street West,,,POINT (-79.4306816 43.6381367)
,Toronto,,,,1236,6184565136,43.6387938,-79.4287317,King's Food Market,,,,King Street West,,,POINT (-79.4287317 43.6387938)
,Toronto,,,,1232,6184565138,43.6388127,-79.4286096,King Mini Mart,,,,King Street West,,,POINT (-79.4286096 43.6388127)
,Toronto,,,,930,6201102931,43.6448784,-79.4160649,Family Mart,+1-416-533-9779,,,Queen Street West,,,POINT (-79.41606489999999 43.6448784)
,Toronto,,,,998,6201102946,43.6443689,-79.4185641,K & N Supermarket,,,,Queen Street West,,,POINT (-79.4185641 43.6443689)
,Toronto,,,,974,6201102949,43.6445155,-79.4178144,Hong Phat,,,,Queen Street West,,,POINT (-79.4178144 43.6445155)
,Toronto,,,,1151,6240358455,43.6492405,-79.4211276,Amigo Convenience,,,,Dundas Street West,,,POINT (-79.42112760000001 43.6492405)
,Toronto,,,,1193,6240358466,43.6492594,-79.4222300,King's Fruit Supermarket,+1-647-352-1193,,,Dundas Street West,,,POINT (-79.42223 43.6492594)
,Toronto,,,,615,6258670123,43.6595759,-79.4386570,Saponeti,+1-647-344-1875,,,Brock Avenue,https://www.saponetti.ca/,,POINT (-79.43865700000001 43.6595759)
,,,,,,6282986849,43.6531690,-79.4677860,Garden's Food,+1-416-766-6605,,,,,,POINT (-79.467786 43.653169)
,,,,,290,6302674402,43.6348553,-79.5625782,Daisy Mart,,,,The West Mall,,,POINT (-79.5625782 43.6348553)
,,,,,290,6302674432,43.6351604,-79.5627328,West Mall Super Save Food Mart,,,,The West Mall,,,POINT (-79.56273280000001 43.6351604)
,Toronto,,,,1014,6304072704,43.6503618,-79.4161561,Super 4 Variety & Grocery,,,,Dundas Street West,,,POINT (-79.41615609999999 43.6503618)
,,,,,3325,6304868756,43.6451181,-79.5207227,Young's Variety,,,,Bloor Street West,,,POINT (-79.52072269999999 43.6451181)
,Etobicoke,,,,2992,6306230091,43.6477650,-79.5102493,Kingsway Variety,,M8X 1C2,,Bloor Street West,,,POINT (-79.5102493 43.647765)
,,,,,,6307475001,43.6914936,-79.5316815,Royal York Smoke Shop,,,,,,,POINT (-79.5316815 43.6914936)
,,,,,270,6309798881,43.6611357,-79.5195170,Humbertown Convenience,,,,The Kingsway,,,POINT (-79.51951699999999 43.6611357)
,,,,,,6310400047,43.6331641,-79.5422884,Dundas West Convenience,,,,,,,POINT (-79.5422884 43.6331641)
Circle K,,,,,140,6314606861,43.6855781,-79.5238441,Circle K,,,,La Rose Avenue,,,POINT (-79.52384410000001 43.6855781)
,,,,,140,6314606865,43.6855335,-79.5233895,Melrose Variety,,,,La Rose Avenue,,,POINT (-79.52338949999999 43.6855335)
,,,,,,6315140376,43.6826385,-79.5106798,Kenny's Fresh Foods,,,,,,,POINT (-79.51067980000001 43.6826385)
,,,,,,6315313396,43.6796668,-79.5473249,Maxi Mart,,,,,,,POINT (-79.54732490000001 43.6796668)
,,,,,,6315313423,43.6797172,-79.5457833,The Richviewer,,,,,,,POINT (-79.5457833 43.6797172)
,,,,,,6318936244,43.6970129,-79.5440828,People's Convenience,,,,,,,POINT (-79.5440828 43.6970129)
,,,,,,6318936248,43.6968726,-79.5439933,Al-Haram Halal Meat & Groceries,,,,,,,POINT (-79.5439933 43.6968726)
,,,,,,6324061435,43.6831003,-79.5660343,Kitchen Food Fair,,,,,,,POINT (-79.5660343 43.6831003)
,Toronto,,,,127,6325960671,43.6429651,-79.4475842,Cinema Convenience,,,,Roncesvalles Avenue,,,POINT (-79.44758419999999 43.6429651)
,,,,,,6328099913,43.7012416,-79.5284164,Dixon Milk,,,,,,,POINT (-79.5284164 43.7012416)
,,,,,,6328248459,43.7150827,-79.5556124,Max Mini Mart,,,,,,,POINT (-79.5556124 43.7150827)
,,,,,,6328248460,43.7150290,-79.5555947,Arthur Variety,,,,,,,POINT (-79.5555947 43.715029)
,,,,,,6329863975,43.7140182,-79.5581871,Rexdale Grocers,,,,,,,POINT (-79.5581871 43.7140182)
,,,,,,6329863980,43.7141859,-79.5577365,Amin Foodmart & Halal Meat,,,,,,,POINT (-79.5577365 43.7141859)
,,,,,,6329864289,43.7146173,-79.5560769,Akhigbe African-Caribbean Food Market,,,,,,,POINT (-79.55607689999999 43.7146173)
,,,,,,6329864290,43.7146027,-79.5561406,Al-Fateh Grocers,,,,,,,POINT (-79.55614060000001 43.7146027)
,,,,,,6329886743,43.7129737,-79.5678914,Kipling Variety Store,,,,,,,POINT (-79.56789139999999 43.7129737)
,,,,,,6333522637,43.7248940,-79.5508559,Albion Variety,,,,,,,POINT (-79.5508559 43.724894)
,,,,,,6333522644,43.7256446,-79.5515859,Hamshow Mini Mart,,,,,,,POINT (-79.55158590000001 43.7256446)
,,,,,,6333707759,43.7292522,-79.5741304,M&S Variety,,,,,,,POINT (-79.5741304 43.7292522)
,,,,,1530,6334218969,43.7421895,-79.5835293,Goodies Convenience,,,,Albion Road,,,POINT (-79.5835293 43.7421895)
,,,,,1620,6334287548,43.7420068,-79.5921201,Jug City,,,,Albion Road,,,POINT (-79.5921201 43.7420068)
,,,,,,6334374240,43.7506254,-79.5839390,Rabba,,,,,,,POINT (-79.583939 43.7506254)
,,,,,,6334392482,43.7568557,-79.5890961,M&D Variety,,,,,,,POINT (-79.58909610000001 43.7568557)
,,,,,,6334392494,43.7564221,-79.5894495,Kingdom Supermarket,,,,,,,POINT (-79.5894495 43.7564221)
Circle K,,,,,,6334432781,43.7511906,-79.5998214,Circle K,,,,,,,POINT (-79.5998214 43.7511906)
Hasty Market,,,,,,6334487387,43.7341423,-79.6058194,Hasty Market,,,,,,,POINT (-79.6058194 43.7341423)
,Toronto,,,,884,6340696125,43.6621822,-79.4253883,Ossington Minimart,+1-416-537-4134,,,Bloor Street West,,,POINT (-79.42538829999999 43.6621822)
,Toronto,,,,1000,6340806333,43.6610893,-79.4303081,21 Seven Market,,,,Bloor Street West,,,POINT (-79.4303081 43.6610893)
,Toronto,,,,1064,6340850225,43.6604737,-79.4330688,Luck Discount Variety,,,,Bloor Street West,,,POINT (-79.4330688 43.6604737)
Shell Select,,,,,,6340918504,43.7102212,-79.5350640,Shell Select,,,,,,,POINT (-79.53506400000001 43.7102212)
,,,,,,6340934481,43.7065963,-79.5317550,Seif Halal Food Market,,,,,,,POINT (-79.531755 43.7065963)
,,,,,,6340934484,43.7065820,-79.5315401,Home Town Convenience,,,,,,,POINT (-79.5315401 43.706582)
,,,,,,6340941060,43.7031684,-79.5247333,Sinclair Variety & Gift,,,,,,,POINT (-79.52473329999999 43.7031684)
,,,,,,6340988716,43.7023474,-79.5228257,Min-A-Mart,,,,,,,POINT (-79.5228257 43.7023474)
,,,,,,6341002529,43.7007826,-79.5179703,Ausef Foods,,,,,,,POINT (-79.5179703 43.7007826)
,,,,,,6341008992,43.7010381,-79.5174278,OK Supermarket,,,,,,,POINT (-79.51742779999999 43.7010381)
,,,,,,6341020716,43.6997855,-79.5171096,Iman Varieties Store,,,,,,,POINT (-79.5171096 43.6997855)
,,,,,,6341020720,43.6999810,-79.5180279,Kedija Grocery Store,,,,,,,POINT (-79.51802790000001 43.699981)
,,,,,1894,6341397532,43.6999949,-79.5160878,E's Discount,,,,Weston Road,,,POINT (-79.51608779999999 43.6999949)
,,,,,1890,6341397533,43.6999482,-79.5159974,Waryaa Covenience Store,,,,Weston Road,,,POINT (-79.5159974 43.6999482)
,,,,,1880,6341397537,43.6998762,-79.5157448,Al-Baraka Variety Store,,,,Weston Road,,,POINT (-79.51574479999999 43.6998762)
,,,,,1806,6341397562,43.6989458,-79.5133016,Global Groceries Canada,,,,Weston Road,,,POINT (-79.51330160000001 43.6989458)
,,,,,1794,6341397568,43.6987688,-79.5128528,Jam's Grocery Variety,,,,Weston Road,,,POINT (-79.5128528 43.6987688)
,,,,,,6341447997,43.6968766,-79.5093156,NOI African Supermarket,,,,,,,POINT (-79.50931559999999 43.6968766)
,,,,,1615,6341456299,43.6958690,-79.5074987,Weston Rd. Convenience Store,,,,Weston Road,,,POINT (-79.5074987 43.695869)
,Toronto,,,,1318,6341567838,43.6583935,-79.4431599,Harar Grocery,,,,Bloor Street West,,,POINT (-79.4431599 43.6583935)
,Toronto,,,,1580,6341760038,43.6561212,-79.4541684,Scotty's Variety,,,,Bloor Street West,,,POINT (-79.4541684 43.6561212)
,,,,,,6342130666,43.6913221,-79.5006000,T&K Variety,,,,,,,POINT (-79.50060000000001 43.6913221)
,,,,,,6342130684,43.6901957,-79.4986534,Fardus Decor & Varieties,,,,,,,POINT (-79.49865339999999 43.6901957)
,,,,,,6342131185,43.6903177,-79.4982498,October Convenience,,,,,,,POINT (-79.4982498 43.6903177)
,,,,,,6342148788,43.6883182,-79.4928312,A&M Lifestyle Variety,,,,,,,POINT (-79.4928312 43.6883182)
,,,,,,6342175480,43.6879534,-79.4917753,Henry Convenience,,,,,,,POINT (-79.4917753 43.6879534)
,,,,,,6342175888,43.6875347,-79.4913163,Kaneshi Market,,,,,,,POINT (-79.49131629999999 43.6875347)
,,,,,,6342175889,43.6874640,-79.4911152,M&M Variety & Grocery,,,,,,,POINT (-79.4911152 43.687464)
,Toronto,,,,839,6343511094,43.6623617,-79.4233511,A L Mini Mart,,,,Bloor Street West,,,POINT (-79.4233511 43.6623617)
,Toronto,,,,831,6343511097,43.6624645,-79.4228804,Freta Injera & Variety Store,+1-647-342-5355,,,Bloor Street West,,,POINT (-79.4228804 43.6624645)
,,,,,,6343766438,43.6454796,-79.4359723,West Lodge Tuck Stop,,,,,,,POINT (-79.4359723 43.6454796)
,Toronto,,,,1205,6345455877,43.6588583,-79.4397696,Supermart Convenience,+1-416-531-3771,,,Bloor Street West,,,POINT (-79.43976960000001 43.6588583)
,,,,,,6348220117,43.6859619,-79.4872230,World Variety,,,,,,,POINT (-79.487223 43.6859619)
,,,,,,6348392716,43.6834138,-79.4815836,Kim Grocery,,,,,,,POINT (-79.48158359999999 43.6834138)
,,,,,,6348433231,43.7386385,-79.5400060,Weston Gift & Variety,,,,,,,POINT (-79.54000600000001 43.7386385)
,,,,,,6348433233,43.7387538,-79.5400345,Naomi African Food Market,,,,,,,POINT (-79.5400345 43.7387538)
,,,,,,6348433234,43.7388243,-79.5400395,7 Day Convenience,,,,,,,POINT (-79.54003950000001 43.7388243)
,Toronto,,,,1677,6348434785,43.6552367,-79.4568348,PL Kennth Variety,,,,Bloor Street West,,,POINT (-79.4568348 43.6552367)
,,,,,,6348484097,43.7506148,-79.5426872,Caribbean Island Food Mart,,,,,,,POINT (-79.5426872 43.7506148)
,,,,,,6348484106,43.7511550,-79.5428176,Finch Weston Smoke & Variety,,,,,,,POINT (-79.54281760000001 43.751155)
,,,,,,6348493752,43.7512619,-79.5440628,Lucky Store,,,,,,,POINT (-79.54406280000001 43.7512619)
,,,,,,6348657384,43.7529739,-79.5419469,Just Caribbean Groceries,,,,,,,POINT (-79.5419469 43.7529739)
,,,,,,6348659385,43.7530040,-79.5418147,Bantama Supermarket,,,,,,,POINT (-79.5418147 43.753004)
,,,,,,6350077596,43.7498693,-79.5495439,Finch Main Convenience,,,,,,,POINT (-79.5495439 43.7498693)
,,,,,,6352705193,43.7494538,-79.5530223,Tasty Paan and More,,,,,,,POINT (-79.55302229999999 43.7494538)
,,,,,,6352717355,43.7490447,-79.5598491,Finch Convenience,,,,,,,POINT (-79.55984909999999 43.7490447)
,,,,,,6352773233,43.7558415,-79.5695583,A1 Petro Biz,,,,,,,POINT (-79.5695583 43.7558415)
,,,,,,6352773248,43.7577365,-79.5697781,Angel's Convenience,,,,,,,POINT (-79.56977809999999 43.7577365)
,,,,,,6352773259,43.7582893,-79.5699022,Dizaneau African Foods,,,,,,,POINT (-79.5699022 43.7582893)
,,,,,,6352818279,43.7588525,-79.5704093,Galann Convenience,,,,,,,POINT (-79.57040929999999 43.7588525)
,,,,,,6352818888,43.7595807,-79.5702641,,,,,,,,POINT (-79.5702641 43.7595807)
,,,,,,6352818904,43.7596740,-79.5710350,H&P Food Products,,,,,,,POINT (-79.57103499999999 43.759674)
,,,,,,6352831310,43.7592172,-79.5706716,3J's Milk & Variety,,,,,,,POINT (-79.5706716 43.7592172)
,,,,,,6352831311,43.7591716,-79.5706546,4U Milk Variety,,,,,,,POINT (-79.5706546 43.7591716)
,,,,,,6357148565,43.7187254,-79.5118510,Kabul Foods Supermarket,,,,,,,POINT (-79.51185099999999 43.7187254)
,,,,,,6357148570,43.7199192,-79.5120878,Variedades JCK,,,,,,,POINT (-79.5120878 43.7199192)
,,,,,,6357163305,43.7193830,-79.5076402,Afro-Caribbean Foods,,,,,,,POINT (-79.5076402 43.719383)
,,,,,,6357163317,43.7188335,-79.5073780,IBC Variety,,,,,,,POINT (-79.507378 43.7188335)
Circle K,,,,,,6357208063,43.7095159,-79.5059697,Circle K,,,,,,,POINT (-79.50596969999999 43.7095159)
,,,,,,6357383029,43.6954597,-79.5205838,Balkan Express,,,,,,,POINT (-79.5205838 43.6954597)
,,,,,,6357383032,43.6953254,-79.5204403,A1 Dairy Mart,,,,,,,POINT (-79.5204403 43.6953254)
,,,,,,6357395956,43.7077636,-79.5054857,Oba Market,,,,,,,POINT (-79.50548569999999 43.7077636)
,,,,,,6357395967,43.7063830,-79.5051046,Jane Food Store,,,,,,,POINT (-79.5051046 43.706383)
,,,,,,6358036499,43.7037943,-79.5043921,Xpress Tropical Foods & Meat,,,,,,,POINT (-79.5043921 43.7037943)
,,,,,,6358036501,43.7036980,-79.5043520,Kajanth Grocery,,,,,,,POINT (-79.504352 43.703698)
,,,,,,6358057165,43.7034475,-79.5037286,"Bargain Way Smoke, Gift & Variety",,,,,,,POINT (-79.5037286 43.7034475)
,,,,,675,6358218801,43.6469265,-79.4047956,Abby's Convenience and Wireless Club,,,,Queen Street West,,,POINT (-79.4047956 43.6469265)
,,,,,596,6358218805,43.6472351,-79.4044402,Super Queen's Market,,,,Queen Street West,,,POINT (-79.4044402 43.6472351)
,,,,,,6358489629,43.7011796,-79.5036507,Ray's Tropical Foods,,,,,,,POINT (-79.50365069999999 43.7011796)
,,,,,,6359314420,43.6991714,-79.5025225,Belmont Super Variety,,,,,,,POINT (-79.5025225 43.6991714)
,,,,,,6359314430,43.6980045,-79.5020433,MJ Minimart,,,,,,,POINT (-79.5020433 43.6980045)
,,,,,,6359314431,43.6981801,-79.5027602,Oyato Food,,,,,,,POINT (-79.5027602 43.6981801)
,,,,,,6359375694,43.6770161,-79.4944138,Kenneth's Variety,,,,,,,POINT (-79.4944138 43.6770161)
,,,,,,6359386928,43.6738213,-79.4948790,Habesha Variety,,,,,,,POINT (-79.494879 43.6738213)
,,,,,,6362849596,43.6640040,-79.4158949,7 Days Convenience,,,,,,,POINT (-79.4158949 43.664004)
,,,,,289,6363116946,43.6562258,-79.4871216,Jug Mart Convenience,,,,Jane Street,,,POINT (-79.48712159999999 43.6562258)
,Toronto,,,,611,6363749801,43.6588985,-79.4389194,Gangladesh Corner Variety,+1-416-537-2661,,,Brock Avenue,,,POINT (-79.4389194 43.6588985)
,,,,,,6363938616,43.6667942,-79.4991425,Sun Convenience,,,,,,,POINT (-79.4991425 43.6667942)
,,,,,,6366660077,43.7228090,-79.5083331,Super Stop,,,,,,,POINT (-79.5083331 43.722809)
,,,,,,6366662888,43.7240337,-79.5089826,Meyers Variety,,,,,,,POINT (-79.5089826 43.7240337)
Circle K,,,,,,6367927567,43.7392670,-79.5124360,Circle K,,,,,,,POINT (-79.51243599999999 43.739267)
,,,,,,6367927569,43.7395317,-79.5142261,Kitchen Food Fair,,,,,,,POINT (-79.5142261 43.7395317)
,,,,,,6368030226,43.7410925,-79.5131066,Axess Gift & Convenience,,,,,,,POINT (-79.5131066 43.7410925)
,,,,,,6368030229,43.7419778,-79.5143015,Custitos De Mi Tierra,,,,,,,POINT (-79.5143015 43.7419778)
,,,,,,6369405373,43.7433502,-79.5144792,M&D Convenience,,,,,,,POINT (-79.5144792 43.7433502)
,,,,,,6369405378,43.7515626,-79.5153357,Grace Food Mart,,,,,,,POINT (-79.51533569999999 43.7515626)
,,,,,,6369406985,43.7519209,-79.5154157,Friends Variety & Grocers,,,,,,,POINT (-79.51541570000001 43.7519209)
,,,,,1911,6370640613,43.7570428,-79.5144620,Jane Finch Variety,,,,Finch Avenue West,,,POINT (-79.51446199999999 43.7570428)
,,,,,1,6370871210,43.7579518,-79.5201792,Ross Convenience,,,,York Gate Boulevard,,,POINT (-79.5201792 43.7579518)
,Toronto,,,,1110,6371102737,43.6601055,-79.4347961,ABC Convenient,,,,Bloor Street West,,,POINT (-79.4347961 43.6601055)
,,,,,,6371265832,43.7692462,-79.5210057,Super Stop,,,,,,,POINT (-79.5210057 43.7692462)
,,,,,942,6376096828,43.6536779,-79.4266697,Sunshine,,,,College Street,,,POINT (-79.42666970000001 43.6536779)
,Toronto,,,,2184,6376145779,43.6516820,-79.4747154,T.J.'s Variety,,,,Bloor Street West,,,POINT (-79.47471539999999 43.651682)
,Toronto,,,,2145,6382389309,43.6526538,-79.4499171,Lambert's Pump,,,,Dundas Street West,,,POINT (-79.44991709999999 43.6526538)
,,,,,,6386821108,43.6015029,-79.5003158,Select,,,,,,,POINT (-79.5003158 43.6015029)
,Toronto,,,,795,6386975375,43.6429243,-79.4068663,QQ Store,,,,King Street West,,,POINT (-79.4068663 43.6429243)
,,,,,,6399214580,43.6769670,-79.3043885,K & S Milk Store,,,,,,,POINT (-79.3043885 43.676967)
,,,,,,6402291682,43.6615589,-79.3372925,Variety Store Tina Dry Cleaning,,,,,,,POINT (-79.3372925 43.6615589)
,,,,,,6402681572,43.6448585,-79.3943350,Super Stop Convenience,,,,,,,POINT (-79.394335 43.6448585)
,,,,Mo-Sa 08:00-22:00; Su 09:00-22:00,,6419518871,43.6486216,-79.5068423,Kingsway Pop's Smoke Shop,,,,Wendover Road,,,POINT (-79.5068423 43.6486216)
,,,,,430,6419914086,43.6484671,-79.3983027,Winton's Grocery,,,,Queen Street West,,,POINT (-79.3983027 43.6484671)
,,,,,,6426838155,43.6493434,-79.4266140,,,,,,,,POINT (-79.426614 43.6493434)
,,,,,,6443996985,43.6589670,-79.4427429,Viva Latinos,,,,Lansdowne Avenue,,,POINT (-79.4427429 43.658967)
,,,,,,6468845402,43.6414899,-79.4227101,Convenience Canada,,,,,,,POINT (-79.4227101 43.6414899)
,,,,"Mo-Th 07:00-23:00, Fr 07:00-24:00, Sa 08:00-24:00, Su 08:00-23:00",,6468845403,43.6419776,-79.4236536,Am2Pm Express Market,,,,,,,POINT (-79.42365359999999 43.6419776)
,Toronto,,,,1326,6481876644,43.6417629,-79.4314548,Lynn's Convenience,,,,Queen Street West,,,POINT (-79.4314548 43.6417629)
,,,,,,6482625774,43.6405446,-79.4375045,Convenience Canada,,,,,,,POINT (-79.4375045 43.6405446)
,Toronto,,,,1506,6482625781,43.6403782,-79.4383095,Mandala,+1-647-352-1234,,,Queen Street West,,,POINT (-79.4383095 43.6403782)
,,,,,,6491062670,43.6647796,-79.5025944,Dundas Food Mart,,,,,,,POINT (-79.50259440000001 43.6647796)
,,,,,,6491116384,43.6654445,-79.4868778,Esso Dundas Mart,,,,,,,POINT (-79.4868778 43.6654445)
,,,,,,6491320427,43.6650300,-79.4685998,Bruce's Gifts & Variety,,,,,,,POINT (-79.46859980000001 43.66503)
,,,,,2938,6491357326,43.6655497,-79.4675041,Junction Gardens Grand Bargain,,,,Dundas Street West,,,POINT (-79.4675041 43.6655497)
,,,,,,6491425300,43.6652451,-79.4659766,Mavety Milk & Variety,,,,,,,POINT (-79.4659766 43.6652451)
,,,,,,6491503975,43.6660426,-79.4645578,Five Star Convenience,,,,,,,POINT (-79.46455779999999 43.6660426)
,,,,,2850,6491618241,43.6655128,-79.4643390,Big Convenience,,,,Dundas Street West,,,POINT (-79.464339 43.6655128)
,,,,,,6491731389,43.6655025,-79.4621614,One Stop Variety,,,,,,,POINT (-79.4621614 43.6655025)
,,,,,2776,6491731396,43.6654380,-79.4616590,T&P Vietnam Market,,,,Dundas Street West,,,POINT (-79.461659 43.665438)
,,,,,,6493338026,43.6394488,-79.4417632,Sam Fine Foods,,,,,,,POINT (-79.4417632 43.6394488)
,,,,,1578,6493338035,43.6399185,-79.4406324,Lee's Variety,,,,Queen Street West,,,POINT (-79.4406324 43.6399185)
,,,,,1534,6493338043,43.6401636,-79.4393803,Bernard's Pilipino Specialties,+1-416-534-3640,,,Queen Street West,,,POINT (-79.4393803 43.6401636)
,,,,,,6528691701,43.6470755,-79.3953670,Convenience,,,,,,,POINT (-79.39536699999999 43.6470755)
,,,,,,6533178798,43.6552532,-79.4167060,Hong's Convenience,,,,,,,POINT (-79.416706 43.6552532)
,,,,,,6538387674,43.7405221,-79.5124453,Jane Variety,,,,,,,POINT (-79.5124453 43.7405221)
,,,,,,6538393796,43.7286937,-79.5092255,Exbury Variety,,,,,,,POINT (-79.5092255 43.7286937)
,,,,,,6538443778,43.7226460,-79.4985016,Downsview Market,,,,,,,POINT (-79.4985016 43.722646)
,,,,,,6538443781,43.7226865,-79.4983208,Wilson Variety,,,,,,,POINT (-79.4983208 43.7226865)
,,,,,,6538687480,43.7266357,-79.4833174,Keele & Wilson Mr. Smoke & Variety,,,,,,,POINT (-79.4833174 43.7266357)
,,,,,,6538687885,43.7266760,-79.4831298,Bayanihan Express,,,,,,,POINT (-79.4831298 43.726676)
,,,,,,6545539551,43.7300350,-79.4703445,Darrel Concept Philippines,,,,,,,POINT (-79.4703445 43.730035)
,,,,,,6545539552,43.7300240,-79.4704075,Sabor Tolimense,,,,,,,POINT (-79.47040749999999 43.730024)
Shell Select,,,,,,6545539576,43.7300641,-79.4675649,Shell Select,,,,,,,POINT (-79.4675649 43.7300641)
,,,,,,6545575952,43.7303189,-79.4668629,El Rancherito,,,,,,,POINT (-79.4668629 43.7303189)
,,,,,,6545575960,43.7308710,-79.4671015,Andy's Variety,,,,,,,POINT (-79.4671015 43.730871)
,,,,,,6545586937,43.7313797,-79.4648466,K&D Variety,,,,,,,POINT (-79.4648466 43.7313797)
,,,,,,6545586952,43.7316589,-79.4635388,Sunny Days Smoke & Variety,,,,,,,POINT (-79.46353879999999 43.7316589)
,,,,,,6545684809,43.7307752,-79.4587718,Yorkdale Mini Mart,,,,,,,POINT (-79.45877179999999 43.7307752)
,,,,,,6548273300,43.7207273,-79.4558022,Yorkdale Mart,,,,,,,POINT (-79.45580219999999 43.7207273)
,,,,,,6548275982,43.7159870,-79.4547834,Variety Plus,,,,,,,POINT (-79.4547834 43.715987)
,,,,,,6548584926,43.7104043,-79.4542887,Ready Go,,,,,,,POINT (-79.45428870000001 43.7104043)
,,,,,,6549480721,43.7068498,-79.4529535,Sunny Convenience,,,,,,,POINT (-79.45295350000001 43.7068498)
,,,,,,6549482204,43.7078657,-79.4537431,Astro Variety & Gift,,,,,,,POINT (-79.4537431 43.7078657)
,,,,,,6549482219,43.7073707,-79.4527725,Neighbours Coffee,,,,,,,POINT (-79.45277249999999 43.7073707)
,,,,,,6549549799,43.7016543,-79.4517131,Fairbank Convenience,,,,,,,POINT (-79.45171310000001 43.7016543)
,,,,,,6549657697,43.6980335,-79.4514756,Vari Coffee Deli & Variety Store,,,,,,,POINT (-79.45147559999999 43.6980335)
,,,,,,6549810542,43.6969051,-79.4455636,Bahay Ni Cuya,,,,,,,POINT (-79.4455636 43.6969051)
,,,,,,6549810559,43.6970629,-79.4446328,Nino's Variety,,,,,,,POINT (-79.44463279999999 43.6970629)
,,,,,,6550466765,43.6930835,-79.4411940,Canlube,,,,,,,POINT (-79.441194 43.6930835)
,,,,,,6550543838,43.6882712,-79.4257973,Go Market,,,,,,,POINT (-79.4257973 43.6882712)
,,,,,,6550544305,43.6875665,-79.4238769,K-Variety,,,,,,,POINT (-79.4238769 43.6875665)
,,,,,,6550544308,43.6876862,-79.4241696,Sun Milk & Variety,,,,,,,POINT (-79.4241696 43.6876862)
,,,,,,6550544310,43.6860382,-79.4222668,Mister Milk,,,,,,,POINT (-79.4222668 43.6860382)
,,,,,,6550544314,43.6845219,-79.4212781,U-Save Milk Store,,,,,,,POINT (-79.42127809999999 43.6845219)
,,,,,,6551615802,43.6679744,-79.4124909,Stanley's Variety and Grocery,,,,,,,POINT (-79.41249089999999 43.6679744)
,,,,,,6551651368,43.7152662,-79.4469780,Super Stop,,,,,,,POINT (-79.446978 43.7152662)
,,,,,,6551673035,43.6404044,-79.3911995,Harbourview Convenience,,,,,,,POINT (-79.3911995 43.6404044)
,,,,,,6551728785,43.7070298,-79.4425712,Yes! Convenience,,,,,,,POINT (-79.4425712 43.7070298)
Circle K,,,,,,6554662251,43.7428217,-79.5974077,Circle K,,,,,,,POINT (-79.59740770000001 43.7428217)
,,,,,,6554677031,43.7429525,-79.6036459,Green's West Indian Groceries,,,,,,,POINT (-79.6036459 43.7429525)
,,,,,,6554677033,43.7430325,-79.6036305,Y.H. Convenience,,,,,,,POINT (-79.60363049999999 43.7430325)
,,,,,,6578943820,43.7050425,-79.3465101,Kitchen Food Fair,,,,,,,POINT (-79.3465101 43.7050425)
,,,,,,6593325675,43.7439644,-79.2176769,Tajmahal Foods,,,,,,,POINT (-79.2176769 43.7439644)
,,,,,,6593325987,43.7443406,-79.2168211,Adabraka Supermarket,,,,,,,POINT (-79.2168211 43.7443406)
,,,,,,6593325988,43.7443550,-79.2167359,TSV Convenience,,,,,,,POINT (-79.2167359 43.744355)
,,,,,,6593325990,43.7444773,-79.2162163,Sunny Convenience,,,,,,,POINT (-79.2162163 43.7444773)
,,,,,,6593955518,43.7436828,-79.2196410,Batala Supermarket,,,,,,,POINT (-79.219641 43.7436828)
,,,,,,6593955520,43.7436417,-79.2188167,Kalanchiyam Food Mart,,,,,,,POINT (-79.2188167 43.7436417)
,,,,,,6593958403,43.7453833,-79.2203769,Markham Convenience,,,,,,,POINT (-79.22037690000001 43.7453833)
,,,,,,6593958655,43.7582728,-79.2243288,Divinus Tropical Foods,,,,,,,POINT (-79.22432879999999 43.7582728)
,,,,,,6593958659,43.7594476,-79.2242192,8 to 11 Milk & Flower Convenience,,,,,,,POINT (-79.22421919999999 43.7594476)
,,,,,,6594592560,43.7669344,-79.2276627,Painted Post Convenience,,,,,,,POINT (-79.2276627 43.7669344)
,,,,,,6594592584,43.7676369,-79.2288606,Cedarhill Milk & Variety,,,,,,,POINT (-79.2288606 43.7676369)
,,,,,,6594604557,43.7678648,-79.2290077,Mirch Masala Groceries,,,,,,,POINT (-79.2290077 43.7678648)
,,,,,,6594606085,43.7676725,-79.2288791,My Choice Paan & Video,,,,,,,POINT (-79.2288791 43.7676725)
,,,,,,6594754974,43.7757206,-79.2305520,Fortune's Convenience,,,,,,,POINT (-79.230552 43.7757206)
Daisy Mart,,,,,,6600812036,43.7584537,-79.2337242,Daisy Mart,,,,,,,POINT (-79.2337242 43.7584537)
,,,,,,6600846472,43.7612655,-79.2166848,Lawrence Mart,,,,,,,POINT (-79.2166848 43.7612655)
,,,,,,6600852111,43.7596084,-79.2232943,Midnight Convenience,,,,,,,POINT (-79.22329430000001 43.7596084)
,,,,,,6600865387,43.7630551,-79.2154493,Jug City,,,,,,,POINT (-79.2154493 43.7630551)
,,,,,,6600870348,43.7628818,-79.2091890,Get N' Go Convenience,,,,,,,POINT (-79.20918899999999 43.7628818)
,,,,,,6600870354,43.7628024,-79.2096785,Prem Grocerie,,,,,,,POINT (-79.2096785 43.7628024)
,,,,,,6603471799,43.8075778,-79.2209459,Rubini's West Indian Grocers,,,,,,,POINT (-79.2209459 43.8075778)
Circle K,,,,,,6612435284,43.7990392,-79.1470240,Circle K,,,,,,,POINT (-79.147024 43.7990392)
,Etobicoke,,,Mo-Fr 08:30-21:00; Sa 09:00-21:00; Su 09:00-14:00,16,6645807510,43.6043443,-79.4936615,Tim's Mini Mart,+1-416-503-8864,M8V 2T2,,Royal York Road,http://timsminimart.com,,POINT (-79.4936615 43.6043443)
,,,,,,6647324024,43.7186897,-79.3040485,Sak's Fine Foods,,,,,,,POINT (-79.30404849999999 43.7186897)
,,,,,,6685670179,43.6592056,-79.3488595,Fortune Smoke & Gifts Store,,,,,,,POINT (-79.3488595 43.6592056)
,,,,,,6685670210,43.6605601,-79.3428601,Eddie's Convenience,,,,,,,POINT (-79.3428601 43.6605601)
Circle K,Scarborough,,,,2900,6762402712,43.7394409,-79.2383043,Circle K,,M1J 2E4,,Eglinton Avenue East,,,POINT (-79.2383043 43.7394409)
,,,,,788,6808438773,43.6520364,-79.4080015,Dundas Grocery,+1-416-902-9818,,,Dundas Street West,,,POINT (-79.4080015 43.6520364)
,,,,,,6839073355,43.7554949,-79.4409028,,,,,,,,POINT (-79.4409028 43.7554949)
,,,,,830,6848315607,43.6545444,-79.4224875,College Variety Plus,,,,College Street,,,POINT (-79.4224875 43.6545444)
,,,,,,6923531988,43.6690820,-79.3356929,Smokers Mart,,,,,,,POINT (-79.3356929 43.669082)
,,,,,,7048236683,43.7074964,-79.2498632,,,,,,,,POINT (-79.24986319999999 43.7074964)
,,,,,,7048255486,43.7072677,-79.2499764,Banglazabar Supermarket,,,,,,,POINT (-79.24997639999999 43.7072677)
