Alt_Name,Brand,City,Country,Dispensing,Email,Fax,Hours,House_Number,Latitude,Longitude,Name,Payment_Cash,Payment_Credit_Card,Payment_Debit_Card,Phone Number,Postal_Code,Province,Street,Website,Wheelchair
,,,,yes,,,Mo-Th 09:00-19:00; Fr 09:00-18:00; Sa 10:00-16:00,,43.6770068,-79.3555010,City Pharmacy,,,,,,,,,yes
,I.D.A.,,,yes,,,,,43.6766261,-79.3556620,I.D.A.,,,,,,,,,yes
,Shoppers Drug Mart,,,yes,,,,,43.6532056,-79.4061206,Shoppers Drug Mart,,,,,,,,http://www.shoppersdrugmart.ca/,
,Pharmasave,,,yes,,,,,43.6653263,-79.4033563,Pharmasave,,,,,,,,,
,,,,yes,,,,,43.6627953,-79.4213624,Omni Pharmacy,,,,,,,,,
,,,,yes,,,,,43.6601026,-79.4351328,Main Drug Mart,,,,,,,,,
,,,,yes,,,,,43.6670968,-79.4314746,Sone's Pharmacy,,,,+1-416-531-2575,,,,,
Nart Drugs Inc.,Shoppers Drug Mart,Toronto,,yes,,,Mo-Fr 09:00-21:00; Sa 11:00-17:00; Su 12:00-17:00,523,43.6827775,-79.4192985,Shoppers Drug Mart,,,,+1-416-538-1155,M6C 1C0,,St. Clair Avenue West,,yes
,Shoppers Drug Mart,Toronto,,yes,,,Mo-Sa 08:00-00:00; Su 10:00-00:00,360A,43.6665844,-79.4051229,Shoppers Drug Mart,,,,+1-416-961-2121,M5S 1X1,,Bloor Street West,http://www.shoppersdrugmart.ca/,yes
,Pharmasave,,,,,,,,43.6860563,-79.3934061,Pharmasave,,,,,,,,,
,Shoppers Drug Mart,Toronto,,yes,,,,463,43.6561267,-79.4085109,Shoppers Drug Mart,,,,+1-416-923-0755,M6G 4C1,,College Street,http://www.shoppersdrugmart.ca/,yes
,,,,yes,,,,,43.6523206,-79.4064887,Trinity Drug Store,,,,,,,,,
,Guardian,Toronto,,yes,,,,757,43.6520569,-79.4063905,Guardian,,,,,M6J 1T9,,Dundas Street West,,
,,Toronto,,yes,,,,811,43.6516321,-79.4085317,Hilary's Pharmacy,,,,+1-416-603-1059,M6J 1V4,,Dundas Street West,https://hilaryspharmacy.com/,yes
,,,,yes,,,,,43.6574797,-79.4035676,Medical Pharmacy,,,,,,,,,
,Rexall,,,yes,,,-00:00,,43.6607258,-79.3854466,Rexall,,,,,,,,,yes
,Shoppers Drug Mart,,,yes,,,,524,43.6477106,-79.4021933,Shoppers Drug Mart,,,,,,,Queen Street West,http://www.shoppersdrugmart.ca/,yes
,Shoppers Drug Mart,Toronto,,yes,,,Mo-Su 08:00-24:00,388,43.6461194,-79.3925144,Shoppers Drug Mart,,,,+1-416-597-6550,M5V 1K2,,King Street West,http://www.shoppersdrugmart.ca/,
,,Toronto,,yes,,,Mo-Fr 08:30-19:00; Sa 10:00-18:00; Su closed,284,43.6675916,-79.4002121,Snowdon Pharmacy (Guardian),,,,,,,Bloor Street West,,yes
Welcome Guardian Drugstore,Guardian,Toronto,,yes,,,,137,43.6433233,-79.4477035,Guardian,,,,+1-416-533-2088,,,Roncesvalles Avenue,https://www.guardian-ida-pharmacies.ca/en/ontario/toronto/welcome-pharmacy-7024541,
,,,,yes,,,,,43.6513738,-79.4511698,Margis Pharmacy,,,,,,,,,
,Guardian,Toronto,,yes,,,,1488,43.6405305,-79.4376318,Parkdale Guardian Drugs,,,,+1-416-533-2391,,,Queen Street West,,
,,,,yes,,,,1386,43.6413261,-79.4336402,Dunn Pharmacy,,,,,,,Queen Street West,,
,Shoppers Drug Mart,Toronto,,yes,,,24/7,465,43.6615734,-79.3829277,Shoppers Drug Mart,,,,,,,Yonge Street,http://www.shoppersdrugmart.ca/,yes
,Rexall,Toronto,,,,,,481,43.6657861,-79.4071749,Rexall,,,,,,,Bloor Street West,,
,Shoppers Drug Mart,,,yes,,,Mo-Sa 08:00-24:00; Sa 09:00-24:00,,43.6895984,-79.2898134,Shoppers Drug Mart,,,,,,,,http://www.shoppersdrugmart.ca/,yes
,Shoppers Drug Mart,,,yes,,,,,43.7488552,-79.2762981,Shoppers Drug Mart,,,,,,,,http://www.shoppersdrugmart.ca/,
,,,,yes,,,,,43.7079062,-79.3107881,Main Drug Mart,,,,,,,,,
,,,,yes,,,,,43.7077635,-79.3108911,Golden Gate Pharmacy,,,,,,,,,
,Shoppers Drug Mart,,,yes,,,,,43.7058898,-79.3128137,Shoppers Drug Mart,,,,,,,,http://www.shoppersdrugmart.ca/,
,Shoppers Drug Mart,Toronto,,yes,,,until 22:00,700,43.6583076,-79.3850092,Shoppers Drug Mart,,,,,,,Bay Street,http://www.shoppersdrugmart.ca/,yes
,Shoppers Drug Mart,Toronto,,yes,,,,390,43.6381429,-79.3907469,Shoppers Drug Mart,,,,,,,Queens Quay West,http://www.shoppersdrugmart.ca/,
Poonam Rx Limited,Shoppers Drug Mart,Toronto,,yes,,,,69,43.6490790,-79.3776658,Shoppers Drug Mart,,,,+1-416-364-1948,M5E 1K3,,Yonge Street,http://www.shoppersdrugmart.ca/,
,,Toronto,,yes,,,,688,43.6826792,-79.3235042,Coxwell Pharmacy,,,,+1-416-466-2131,,,Coxwell Avenue,,
Rexall I.D.A. Stanbury's Pharmacy,I.D.A.,,,yes,,,,,43.6896014,-79.3490638,I.D.A.,,,,,,,,,yes
,Shoppers Drug Mart,,,yes,,,,,43.6571735,-79.3885985,Shoppers Drug Mart,,,,,,,,http://www.shoppersdrugmart.ca/,
,,,,yes,,,,,43.6894149,-79.2969551,Main Drug Mart,,,,,,,,,
,,Toronto,,yes,,,Mo-Fr 09:00-20:00; Sa 12:00-17:00; Su 12:00-17:00; PH 10:00-14:00,2556,43.6883066,-79.3016466,Main Drug Mart,,,,,,,Danforth Avenue,,
,Shoppers Drug Mart,Toronto,,yes,,,,728,43.6685579,-79.3862638,Shoppers Drug Mart,,,,,,,Yonge Street,http://www.shoppersdrugmart.ca/,
,,,,yes,,,,,43.7140115,-79.2984546,Victoria Park Pharmacy,,,,,,,,,
,,,,,,,,,43.7092928,-79.2963796,Main Drug Mart,,,,,,,,,
Guardian Drugs Greendale,Guardian,Toronto,,yes,,,,150,43.6629780,-79.3746328,Guardian,,,,,,,Carlton Street,,no
,,,,,,,,,43.6483960,-79.3706949,Main Drug Mart,,,,,,,,,yes
,Rexall,Toronto,,yes,,,Mo-Su 07:00-22:00,159,43.6519511,-79.3788871,Rexall,,,,,,,Yonge Street,https://www.rexall.ca/storelocator/store/8161,
,,,,yes,,,,,43.6617689,-79.3671320,Parliament Pharmacy,,,,,,,,,
,Shoppers Drug Mart,,,yes,,,,,43.7033920,-79.4153114,Shoppers Drug Mart,,,,,,,,http://www.shoppersdrugmart.ca/,
,,Toronto,,yes,,,,412,43.6860757,-79.3763473,Marshall's Drugs,,,,,,,Summerhill Avenue,,
,Shoppers Drug Mart,,,yes,,,,,43.7986188,-79.3688075,Shoppers Drug Mart,,,,,,,,http://www.shoppersdrugmart.ca/,
,Shoppers Drug Mart,,,yes,,,,,43.8047218,-79.3846871,Shoppers Drug Mart,,,,,,,,http://www.shoppersdrugmart.ca/,
,Rexall,,,yes,,,,,43.7940907,-79.3531857,Rexall,,,,,,,,,
,Rexall,,,yes,,,,,43.6718397,-79.3782930,Rexall,,,,,,,,,
,Rexall,East York,,yes,,,Mo-Su 08:00-24:00,660,43.7116330,-79.3762585,Rexall,,,,,,,Eglinton Avenue East,,
,Shoppers Drug Mart,,,yes,,,Mo-Fr 08:00-22:00; Sa 09:00-20:00; Su 10:00-18:00,,43.7561010,-79.4395380,Shoppers Drug Mart,,,,,,,,http://www.shoppersdrugmart.ca/,
,Shoppers Drug Mart,,,yes,,,,,43.7890115,-79.1397735,Shoppers Drug Mart,,,,,,,,http://www.shoppersdrugmart.ca/,
,Shoppers Drug Mart,,,yes,,,,,43.7236686,-79.3004631,Shoppers Drug Mart,,,,,,,,,
,,York,,yes,,,,265,43.6776938,-79.5061934,Main Drug Mart,,,,,,,Scarlett Road,,
,,York,,yes,,,,2160,43.7028963,-79.5254399,Main Drug Mart,,,,,,,Weston Road,,
,,,,yes,,,,,43.7031949,-79.5249106,Weston Drug Mart,,,,,,,,,
,,,,yes,,,,,43.6966160,-79.2862551,DiscountPlus Pharmacy,,,,,,,,,
,Shoppers Drug Mart,,,yes,,,-22:00,,43.7995275,-79.3191843,Shoppers Drug Mart,,,,,,,,http://www.shoppersdrugmart.ca/,
,,,,yes,,,,,43.6877052,-79.3019129,Peoples Drug Mart,,,,,,,,,
,Guardian,,,yes,,,,,43.7798913,-79.1371989,Guardian,,,,,,,,,
,,,,yes,,,,,43.6720554,-79.3769315,Bloor-Sherbourne Pharmacy,,,,,,,,,
,,,,yes,,,,,43.6715127,-79.3766812,Rosedale Pharmacy,,,,,,,,,
,,,,yes,,,,,43.6646930,-79.3740248,Main Drug Mart,,,,,,,,,no
,,,,yes,,,Mo-Fr 09:00-18:00,,43.6613624,-79.3720395,pharmacy.ca,,,,,,,,,yes
,Shoppers Drug Mart,,,yes,,,,,43.6460021,-79.3798608,Shoppers Drug Mart,,,,,,,,http://www.shoppersdrugmart.ca/,
,Shoppers Drug Mart,,,yes,,,,,43.7606953,-79.2241012,Shoppers Drug Mart,,,,,,,,http://www.shoppersdrugmart.ca/,
,Rexall,,,,,,,,43.7754149,-79.2307035,Rexall,,,,,,,,,
Jerry Ip Pharmacy Inc.,Shoppers Drug Mart,Scarborough,,yes,,,,1780,43.7944521,-79.2399838,Shoppers Drug Mart,,,,+1-416-412-1780,M1B 2W2,,Markham Road,http://www.shoppersdrugmart.ca/,yes
,Shoppers Drug Mart,East York,,yes,,,,1012,43.6887601,-79.3487159,Shoppers Drug Mart,,,,+1-416-423-3131,,,Pape Avenue,http://www.shoppersdrugmart.ca/,yes
,Shoppers Drug Mart,Etobicoke,,yes,asdm893@shoppersdrugmart.ca,+1-416-236-0384,"Mo-Fr 09:00-21:00, Sa 09:00-18:00, Su 10:00-19:00",201,43.6754984,-79.5558530,Shoppers Drug Mart,,,,+1-416-236-1131,M9B 6H6,,Lloyd Manor Road,http://www.shoppersdrugmart.ca/,
,Rexall,Etobicoke,,yes,,+1-416-248-4209,Mo-Fr 08:00-22:00; Sa 09:00-22:00; Su 10:00-22:00,250,43.6797074,-79.5463636,Rexall,,,,+1-416-248-1735,M9R 2R5,,Wincott Drive,http://www.rexall.ca,
,,,,yes,,,,,43.6808231,-79.4971884,Janedal Pharmacy,,,,,,,,,
,,,,yes,,,,,43.6907522,-79.4731101,Medicine Shoppe,,,,,,,,,
,Shoppers Drug Mart,,,yes,,,,,43.6930575,-79.4660156,Shoppers Drug Mart,,,,,,,,http://www.shoppersdrugmart.ca/,
,,Scarborough,,yes,,,Mo-Fr 09:00-21:00; Sa 09:00-18:00; Su 11:00-18:00; PH off,2650,43.7524393,-79.2647412,Torrance Compounding Pharmacy,,,,,,,Lawrence Avenue East,,
,,,,yes,,,,,43.7565178,-79.2240055,Markham-Lawrence Pharmacy,,,,,,,,,
,Shoppers Drug Mart,,,yes,,,,,43.7547942,-79.2448736,Shoppers Drug Mart,,,,,,,,http://www.shoppersdrugmart.ca/,
,,,,yes,,,,,43.6854538,-79.3130732,Main Drug Mart,,,,,,,,,
,,,,yes,,,,,43.6802273,-79.3451365,Pape Drug Mart,,,,,,,,,
Mary-Gergis Pharmacy Inc.,,Toronto,,yes,,,,728,43.6637371,-79.4181475,Bloor Park Pharmacy,,,,+1-416-531-2426,,,Bloor Street West,,
,,Toronto,,,,,,620,43.6646161,-79.4141167,Green Pharmacy,,,,+1-416-530-4004,,,Bloor Street West,,
,Shoppers Drug Mart,,,yes,,,24/7,,43.7728212,-79.2511862,Shoppers Drug Mart,,,,,,,,http://www.shoppersdrugmart.ca/,
,Shoppers Drug Mart,East York,,yes,,,Mo-Sa 09:00-24:00; Su 10:00-24:00,45,43.7060565,-79.3465823,Shoppers Drug Mart,,,,,,,Overlea Boulevard,http://www.shoppersdrugmart.ca/,yes
,Shoppers Drug Mart,,,yes,,,,,43.7135867,-79.3346877,Shoppers Drug Mart,,,,,,,,http://www.shoppersdrugmart.ca/,yes
,,,,yes,,,,,43.7782794,-79.3479124,Fairview Pharmacy,,,,+1-416-497-5115,,,,,
,Shoppers Drug Mart,,,yes,,,,,43.6568051,-79.3807008,Shoppers Drug Mart,,,,,,,,http://www.shoppersdrugmart.ca/,
,Shoppers Drug Mart,,,yes,,,,,43.7693093,-79.3857332,Shoppers Drug Mart,,,,,,,,http://www.shoppersdrugmart.ca/,
,Shoppers Drug Mart,North York,,yes,,,,946,43.7372109,-79.3456392,Shoppers Drug Mart,,,,,,,Lawrence Avenue East,http://www.shoppersdrugmart.ca/,yes
,Shoppers Drug Mart,Toronto,,yes,,,,,43.6469942,-79.3791929,Shoppers Drug Mart,,,,,,,,http://www.shoppersdrugmart.ca/,yes
Tailor Drugs Limited,Shoppers Drug Mart,Toronto,,yes,,,"Mo-We 08:00-21:00; Th,Fr 08:00-22:00; Sa 10:00-19:30; Su 10:00-18:00",20,43.6707950,-79.3858923,Shoppers Drug Mart,yes,,,+1-416-967-7787,M4W 3G7,,Bloor Street East,http://www.shoppersdrugmart.ca/,yes
,Shoppers Drug Mart,Toronto,,yes,,,,351,43.6554147,-79.3640509,Shoppers Drug Mart,,,,,,,Queen Street East,http://www.shoppersdrugmart.ca/,
,,Toronto,,yes,,,,599,43.6679184,-79.3692424,Main Drug Mart,,,,+1-416-960-1616,M4X 1P9,,Parliament Street,,yes
,Rexall,Toronto,,yes,,,08:00-22:00,539,43.6660203,-79.3684761,Rexall,,,,+1-416-926-1658,M4X 1P7,,Parliament Street,http://www.rexall.ca/,
,Shoppers Drug Mart,,,yes,,,Mo-Sa 09:00-00:00; Su 11:00-00:00,467,43.6639589,-79.3676519,Shoppers Drug Mart,,,,+1-416-925-4121,,,Parliament Street,http://www.shoppersdrugmart.ca/,
I.D.A. Moss Park Pharmacy,I.D.A.,,,yes,,,,,43.6551998,-79.3653800,I.D.A.,,,,,,,,,
Bathurst & Bloor Drug Mart,I.D.A.,,,yes,,,,,43.6654831,-79.4115243,I.D.A.,,,,,,,,,
,,,,yes,,,,,43.7735040,-79.4421659,Main Drug Mart,,,,,,,,,
,Shoppers Drug Mart,,,yes,,,,,43.6630445,-79.5317333,Shoppers Drug Mart,,,,,,,,,
,Rexall,,,yes,,,,,43.6019808,-79.5456039,Rexall,,,,,,,,http://www.rexall.ca/,
,Shoppers Drug Mart,Toronto,,yes,,,Mo-Fr 09:00-21:00; Sa 10:30-18:00; Su 11:00-16:00,755,43.6792629,-79.3422668,Shoppers Drug Mart,,,,,,,Danforth Avenue,http://www.shoppersdrugmart.ca/,
,Shoppers Drug Mart,,,yes,,,,,43.7452151,-79.3249607,Shoppers Drug Mart,,,,,,,,http://www.shoppersdrugmart.ca/,
,,,,,,,,,43.7264448,-79.3126967,Phil-way Pharmacy,,,,,,,,,
,Pharmasave,,,,,,,,43.7070444,-79.2695459,Pharmasave,,,,,,,,,no
,Food Basics,,,,,,,,43.7841944,-79.2034768,Food Basics,,,,,,,,,
,Shoppers Drug Mart,,,yes,,,,,43.7973370,-79.2722887,Shoppers Drug Mart,,,,,,,,http://www.shoppersdrugmart.ca/,
,Shoppers Drug Mart,,,yes,,,,1840,43.6957415,-79.4508704,Shoppers Drug Mart,,,,,,,Eglinton Avenue West,http://www.shoppersdrugmart.ca/,
Bathurst Wilson Pharmacy,I.D.A.,North York,,yes,,,,322,43.7371248,-79.4367567,I.D.A.,,,,,M3H 1S8,,Wilson Avenue,,
,Shoppers Drug Mart,,,yes,,,,,43.7848113,-79.4461444,Shoppers Drug Mart,,,,,,,,http://www.shoppersdrugmart.ca/,
Welcome Guardian Drugs,Guardian,Toronto,,,,,Mo-Fr 08:30-21:00; Sa 09:00-18:00; Su 10:00-17:00; PH 10:00-17:00,1881,43.6978978,-79.3963032,Guardian,,,,+1-416-480-1420;+1-416-480-1340 (post office),M4S 3C0,,Yonge Street,,
,I.D.A.,,,,,,,,43.7468096,-79.1994060,I.D.A.,,,,,,,,,
,Guardian,,,yes,,,,,43.6801003,-79.4322785,Guardian,,,,,,,,,
,,,,yes,,,,,43.6798317,-79.4354650,,,,,,,,,,
,Guardian,,,,,,,,43.6814890,-79.4259270,Christie Guardian Pharmacy,,,,,,,,,
,,Toronto,,yes,,,,3016,43.6655900,-79.4699454,Junction Pharmacy,,,,,,,Dundas Street West,,
,Rexall,North York,,yes,,,,3402,43.7330121,-79.4044708,Rexall,,,,+1-416-544-0746,M4N 2M9,,Yonge Street,https://www.rexall.ca/,
,,,,,,,,,43.6515047,-79.3805592,Pharmamart,,,,,,,,,
,Shoppers Drug Mart,,,yes,,,24/7,2428,43.7330733,-79.2676115,Shoppers Drug Mart,,,,,,,Eglinton Avenue East,http://www.shoppersdrugmart.ca/,
,,Toronto,,,,,,1169,43.6492467,-79.4216560,Main Drug Mart,,,,+1-416-536-2139,,,Dundas Street West,,yes
,,,,,,,,,43.7700821,-79.3748531,The Medicine Shoppe,,,,,,,,,
,,Toronto,,,,,,149,43.6438423,-79.4479194,Solarski,,,,,,,Roncesvalles Avenue,,
,Rexall,,,yes,,,,,43.7071726,-79.3987002,Rexall,,,,,,,,,limited
,I.D.A.,,,yes,,,,,43.7074398,-79.3958787,I.D.A.,,,,,,,,,yes
,Shoppers Drug Mart,Toronto,,yes,,,,1507,43.6893355,-79.3943034,Shoppers Drug Mart,,,,+1-416-923-7700,M4T 1Z2,,Yonge Street,http://www.shoppersdrugmart.ca/,
,Shoppers Drug Mart,Toronto,,yes,,,Mo-Su 08:00-24:00,970,43.6611728,-79.3403801,Shoppers Drug Mart,,,,,,,Queen Street East,,
,Pharmasave,,,yes,,,,,43.7576656,-79.4091183,Pharmasave,,,,,,,,,
,Guardian,,,yes,,,,,43.7716651,-79.2093729,Guardian,,,,,,,,,
,Shoppers Drug Mart,,,yes,,,,,43.7253490,-79.2306562,Shoppers Drug Mart,,,,,,,,http://www.shoppersdrugmart.ca/,yes
,Pharmasave,,,,,,,,43.7376741,-79.2173068,Pharmasave,,,,,,,,,
,Rexall,North York,,yes,,,,5650,43.7805898,-79.4161656,Rexall,,,,+1-416-733-2661,,,Yonge Street,,
,Shoppers Drug Mart,,,yes,,,-00:00,,43.7849377,-79.3098593,Shoppers Drug Mart,,,,,,,,http://www.shoppersdrugmart.ca/,
,Shoppers Drug Mart,North York,,yes,,,,2047,43.7363090,-79.4198481,Shoppers Drug Mart,,,,,,,Avenue Road,http://www.shoppersdrugmart.ca/,yes
,Rexall,,,yes,,,,,43.7085890,-79.2486991,Rexall,,,,,,,,,
,I.D.A.,,,,,,,,43.7901327,-79.1743376,I.D.A.,,,,,,,,,
,Remedy'sRx,Toronto,,,,,Mo-Sa 09:30-19:00; Su closed,2262,43.6509097,-79.4779829,Remedy'sRx,,,,,,,Bloor Street West,,
,Pharmasave,,,,,,,,43.6890819,-79.3487977,Pharmasave,,,,,,,,,
,Guardian,,,yes,,,,,43.7057407,-79.4420802,Guardian,,,,,,,,,
,,,,yes,,,,,43.6890485,-79.2782119,Main Drug Mart,,,,,,,,,
,,Toronto,,yes,,,,219,43.6747361,-79.3955795,Davenport Pharmacy,,,,,,,Davenport Road,,
,Shoppers Drug Mart,Toronto,,yes,,,24/7,2345,43.7088320,-79.3985216,Shoppers Drug Mart,,,,,,,Yonge Street,http://www.shoppersdrugmart.ca/,yes
,,Toronto,,yes,,,,2399-2401,43.7101286,-79.3989111,Main Drug Mart,,,,,,,Yonge Street,,
,Pharmasave,North York,,,,,,4430,43.7571237,-79.4391758,Pharmasave,,,,,,,Bathurst Street,,
,,North York,,yes,,,,491,43.7192148,-79.4288823,Peoples Drug Mart,,,,,,,Lawrence Avenue West,,
,,,,yes,,,,,43.7806000,-79.4154489,North York Pharmacy,,,,,,,,,
,,,,yes,,,,,43.7471346,-79.2851653,Extra Care Pharmacy,,,,,,,,,
,Food Basics,,,yes,,,,,43.7460309,-79.2879377,Food Basics,,,,,,,,,
,,,,yes,,,,,43.7474882,-79.2871885,Main Drug Mart,,,,,,,,,
,Remedy'sRx,Toronto,,yes,,,,901,43.6632925,-79.3863346,Remedy'sRx,,,,,,,Bay Street,,
,Rexall,,,,,,,,43.7646003,-79.3980471,Rexall,,,,,,,,,
,Food Basics,,,,,,,,43.7761811,-79.3248523,Food Basics,,,,,,,,,
,,Toronto,,yes,,,Mo-Fr 08:00-19:00,123,43.6557636,-79.3864328,Victor Pharmacy,,,,+1-416-597-0366,M5G 1E2,,Edward Street,,
,Shoppers Drug Mart,,,yes,,,,,43.7838799,-79.2895238,Shoppers Drug Mart,,,,,,,,http://www.shoppersdrugmart.ca/,
,,,,yes,,,,,43.7634814,-79.4895209,Main Drug Mart,,,,,,,,,
,Rexall,,,yes,,,,,43.6777981,-79.3583537,Rexall,,,,,,,,http://www.rexall.ca/,
,Rexall,Toronto,,yes,,,,63,43.6655689,-79.3811759,Rexall,,,,+1-416-924-7760,,,Wellesley Street East,,yes
,Pharmasave,,,,,,,,43.7320291,-79.2674612,Pharmasave,,,,,,,,,
,,Toronto,,,,,Mo-Fr 09:00-19:00; Sa 09:00-17:00; Su closed,1938,43.6534032,-79.4668148,Meds Pharmacy,,,,+1-416-769-2222,M6P 3K8,,Bloor Street West,https://www.medspharmacy.ca/,
,Shoppers Drug Mart,,,yes,,,,,43.6931821,-79.5570342,Shoppers Drug Mart,,,,,,,Kipling Avenue,http://www.shoppersdrugmart.ca/,
,Shoppers Drug Mart,,,yes,,,,,43.6579391,-79.3302342,Shoppers Drug Mart,,,,,,,,http://www.shoppersdrugmart.ca/,
Kassam Pharmacy Inc.,Shoppers Drug Mart,Toronto,,yes,,,until 00:00,755,43.7077154,-79.3895451,Shoppers Drug Mart,,,,,M4S 2N4,,Mount Pleasant Road,http://www.shoppersdrugmart.ca/,
,,Toronto,,yes,,,,1849,43.6971196,-79.3960902,Total Pharmacy,,,,,,,Yonge Street,,
,,North York,,yes,,,,78,43.7812919,-79.4101021,,,,,,,,Finch Avenue East,,
,Shoppers Drug Mart,Toronto,,yes,,,Mo-Su 08:00-00:00,260,43.6498323,-79.3919735,Shoppers Drug Mart,,,,,,,Queen Street West,http://www.shoppersdrugmart.ca/,
Bay-College Drug Mart,I.D.A.,,,yes,,,,,43.6604322,-79.3859245,I.D.A.,,,,,,,,,
,,,,,,,,,43.6299178,-79.4770010,Lakeshore West Pharmacy,,,,,,,,,
,Shoppers Drug Mart,,,yes,,,Mo-Fr 07:00-18:30,,43.6513128,-79.3797888,Shoppers Drug Mart,,,,,,,,http://www.shoppersdrugmart.ca/,
,Rexall,,,yes,,,,,43.6883518,-79.3936221,Rexall,,,,,,,,,
,Rexall,,,yes,,,Mo-Fr 07:00-18:30,,43.6466713,-79.3873938,Rexall,,,,,,,,,
,,Toronto,,yes,,,,8,43.6404221,-79.3807486,Harbourfront Medicine Cabinet,,,,+1-416-366-3669,M5J 2Y5,,York Street,,
,,Toronto,,yes,,,,1674,43.6775493,-79.4431040,Nova Pharmacy,,,,,,,Dufferin Street,,
,,,,,,,,,43.7062269,-79.2890605,,,,,,,,,,
,Rexall,,,yes,,,,,43.7372936,-79.2494249,Rexall,,,,,,,,,yes
,,,,,,,,,43.6590672,-79.3908894,U&C Pharmacy,,,,,,,,,
,,,,yes,,,,,43.7964354,-79.3188704,Gateway Pharmacy,,,,,,,,,
Ambulatory Patient Pharmacy,,,,yes,,,,,43.7216899,-79.3765725,Sunnybrook Pharmacy,,,,,,,,,yes
Rexall IDA,I.D.A.,,,,,,,,43.7324407,-79.2691703,I.D.A.,,,,,,,,,
,I.D.A.,,,yes,,,,,43.7271586,-79.2655573,Shop Rite I.D.A. Pharmacy,,,,,,,,,
,,,,,,,,,43.7316315,-79.2682767,Pharmore Kennedy Medical Centre,,,,,,,,,
,Shoppers Drug Mart,,,yes,,,,,43.7586236,-79.4662372,Shoppers Drug Mart,,,,,,,,http://www.shoppersdrugmart.ca/,
,Rexall,,,,,,,,43.6560380,-79.3828700,Rexall,,,,,,,,http://www.rexall.ca/,yes
,,,,,,,,,43.6740260,-79.3879590,,,,,,,,,,
,,Toronto,,,,,,1351,43.6860459,-79.3930636,C.C. Pharmacy,,,,,,,Yonge Street,,
,,Toronto,,,,,,208,43.6685376,-79.3958877,Konop Chemists,,,,,,,Bloor Street West,,yes
,Rexall,,,,,,,,43.6885370,-79.4124280,Rexall,,,,,,,,http://www.rexall.ca/,
,Shoppers Drug Mart,,,yes,,,,,43.6476245,-79.3812395,Shoppers Drug Mart,,,,,,,,http://www.shoppersdrugmart.ca/,
,,,,,,,,,43.7794505,-79.3066964,Sheppard Warden Pharmacy,,,,,,,,,
,Rexall,,,,,,,,43.7804935,-79.2981441,Rexall,,,,,,,,http://www.rexall.ca/,
,,,,,,,,,43.7010090,-79.4261000,Eglinton Bathurst Pharmacy,,,,,,,,,
,Rexall,,,yes,,,,,43.6490903,-79.3815653,Rexall,,,,,,,,,yes
,,,,,,,,,43.6519468,-79.3979747,Toronto Manning Drug Mart,,,,,,,,,
,Shoppers Drug Mart,,,yes,,,,1800,43.7787292,-79.3446122,Shoppers Drug Mart,,,,,,,Sheppard Avenue East,http://www.shoppersdrugmart.ca/,yes
,Rexall,,,,,,,,43.6577333,-79.3900615,Rexall,,,,,,,,http://www.rexall.ca/,
,,,,,,,,,43.6557180,-79.3921760,Loywood Medical Pharmacy,,,,,,,,,
,Shoppers Drug Mart,East York,,yes,,,,1531,43.7063262,-79.3751848,Shoppers Drug Mart,,,,+1-416-489-1873,M4G 3B5,,Bayview Avenue,http://www.shoppersdrugmart.ca/,
,Shoppers Drug Mart,Toronto,,yes,,,Mo-Su 08:00-24:00,236,43.6683115,-79.3968395,Shoppers Drug Mart,yes,,,+1-416-927-0440,M5S 1T8,,Bloor Street West,http://www.shoppersdrugmart.ca/,yes
,Rexall,,,,,,,,43.6965999,-79.3694871,Rexall,,,,,,,,,
,Shoppers Drug Mart,Toronto,,yes,,,Mo-Sa 08:00-00:00,3366,43.7322280,-79.4043970,Shoppers Drug Mart,,,,+1-416-483-3018,M4N 2M7,,Yonge Street,http://www.shoppersdrugmart.ca/,
Rexall I.D.A. Nor Arm Pharmacy,I.D.A.,North York,,yes,,,Mo-Fr 09:30-18:30,1280,43.7643970,-79.4889080,I.D.A.,,,,,M3J 3H5,,Finch Avenue West,,
,,,,,,,,,43.6408964,-79.3935411,Metropolitan Pharmacy,,,,,,,,,
,Pharmasave,,,,,,,,43.7272910,-79.3265360,Pharmasave,,,,,,,,,
,,,,,,,,,43.7812948,-79.4444440,Main Drug Mart,,,,,,,,,
,,Toronto,,,,,,245,43.7084060,-79.3891420,Mt. Pleasant Pharmacy,,,,+1-416-488-3232,,,Eglinton Avenue East,,
,Shoppers Drug Mart,,,yes,,,,,43.7197797,-79.5105730,Shoppers Drug Mart,,,,,,,,http://www.shoppersdrugmart.ca/,
,,,,,,,,,43.8041480,-79.2867100,,,,,,,,,,
,I.D.A.,,,,,,,,43.8204550,-79.2616870,I.D.A.,,,,,,,,,
,,,,yes,,,,,43.7837065,-79.1703804,Highland Creek Pharmacy,,,,,,,,,
,,Toronto,,,,,Sa-Su 09:30-14:30; Mo-Th 09:00-20:00; Fr 09:00-19:00,449,43.6485180,-79.3968920,Health Choice Pharmacy,,,,+1-416-593-9711,M5V 2A9,,Queen Street West,https://thpharmacy.com/,
,Rexall,,,yes,,,,,43.5931672,-79.5383445,Rexall,,,,,,,,http://www.rexall.ca/,
,,,,,,,,,43.6709720,-79.3898030,Markie Pharmacy,,,,,,,,,
,Shoppers Drug Mart,,,yes,,,,,43.7973523,-79.1511773,Shoppers Drug Mart,,,,,,,,http://www.shoppersdrugmart.ca/,
,Shoppers Drug Mart,Toronto,,yes,,,,528,43.7191541,-79.4325020,Shoppers Drug Mart,,,,+1-416-781-6128,M6A 2A1,,Lawrence Avenue West,http://www.shoppersdrugmart.ca/,limited
,Shoppers Drug Mart,North York,,yes,,,,1859,43.7546291,-79.3597080,Shoppers Drug Mart,,,,,,,Leslie Street,http://www.shoppersdrugmart.ca/,yes
,Shoppers Drug Mart,Toronto,,yes,,,Mo-Su 09:00-21:00,1473,43.6399763,-79.4390501,Shoppers Drug Mart,,,,+1-416-530-2799,M6R 1A1,,Queen Street West,http://www.shoppersdrugmart.ca/,yes
,,Toronto,,,,,,2891,43.6008925,-79.5038990,Don Russell Pharmacy,,,,+1-416-251-2201,,,Lake Shore Boulevard West,,
,Shoppers Drug Mart,,,yes,,,,,43.6015878,-79.5022250,Shoppers Drug Mart,,,,,,,,http://www.shoppersdrugmart.ca/,
,,,,yes,,,,,43.6260128,-79.5033266,Royal Pharmacy,,,,+1-416-251-3007,,,,,
,,Etobicoke,,,,,,396,43.6193503,-79.4998498,Kassel's Pharmacy,,,,+1-416-251-1126,,,Royal York Road,http://kasselspharmacy.com/,
,,,,yes,,,,,43.6175066,-79.4875616,Akron's Guardian Pharmacy,,,,,,,,,
IDA Mimico Pharmacy,I.D.A.,,,yes,,,,,43.6147510,-79.4889995,I.D.A.,,,,,,,,,
,Pharmasave,,,,,,,,43.6148665,-79.5575523,Pharmasave,,,,,,,,,
,Shoppers Drug Mart,,,yes,,,,,43.6528291,-79.3799020,Shoppers Drug Mart,,,,,,,,http://www.shoppersdrugmart.ca/,
,Pharmasave,,,,,,,3346,43.5963606,-79.5260977,Pharmasave,,,,,,,Lake Shore Boulevard West,https://pharmasave.com/store/pharmasave-lake-shore-pharmacy/,
,,,,yes,,,Mo-Fr 10:00-19:00; Sa 11:00-15:00,,43.7558548,-79.4377965,New Canyon Pharmacy,,,,,,,,,
,,,,,,,,,43.7759490,-79.3222890,Rexall Guardian Green Cross Pharmacy,,,,,,,,,
,,,,,,,,,43.7710550,-79.3699500,Main Drug Mart,,,,,,,,,
,Shoppers Drug Mart,,,yes,,,,,43.7750696,-79.3224537,Shoppers Drug Mart,,,,,,,,http://www.shoppersdrugmart.ca/,
,,,,,,,,,43.6213245,-79.5260977,Get Well Pharmacy,,,,+1-416-259-4747,,,,,
,,,,yes,,,,,43.7889850,-79.2578150,Main Drug Mart,,,,,,,,,limited
C. Goods Drugs Ltd.,Shoppers Drug Mart,North York,,yes,,,,3401,43.7255541,-79.4552028,Shoppers Drug Mart,,,,+1-416-789-1201,M6A 2T9,,Dufferin Street,http://www.shoppersdrugmart.ca/,
,,,,yes,,,,,43.7180162,-79.3307509,,,,,,,,,,
,,,,,,,,,43.5978459,-79.5438866,Wellness Centre Pharmacy,,,,+1-416-621-2548,,,,,
,,,,,,,,,43.6931722,-79.4624413,New Caledonia Pharmacy,,,,,,,,,
,,,,,,,Mo-Fr 09:30-19:00; Sa 09:00-17:00; Su closed,411,43.6587122,-79.4881528,Lingeman IDA Pharmacy,,,,+1-416-767-8409,,,Jane Street,https://www.guardian-ida-pharmacies.ca/en/ontario/toronto/lingeman-ida-pharmacy-7028510,
,Shoppers Drug Mart,Toronto,,yes,,,,2440,43.6591684,-79.4530098,Shoppers Drug Mart,,,,,M6P 1W9,,Dundas Street West,http://www.shoppersdrugmart.ca/,
Rexall I.D.A. Gabriel Medical Pharmacy,I.D.A.,,,,,,,,43.7684761,-79.3810887,I.D.A.,,,,,,,,,
,,,,,,,,,43.7686575,-79.3775042,Shoppers Simply Pharmacy,,,,,,,,,
,,,,,,,,,43.7200070,-79.4326480,Shoppers HomeHealthCare,,,,,,,,,
,Pharmasave,Toronto,,,,,,2388,43.6499197,-79.4825323,Pharmasave,,,,,,,Bloor Street West,,yes
,,,,yes,,,,,43.6358920,-79.5399423,Dundas Kipling Pharmacy,,,,,,,,,
,Shoppers Drug Mart,,,yes,,,,,43.7916185,-79.4443447,Shoppers Drug Mart,,,,,,,,http://www.shoppersdrugmart.ca/,
I.D.A. Whiteside Pharmacy,I.D.A.,,,yes,,,,,43.6744328,-79.4599201,I.D.A.,,,,,,,,,
,,,,,,,,,43.7908271,-79.3671020,HuiChunTang Chinese Pharmacy,,,,,,,,,
Rexall - IDA,I.D.A.,,,,,,,,43.6823394,-79.4713135,I.D.A.,,,,,,,,,
Guardian Family Health Pharmacy,Guardian,East York,,,,,,1450,43.7136618,-79.3068003,Guardian,,,,+1-416-285-7670,,,O'Connor Drive,,
Welcome Guardian Pharmacy,Guardian,Toronto,,,,,Mo-Fr 08:30-04:00,837,43.6794903,-79.3406068,Guardian,,,,+1-416-466-8787,,,Danforth Avenue,,
,,,,,,,,,43.7895756,-79.4175882,Willowdale Pharmacy,,,,,,,,,
,,,,,,,,,43.7890287,-79.4183186,9-eleven Drug Market,,,,,,,,,
,Rexall,,,yes,,,Mo-Su 07:00-22:00,,43.6482167,-79.3738679,Rexall,,,,,,,,,yes
,I.D.A.,,,yes,,,,,43.6957813,-79.4490590,I.D.A.,,,,,,,,,
,,,,,,,,,43.6673659,-79.3727467,Lord's Pharmacy,,,,,,,,,
,,,,yes,,,,,43.6564816,-79.3761072,Metro Drugs,,,,,,,,,
,Shoppers Drug Mart,,,yes,,,,,43.7127043,-79.4279927,Shoppers Drug Mart,,,,,,,,http://www.shoppersdrugmart.ca/,
,Rexall,,,yes,,,,,43.6506220,-79.3870133,Rexall,,,,,,,,http://www.rexall.ca/,yes
Rexall I.D.A. Pharmacy by the Grange,I.D.A.,,,yes,,,,,43.6541963,-79.3906072,I.D.A. Pharmacy by the Grange,,,,,,,,,
,,Toronto,,,,,,360,43.6572993,-79.4043338,Augusta Central Pharmacy,,,,+1-416-961-6692,,,College Street,,yes
,,,,,,,,,43.6776327,-79.4434554,Biopharmacy,,,,,,,,,
Craig W. Smith Pharmacy Ltd.,Shoppers Drug Mart,Etobicoke,,yes,,,,25,43.6109556,-79.5584004,Shoppers Drug Mart,,,,+1-416-621-2466,M9C 1B8,,The West Mall,http://www.shoppersdrugmart.ca/,
,,,,,,,,,43.6725820,-79.3200337,L & A Pharmacy,,,,,,,Gerrard Street East,,
,I.D.A.,,,yes,,,Mo-Fr 09:00-21:00,,43.7753375,-79.3360997,I.D.A.,,,,,,,,,
,Shoppers Drug Mart,,,yes,,,,,43.7411917,-79.4352996,Shoppers Drug Mart,,,,,,,,http://www.shoppersdrugmart.ca/,
,Shoppers Drug Mart,,,yes,,,,,43.6439215,-79.4190102,Shoppers Drug Mart,,,,,,,,http://www.shoppersdrugmart.ca/,
,Shoppers Drug Mart,,,yes,,,,,43.8084110,-79.2697737,Shoppers Drug Mart,,,,,,,,http://www.shoppersdrugmart.ca/,
,,,,yes,,,,,43.7737856,-79.3409023,Health Drug Mart,,,,,,,,,
,Shoppers Drug Mart,,,yes,,,,,43.6970025,-79.5016838,Shoppers Drug Mart,,,,,,,,http://www.shoppersdrugmart.ca/,
,Remedy'sRx,,,yes,,,,,43.6600927,-79.5137017,Remedy'sRx,,,,,,,,,
,,,,yes,,,,,43.6887189,-79.3256005,Rumball Drug Mart,,,,,,,,,
,Rexall,,,yes,,,,,43.7683310,-79.4131418,Rexall,,,,,,,,,
,Shoppers Drug Mart,Toronto,,yes,,,Mo-Su 08:00-22:00,18,43.6476414,-79.3709362,Shoppers Drug Mart,,,,+1-416-203-3700,M5E 1N1,,Lower Jarvis Street,http://www.shoppersdrugmart.ca/,yes
,Rexall,,,yes,,,,,43.6318736,-79.5551867,Rexall,,,,,,,,http://www.rexall.ca/,
,Shoppers Drug Mart,,,yes,,,,,43.6829908,-79.5662745,Shoppers Drug Mart,,,,,,,,http://www.shoppersdrugmart.ca/,
,,Scarborough,,,,,,2296,43.7308529,-79.2757664,Scarborough Pharmacy,,,,,,,Eglinton Avenue East,,
,Shoppers Drug Mart,,,yes,,,,,43.7489547,-79.5602282,Shoppers Drug Mart,,,,,,,,http://www.shoppersdrugmart.ca/,
,Shoppers Drug Mart,,,yes,,,,,43.7863229,-79.4691375,Shoppers Drug Mart,,,,,,,,http://www.shoppersdrugmart.ca/,
,Shoppers Drug Mart,Toronto,,yes,,,,2528,43.7468827,-79.3846841,Shoppers Drug Mart,,,,,M2L 1A9,,Bayview Avenue,http://www.shoppersdrugmart.com/,
,,,,,,,,,43.6686905,-79.3723719,St. James Drug Mart,,,,,,,,,
,,,,yes,,,,,43.6711478,-79.3750842,Howard Pharmacy,,,,,,,,,
,,,,yes,,,,,43.6804675,-79.4730698,Keele & Rogers Medical Centre Pharmacy,,,,+1-416-651-5332,,,,,
,,Etobicoke,,yes,,,Mo-Th 09:00-20:00; Fr 09:00-19:00; Sa 09:00-16:00,2141,43.7197182,-79.5695902,Kipling Pharmacy,,,,,M9W 4K8,,Kipling Avenue,,
,,Etobicoke,,,,,,1206,43.6219718,-79.5234358,Danny's Wellness Pharmacy,,,,+1-416-901-1206,,,The Queensway,,
,Shoppers Drug Mart,,,yes,,,until 22:00,,43.6230194,-79.4824595,Shoppers Drug Mart,,,,,,,,http://www.shoppersdrugmart.ca/,
,Rexall,,,yes,,,,,43.6411367,-79.3784133,Rexall,,,,,,,,,yes
Guardian Eringate Pharmacy,Guardian,,,,,,,,43.6606415,-79.5820808,Guardian,,,,,,,,,
,Shoppers Drug Mart,,,yes,,,,,43.7699656,-79.1853111,Shoppers Drug Mart,,,,,,,,http://www.shoppersdrugmart.ca/,
Sam's Pharmacy,I.D.A.,Toronto,,,yongepharmacy@gmail.com,+1-416-483-8915,Mo-Fr 09:00-21:00; Sa 09:00-19:00; Su 10:00-19:00,1920,43.6987194,-79.3969091,I.D.A.,,,,+1-416-483-3003,,,Yonge Street,http://www.ida-pharmacy.ca/,yes
,Guardian,,,yes,,,,,43.7513779,-79.2635084,Guardian,,,,,,,,,
,Remedy'sRx,,,yes,,,,,43.6371292,-79.3959932,Remedy'sRx,,,,,,,,,
,,,,,,,,,43.7315964,-79.5992253,Humber Green Pharmacy,,,,,,,,,
,,,,,,,,,43.7312395,-79.6003168,Permanent Drug Mart,,,,,,,,,
,Rexall,,,yes,,,,,43.7612636,-79.4102202,Rexall,,,,,,,,,
,,,,yes,,,,,43.6678958,-79.3433037,Medi Choice Pharmacy,,,,,,,,,
,Rexall,,,yes,,,,,43.6496473,-79.3832647,Rexall,,,,,,,,,yes
FamilyCare Pharmacy,,Toronto,,yes,,,,1209,43.6389440,-79.4265186,Family Care Pharmacy,,,,,,,King Street West,,
,,Toronto,,yes,,,,1204,43.6390015,-79.4276774,Charles Pharmacy,,,,,,,King Street West,,
,Pharmasave,,,yes,,,,,43.8008131,-79.2002373,Pharmasave,,,,,,,,,
,,,,,,,,,43.7973773,-79.3154149,NewTowne,,,,,,,,,
,,,,yes,,,Mo-Fr 09:00-21:00; Sa 09:00-18:00; Su 11:00-17:00,,43.6490752,-79.3730139,Metro Pharmacy,,,,,,,,,yes
,,,,yes,,,,,43.7776456,-79.3085524,Warden Medical Pharmacy,,,,,,,,,
,I.D.A.,,,yes,,,,,43.7773565,-79.2326953,I.D.A.,,,,,,,,,
,,,,,,,,,43.7775580,-79.3113848,FARS Medical Pharmacy,,,,,,,,,
,,,,yes,,,,,43.7043896,-79.3498982,Main Drug Mart,,,,,,,,,yes
,,,,,,,,,43.6526297,-79.3988314,Vita Pharmacy,,,,,,,,,
,Shoppers Drug Mart,Scarborough,,,,,,85,43.7579845,-79.3112878,Shoppers Drug Mart,,,,,M1R 4B7,,Ellesmere Road,,
,,,,yes,,,,,43.7021326,-79.5224919,West King Pharmacy,,,,,,,,,
,,,,,,,,,43.6506452,-79.5803342,Renforth IDA Pharmacy,,,,,,,,,
,I.D.A.,,,,,,,,43.7209109,-79.6144696,I.D.A.,,,,,,,,,
,Guardian,,,yes,,,,,43.6326238,-79.5447799,Guardian,,,,,,,,,
,,,,,,,,,43.7502954,-79.5427024,Terrace Square Pharmacy,,,,,,,,,
,Shoppers Drug Mart,Toronto,,yes,,,,2494,43.6880294,-79.3032774,Shoppers Drug Mart,,,,+1-416-698-1888,M4C 1K9,,Danforth Avenue,,
,,Toronto,,,,,,574,43.6675517,-79.3694752,Dale's Pharmacy,,,,+1-416-921-5700,M4X 1P8,,Parliament Street,https://dalespharmacy.ca/,
,,,,,,,,,43.6095963,-79.5472529,Trillium Drug Mart,,,,,,,,,
,,,,yes,,,,,43.6495194,-79.3676547,St. Lawrence Pharmacy,,,,,,,,,
,,,,yes,,,,,43.7594449,-79.3100250,Ellesmere Pharmacy,,,,,,,,,
,,,,yes,,,,,43.6606184,-79.3662373,Main Drug Mart,,,,,,,,,
,,,,yes,,,,,43.7081445,-79.4781924,Demarco Pharmacy,,,,,,,,,
,,,,yes,,,,,43.6705090,-79.4930844,White's Pharmacy,,,,+1-416-762-8221,,,,,
,Rexall,,,yes,,,,,43.7486260,-79.3116483,Rexall,,,,,,,,,
,I.D.A.,,,yes,,,,1300,43.7454105,-79.3461328,I.D.A.,,,,,,,Don Mills Road,,
,Rexall,,,,,,,,43.7686660,-79.1871797,Rexall,,,,,,,,,
,,North York,,yes,,,,895,43.7358581,-79.3472758,Don Mills + Lawrence Pharmacy,,,,,,,Lawrence Avenue East,,
,,,,yes,,,,,43.6565285,-79.3564471,Health Shield Pharmacy,,,,,,,,,
,,,,yes,,,,,43.6655810,-79.3514644,Broadcon Pharmacy,,,,,,,,,
,Walmart,,,,,,,,43.7771075,-79.2588702,Walmart Pharmacy,,,,,,,,,
,,,,yes,,,,114,43.6703022,-79.3916270,Kingsway Drugs,,,,+1-416-962-3544,,,,,
,PharmaChoice,,,,,,,,43.7010611,-79.5109697,PharmaChoice,,,,+1-416-235-1500,,,,,
Eagle Manor Pharmacy,Pharmasave,,,yes,,,,,43.7004448,-79.5165659,Pharmasave,,,,+1-416-241-1115,,,,http://westonvillagebia.com/node/217,
,,,,,,,,,43.7524483,-79.2620028,,,,,,,,,,
,,,,,,,,,43.7778917,-79.2631028,Loblaw Pharmacy,,,,,,,,,
,,,,yes,,,,,43.7344361,-79.2572459,Midland/Eglinton Pharmacy,,,,,,,,,
C.J. Singh Healthcare Inc.,Shoppers Drug Mart,Toronto,,yes,,,,761,43.6431093,-79.4058905,Shoppers Drug Mart,,,,+1-416-306-0311,M5V 1N4,,King Street West,,yes
,,Etobicoke,,yes,,,,900,43.7348001,-79.5590500,Albion Medical Pharmacy,,,,+1-647-722-2370,M9V 1A5,,Albion Road,,yes
,,,,,,,,,43.6532175,-79.5729848,Rathburn Healthplex PharmaCare,,,,,,,,,
,,North York,,yes,,,,2726,43.7432277,-79.5144546,Stanley Life Care Pharmacy,,,,,M3L 2N1,,Jane Street,,
,,Toronto,,yes,,,,302,43.6533999,-79.3985407,R.K. Pharmacy,,,,,,,Spadina Avenue,,
,Rexall,,,,,,,,43.6531278,-79.3978246,Rexall,,,,,,,,,
HealthCareMart Pharmacy,,Toronto,,,,,"Mo-Fr 06:00-18:00, Sa 09:00-18:00, Su 09:00-13:00",1173,43.6425920,-79.4259855,Health Care Mart Pharmacy,,,,,M6J 1J6,,Queen Street West,,
,Rexall,,,,,,,,43.6680923,-79.4408829,Rexall,,,,,,,,,yes
,,,,,,,,,43.5899635,-79.5450666,Solara Pharmacy,,,,+1-416-259-2000,,,,,
,Remedy'sRx,,,yes,,,,,43.7519353,-79.2612317,Remedy'sRx,,,,,,,,,
,,,,,,,,,43.6758147,-79.3581875,Broadview Medical Pharmacy,,,,,,,,,
,,,,,,,,,43.6826579,-79.4634448,,,,,,,,,,
,,Toronto,,,,,,1290,43.6586467,-79.4420394,Metro Drugs,,,,,,,Bloor Street West,http://www.metrodrugs.ca/,
,,Toronto,,,,,,1254,43.6589853,-79.4403523,Ultra Bloor Pharmacy,,,,+1-416-792-3021,,,Bloor Street West,,
Andrew's Pharmacy,Pharmasave,,,,,,,3832,43.6413074,-79.5384056,Pharmasave,,,,+1-416-231-0007,,,Bloor Street West,https://pharmasave.com/store/pharmasave-andrews-pharmacy/,
,Shoppers Drug Mart,,,yes,,,,,43.7002950,-79.4278599,Shoppers Drug Mart,,,,,,,,,
,Rexall,,,yes,,,,,43.7004230,-79.4272015,Rexall,,,,,,,,,
,,,,,,,,,43.8103727,-79.2798248,Brimley Pharmacy,,,,,,,,,
,Rexall,,,,,,,,43.7287782,-79.4179727,Rexall,,,,,,,,,
Islington Village PharamaPlus Drugmart,Rexall,,,,,,,,43.6494215,-79.5284106,Rexall,,,,,,,,,
,I.D.A.,,,,,,,,43.6806754,-79.2828786,I.D.A.,,,,,,,,,
,,,,,,,,,43.6901438,-79.2876943,Main Drug Mart,,,,,,,,,
,,,,,,,,,43.7537334,-79.4879506,JC Pharmacy,,,,,,,,,
,,,,yes,,,,,43.8008112,-79.3000473,Finch Discount Pharmacy,,,,,,,,,
,Remedy'sRx,,,yes,,,,,43.8008974,-79.3001023,Remedy'sRx,,,,,,,,,
,,,,,,,,,43.7691984,-79.3706253,,,,,,,,,,
,Shoppers Drug Mart,,,yes,,,,,43.7141980,-79.3780084,Shoppers Drug Mart,,,,,,,,,yes
,Rexall,,,yes,,,,,43.7257371,-79.4835666,Rexall,,,,,,,,,
,,North York,,,,,,3292,43.7898221,-79.3935986,Metro Drugs,,,,+1-416-223-3332,,,Bayview Avenue,,yes
,Shoppers Drug Mart,,,yes,,,,,43.7745211,-79.5009839,Shoppers Drug Mart,yes,yes,yes,,,,,,
,,Toronto,,,,,,557,43.6672770,-79.3814600,Well + Good Pharmacy,,,,+1-416-532-5007,,,Church Street,,yes
,,Toronto,,,,,,499,43.6559372,-79.4096394,The Palmerston Pharmacy & HomeCare,,,,+1-416-929-4499,,,College Street,,yes
,,Toronto,,,,,,528,43.6559573,-79.4108962,College Pharmacy II,,,,+1-416-944-9793,,,College Street,,yes
,,Toronto,,,,,,673,43.6550394,-79.4171562,College Drug Mart,,,,+1-416-516-4978,,,College Street,,yes
Duke Pharmacy,Remedy'sRx,Toronto,,,,,,2798,43.6654874,-79.4626692,Remedy'sRx,,,,+1-416-767-8800,,,Dundas Street West,,yes
,,,,,,,,,43.6920928,-79.4674607,Walk In Clinic Westside Pharmacy,,,,,,,,,
,,,,,,,,,43.6815864,-79.3326250,Danforth Central Walk-In Clinic & Pharmacy,,,,,,,,,
,Shoppers Drug Mart,Toronto,,yes,,,,4990,43.7658425,-79.4123348,Shoppers Drug Mart,,,,,M2N 0A1,,Yonge Street,,
,,Etobicoke,,,,,,1111,43.7370673,-79.5658425,Medi Plus Pharmacy,,,,+1-416-744-8264,M9V 1A9,,Albion Road,,no
,,Toronto,,,,,,474,43.6563417,-79.4091983,College Medical Pharmacy,,,,+1-416-961-2191,M6G 1A4,,College Street,,yes
,,Toronto,,,,,,828,43.6517553,-79.4092931,Dr. Daniel Wong M.D.Dundas Euclid Pharmacy,,,,+1-416-693-6688,M6J 1V3,,Dundas Street West,,yes
,,Toronto,,,,,,565,43.6553282,-79.4127287,St.Michael's Drug Mart,,,,+1-416-532-2881,M6G 1B2,,College Street,,no
,,Toronto,,,,,,461,43.6642282,-79.3802027,MedsEXPERT Pharmacy,,,,+1-416-992-6337,M4Y 2C5,,Church Street,https://www.medsexpert.ca,no
,,Toronto,,,,,,453,43.6640386,-79.3801213,Ottway Herbs & Vitamins,,,,+1-416-967-9222,M4Y 2C5,,Church Street,http://www.ottway.com,yes
,,Toronto,,,,,,473,43.6645126,-79.3803247,The Village Pharmacy,,,,+1-416-967-9221,M4Y 2C5,,Church Street,https://thevillagepharmacy.ca,no
Pharmasave Cabbagetown Pharmacy,Pharmasave,Toronto,,,,,,457,43.6636039,-79.3675059,Pharmasave,,,,+1-416-920-6337,M5A 3A3,,Parliament Street,,yes
,,Toronto,,,,,,572,43.6741200,-79.3851761,Dale's Pharmacy,,,,+1-416-921-5700,M4X 1P8,,Parliament Street,,limited
,,,,,,,,,43.7563623,-79.5190161,Pharmacia Drugs,,,,,,,,,
,,,,,,,,,43.6278300,-79.5029513,Citrus Pharmacy,,,,+1-647-345-5115,,,,https://citruspharmacy.ca/,
,,,,,,,,,43.6209499,-79.4834580,,,,,,,,,,
,Shoppers Drug Mart,,,,,,Mo-Su 08:00-22:00,,43.6452279,-79.3968824,Shoppers Drug Mart,,,,,,,King Street West,,yes
,,Etobicoke,,yes,,,Mo-Sa 09:00-19:00,1701,43.7330378,-79.5889027,John Garland Pharmacy & Walkin Clinic,yes,yes,yes,,M9V 4N4,,Martin Grove Road,,
,Shoppers Drug Mart,,,yes,,,,,43.6777039,-79.3895544,Shoppers Drug Mart,,,,,,,,,
,Rexall,,,,,,Mo-Su 08:00-22:00,,43.6433455,-79.4224754,Rexall,,,,,,,,,
,,Toronto,,yes,,,,1705,43.6741488,-79.4594899,Green Medical Pharmacy,,,,,,,St. Clair Avenue West,,
,,Toronto,,,,,,160,43.6367837,-79.4370076,Parkdale Pharmacy,,,,+1-416-516-2039,,,Springhurst Avenue,,
,,Toronto,,,,,,15,43.6476650,-79.4202532,United Drug Mart,,,,+1-416-533-8511,,,Ossington Avenue,,
,,Toronto,,,,,"Mo-Fr 09:30-18:30, Sa 09:30-14:00",1168A,43.6494719,-79.4219182,Well.ca Pharmacy,,,,,,,Dundas Street West,,
,Rexall,,,yes,,,"Mo-Fr 07:00-22:00; Sa,Su 09:00-20:00",48,43.6479288,-79.3775319,Rexall,,,,+1-416-366-4355,M5E 1G6,,Yonge Street,,
,I.D.A.,,,,,,,290,43.6346464,-79.5624720,I.D.A.,,,,,,,The West Mall,,
,,,,,,,,4335,43.6309011,-79.5758488,Markland Woods Pharmacy,,,,,,,Bloor Street West,,
,,,,,,,,3101,43.6462414,-79.5154662,Cosmo Pharmacy,,,,,,,Bloor Street West,,
Meds Canadian Compounding Pharmacy,,,,,,,,2920,43.6484278,-79.5072017,Meds,,,,+1-416-239-3566,,,Bloor Street West,https://www.medspharmacy.ca/canadian-compounding-pharmacy,
,,,,,,,,1500,43.6922451,-79.5318827,Drugtown Pharmacy,,,,,,,Royal York Road,,
,,,,,,,,1451,43.6868698,-79.5280391,Trillium Drug Mart,,,,,,,Royal York Road,,
,,,,yes,,,,,43.6323024,-79.5521098,Cloverdale Pharmacy,,,,,,,,,
,,,,,,,,140,43.6856004,-79.5237409,La Rose Pharmacy,,,,,,,La Rose Avenue,,
,,,,,,,,320,43.6822729,-79.5104264,Metro Drugs,,,,,,,Scarlett Road,,
,,,,yes,,,,,43.6970474,-79.5440998,Westown Pharmacy,,,,,,,,,
,Shoppers Drug Mart,,,yes,,,,25,43.6117441,-79.5566965,Shoppers Drug Mart,,,,,,,The West Mall,,
,,,,yes,,,,,43.6890840,-79.5423459,Westway Pharmacy,,,,,,,,,
,,,,,,,,,43.6399245,-79.4463591,Sunnyside Medical Pharmacy,,,,+1-416-537-3777,,,,,
,,Toronto,,yes,,,,15,43.6393470,-79.4461271,B&A Medical Pharmacy,,,,+1-416-537-4101,,,Roncesvalles Avenue,,
,,Toronto,,,,,,2333,43.6559257,-79.4525161,Bloor-Dundas Pharmacy,,,,,,,Dundas Street West,,
,,,,,,,,,43.6549505,-79.4495147,Loblaws,,,,,,,,,
,,,,,,,,,43.6543887,-79.4517289,Datu's Pharmacy,,,,+1-416-588-4559,,,,,
,,,,yes,,,,,43.7162625,-79.5538096,Procare Pharmacy,,,,,,,,,
,PharmaChoice,,,,,,,500,43.7212060,-79.5999572,PharmaChoice,,,,,,,Rexdale Boulevard,,
Islington Pharmacy,I.D.A.,,,yes,,,,,43.7234815,-79.5598478,I.D.A.,,,,,,,,,
Kipling Heights Pharmacy,PharmaChoice,,,yes,,,,,43.7289257,-79.5737522,PharmaChoice,,,,,,,,,
,,,,yes,,,,,43.7415920,-79.5894623,Albion-Finch Pharmacy,,,,,,,,,
Rexdale Pharmacy,Pharmasave,,,yes,,,,1620,43.7419360,-79.5916440,Pharmasave,,,,,,,Albion Road,,
,,,,yes,,,,,43.7505967,-79.5861478,Grace Pharmacy,,,,,,,,,
,,,,yes,,,,,43.7507629,-79.5842109,Kipling Medical Pharmacy,,,,,,,,,
,,,,yes,,,,,43.7567857,-79.5893594,Shih Pharmacy,,,,,,,,,
,,,,yes,,,,,43.7350675,-79.6023300,Westmore Pharmacy,,,,,,,,,
,,,,yes,,,,,43.7352684,-79.6057335,Total Health Pharmacy,,,,,,,,,
,,Toronto,,,,,,836,43.6625475,-79.4237464,Ossington Medical Pharmacy,,,,+1-416-516-9998,,,Bloor Street West,,
,Shoppers Drug Mart,Toronto,,,,,,958,43.6614900,-79.4285459,Shoppers Drug Mart,,,,,,,Bloor Street West,,
Guardian Bloorcourt Pharmacy,Guardian,Toronto,,,,,,936,43.6616598,-79.4277084,Guardian,,,,,,,Bloor Street West,,
,,,,yes,,,,2105,43.7023913,-79.5233832,Central Weston Pharmacy,,,,,,,Weston Road,,
,,,,yes,,,,,43.7014397,-79.5214787,Total Health Pharmacy,,,,,,,,,
,,,,yes,,,,,43.7011757,-79.5173473,Associated Pharmacists,,,,,,,,,
Westlaw Pharmacy,Guardian,,,yes,,,,,43.7003660,-79.5174344,Guardian,,,,,,,,,
,,,,yes,,,,,43.6997951,-79.5184434,River Hll Pharmacy,,,,,,,,,
,,Toronto,,,,,,1640,43.6556336,-79.4564275,Parkside Remedy's RX,,,,,,,Bloor Street West,,
,,,,yes,,,,,43.6890501,-79.4958161,Weston Jane Pharmacy,,,,,,,,,
,,Toronto,,,,,,849,43.6622783,-79.4237018,Bloor Street Pharmacy,,,,+1-416-537-4649,,,Bloor Street West,https://www.bloorstpharmacy.com/,
,Shoppers Drug Mart,,,,,,,,43.6666823,-79.4474682,Shoppers Drug Mart,,,,,,,,,
,,,,yes,,,,,43.7384219,-79.5399796,Weston Care Pharmacy,,,,,,,,,
,,,,yes,,,,,43.7512863,-79.5442910,Discount Drugs,,,,,,,,,
,,,,yes,,,,,43.7514593,-79.5431609,Finch Weston Pharmacy,,,,,,,,,
,,,,yes,,,,,43.7527999,-79.5406622,Sherbourne Pharmacy & Medical Clinic,,,,,,,,,
,,,,,,,,,43.6571710,-79.4032815,Raxlan Pharmacy,,,,,,,,,
,,,,yes,,,,,43.7497691,-79.5499658,Main Drug Mart,,,,,,,,,
St. Joseph Pharmacy,I.D.A.,,,yes,,,,,43.7563403,-79.5695087,I.D.A.,,,,,,,,,
,,,,yes,,,,,43.7579027,-79.5706153,Humber Summit Pharmacy,,,,,,,,,
,,,,yes,,,,,43.7192126,-79.5075559,Jane Wilson Pharmacy,,,,,,,,,
,,,,yes,,,,,43.7053233,-79.5047809,Jane Pharmacy,,,,,,,,,
,,,,yes,,,,,43.6990544,-79.5024908,The Pharmacy Network,,,,,,,,,
,Guardian,,,yes,,,,,43.6775410,-79.4957255,Guardian,,,,,,,,,
,,,,yes,,,,,43.6771889,-79.4945704,Jane Park Pharmacy,,,,,,,,,
,,,,,,,,,43.6492885,-79.4837082,Action Pharmacy,,,,+1-416-766-2401,,,,,
,,,,yes,,,,,43.7386511,-79.5120747,Pharmatrust,,,,,,,,,
,,,,yes,,,,,43.7398557,-79.5143128,Sav-On Drug Mart,,,,,,,,,
,,,,yes,,,,,43.7413024,-79.5141777,Homa Pharmacy,,,,,,,,,
,,,,yes,,,,,43.7483342,-79.5159070,Jane Central Pharmacy,,,,,,,,,
,,,,yes,,,,,43.7518681,-79.5154072,Super Care Pharmacy,,,,,,,,,
,I.D.A.,,,yes,,,,1,43.7588292,-79.5198799,I.D.A.,,,,,,,York Gate Boulevard,,
,Rexall,,,yes,,,,,43.7696221,-79.5211099,Rexall,,,,,,,,,
,,,,,,,,,43.6495340,-79.4405629,No Frills Pharmacy,,,,,,,,,
,,Toronto,,,,,,2209-2215,43.6510813,-79.4758970,The Healing Source Pharmacy,,,,+1-416-769-1717,,,Bloor Street West,http://healingsourcepharmacy.ca/,
Guardian Unicare Pharmacy,Guardian,,,,,,,,43.5982052,-79.5179178,Guardian,,,,,,,,,
,,,,,,,,,43.6302706,-79.4764388,Medicine Cabinet Pharmacy,,,,,,,,,
,,,,,,,,,43.6883264,-79.3001975,Danforth Main Pharmacy,,,,,,,,,
,,,,,,,Mo-Th 09:00-20:30; Fr 09:00-17:30; Sa 09:00-12:00,,43.6480833,-79.5054777,Prince Edward Pharmacy,,,,+1-647-748-3331,,,,,
,Guardian,,,,,,,,43.6196133,-79.5486063,Guardian,,,,+1-416-255-4500,,,,https://www.guardian-ida-pharmacies.ca/en/ontario/etobicoke/etobicoke-clinic-guardian-pharmacy-7023212,
,,Toronto,,yes,,,,100,43.6398915,-79.4176930,Metro Pharmacy,,,,,,,Lynn Williams Street,,yes
,,Toronto,,,,,,200,43.6503196,-79.3972921,Cadence Health Centre,,,,,,,Spadina Avenue,,
,,,,,,,Mo-Fr 09:00-21:00; Sa 09:00-19:00; Su 09:00-18:00,,43.6439443,-79.5596597,Loblaws Pharmacy,,,,,,,,,
,,,,yes,,,,,43.6653227,-79.4739317,Junction Chemist,,,,,,,,,
,,,,,,,,,43.6305677,-79.4806042,Sobeys Pharmacy,,,,,,,,,
,,,,yes,,,,1460,43.6407729,-79.4363396,Vina Pharmacy,,,,,,,Queen Street West,,
,Guardian,,,,,,,,43.6452287,-79.5222482,Guardian,,,,,,,,,
,,,,,,,,,43.6551315,-79.4149377,Medi-Place Pharmacy,,,,+1-416-588-8780,,,,,
,,,,yes,,,,,43.7685166,-79.5207057,Jane Shoreham Pharmacy,,,,,,,,,
Lily Pharmacy,I.D.A.,,,yes,,,,,43.7404264,-79.5121775,I.D.A.,,,,,,,,,
Sheridan Pharmacy,I.D.A.,,,yes,,,,1700,43.7212506,-79.5115024,I.D.A.,,,,,,,Wilson Avenue,,
,,,,yes,,,,,43.7193837,-79.5118626,Beverly Hills Pharmacy,,,,,,,,,
,,,,yes,,,,,43.7278410,-79.4781272,Humber Pharmacy,,,,,,,,,
,,,,yes,,,,,43.7266557,-79.4804194,Wilson Compounding Pharmacy,,,,,,,,,
,Shoppers Drug Mart,,,yes,,,,6464,43.7962643,-79.4223893,Shoppers Drug Mart,,,,,,,Yonge Street,,
Pharmacare Pharmacy,I.D.A.,,,yes,,,,,43.7304801,-79.4684988,I.D.A.,,,,,,,,,
,Pharmasave,,,yes,,,,,43.7307731,-79.4673020,Pharmasave,,,,,,,,,
,,,,yes,,,,,43.7314854,-79.4639590,Nhatrang Drug Mart,,,,,,,,,
,Pharmasave,,,,,,,,43.6413570,-79.3997169,Pharmasave,,,,,,,,,
,,,,yes,,,,,43.7138302,-79.4539004,John & Jack Pharmacy,,,,,,,,,
,,,,yes,,,,,43.7086175,-79.4539980,Glen Park Pharmacy,,,,,,,,,
,,,,yes,,,,,43.7025054,-79.4530326,Briarhill Pharmacy,,,,,,,,,
,,,,yes,,,,,43.6961992,-79.4486202,Eglinton Discount Drugs,,,,,,,,,
,,,,yes,,,,,43.6960642,-79.4478358,Northcliffe Pharmacy,,,,,,,,,
,,,,yes,,,,,43.6584108,-79.4083371,St. George Drug Mart,,,,,,,,,
,,,,yes,,,,,43.6392399,-79.3997576,Bloom Pharmacy,,,,,,,,,
,Shoppers Drug Mart,,,yes,,,,1090,43.6401924,-79.4219751,Shoppers Drug Mart,,,,,,,King Street West,https://www1.shoppersdrugmart.ca/en/store-locator/store/1005,
,,,,,,,,,43.7514149,-79.5998291,Silverstone Pharmacy,,,,,,,,,
,,,,,,,,,43.7441103,-79.6045518,Albion Drug Store,,,,,,,,,
,Shoppers Drug Mart,,,yes,,,,,43.7761649,-79.2572582,Shoppers Drug Mart,,,,,,,,,
Kanan's Pharmacy,Guardian,,,yes,,,,,43.7435559,-79.2146648,Guardian,,,,,,,,,
,,,,yes,,,,,43.7439189,-79.2179057,Supercare Pharmacy,,,,,,,,,
,,,,yes,,,,,43.7429765,-79.2210700,Best Care Village Pharmacy,,,,,,,,,
,,,,yes,,,,,43.7455772,-79.2204511,Sunrise Pharmacy,,,,,,,,,
,,,,yes,,,,,43.7617613,-79.2266083,,,,,,,,,,
,,,,yes,,,,,43.7674900,-79.2287982,Apothe,,,,,,,,,
,Remedy'sRx,,,yes,,,,,43.7584331,-79.2337994,Remedy'sRx,,,,,,,,,
,Pharmasave,,,yes,,,,,43.7596926,-79.2270095,Pharmasave,,,,,,,,,
,,,,yes,,,,,43.7625038,-79.2147551,Golfdale Pharmacy,,,,,,,,,
,,,,yes,,,,,43.7596918,-79.2233048,Mercury Drugs,,,,,,,,,
,PharmaChoice,,,yes,,,,,43.7607905,-79.2226918,PharmaChoice,,,,,,,,,
,,,,yes,,,,,43.8061011,-79.2207262,Medicine Shoppe Pharmacy,,,,,,,,,
Rylander Pharmacy,Pharmasave,,,yes,,,,,43.7980445,-79.1485714,Pharmasave,,,,,,,,,
,I.D.A.,,,,,,,,43.6377290,-79.4886817,I.D.A.,,,,,,,,,
,Shoppers Drug Mart,,,,,,,,43.6556729,-79.3804371,Shoppers Drug Mart,,,,,,,,,
,Shoppers Drug Mart,,,,,,,,43.7622320,-79.4102442,Shoppers Drug Mart,,,,,,,,,
,,,,,,,,911,43.6606260,-79.3415418,Wood Green Discount Pharmacy,,,,,,,Queen Street East,,
,,,,,,,,,43.6596403,-79.3469612,St. Mary Pharmacy,,,,,,,,,
,,Scarborough,,yes,,,,2900,43.7392780,-79.2382141,Ash Medical Pharmacy,,,,,M1J 2E4,,Eglinton Avenue East,,
,,,,yes,,,,,43.6980641,-79.3963165,Pharmasave Davisville Pharmacy,,,,,,,,,
,,,,,,,Mo-Fr 09:00-21:00; Sa-Su 09:00-17:00,200,43.6511779,-79.3662711,No Frills Pharmacy,,,,,,,Front Street East,,
,,,,,,,,997,43.6685657,-79.3380328,Total Health Pharmacy,,,,,,,Gerrard Street East,,
,,,,,,,,,43.6687316,-79.3372529,Vina Pharmacy,,,,,,,,,
,,,,,,,,,43.6392790,-79.5621387,One Eva Pharmacy,,,,,,,,,
,,,,yes,,,,,43.7776679,-79.4153040,,,,,,,,,,
,,,,yes,,,,,43.6650363,-79.3876855,Pharmasave,,,,,,,,,
,,Toronto,,yes,,,,2760,43.7186694,-79.4011390,Glengrove Pharmacy,,,,,,,Yonge Street,,
,Shoppers Drug Mart,Toronto,,yes,,,Mo-Su 08:00-22:00,593,43.6602426,-79.3613500,Shoppers Drug Mart,,,,,M5A 3H6,Ontario,Dundas Street East,,
,Pharmasave,Toronto,CA,yes,,,,1275,43.7639044,-79.4874792,Pharmasave,,,,,M3J 2G5,ON,Finch Avenue West,,
